pref,city,district,latitude,longitude,name,description
静岡県,天竜区,水窪町山住河内浦,35.142371,137.890563,臼が森集落,https://twitter.com/kendou774/status/1074235083190497285
静岡県,天竜区,水窪町奥領家水窪,35.177334,137.817081,旧・水窪町夏焼集落,https://twitter.com/kendou774/status/1059031714029137921
徳島県,つるぎ町,一宇,33.930097,134.07629,九藤中集落,https://twitter.com/kendou774/status/1150660364540841985
山梨県,早川町,雨畑,35.376069,138.305426,硯島地区,https://twitter.com/kendou774/status/1208608848925167616
島根県,江津市,松川町長良,34.981223,132.297492,江津市瀬尻集落,https://twitter.com/kendou774/status/1118510850380185600
和歌山県,高野町,大字湯川,34.192352,135.528116,高野山　湯川地区,https://twitter.com/kendou774/status/1124319466202886145
山梨県,身延町,杉山,35.438558,138.540741,山神社,https://twitter.com/kendou774/status/1066323124696702977
和歌山県,田辺市,本宮町土河屋,33.888764,135.762767,鹿淵集落,https://twitter.com/kendou774/status/1129998572869414912
徳島県,つるぎ町,一宇,33.948202,134.056892,十家集落,https://twitter.com/kendou774/status/1056885726489468929
静岡県,川根本町,東藤川,35.06448,138.170693,小猿郷集落,https://twitter.com/kendou774/status/1206059559283908609
和歌山県,白浜町,大字小房,33.66739,135.520263,小房集落,https://twitter.com/kendou774/status/1182936315383300096
和歌山県,白浜町,大字上露,33.652673,135.566547,上露集落,https://twitter.com/kendou774/status/1108701457438507009
山梨県,身延町,大山,35.498133,138.516011,身延町大山集落,https://twitter.com/kendou774/status/1160441642135851013
奈良県,川上村,大字中奥,34.333585,136.043873,瀬戸集落,https://twitter.com/kendou774/status/1203564853744455681
鹿児島県,瀬戸内町,大字古仁屋,28.199912,129.435596,青久集落,https://twitter.com/kendou774/status/1086589064218726400
愛媛県,西条市,西之川,33.816647,133.119289,石鎚村,https://twitter.com/kendou774/status/1213363593908850689
徳島県,三好市,,33.925753,133.893106,祖谷山,https://twitter.com/kendou774/status/1216722697419247620
岐阜県,飛騨市,神岡町佐古,36.427049,137.359786,大多和集落,https://twitter.com/kendou774/status/1176849167538249728
高知県,四万十町,小鶴津,33.208495,133.233175,大鶴津・小鶴津集落,https://twitter.com/kendou774/status/1195885201538220032
徳島県,吉野川市,美郷,33.984737,134.229305,中村山,https://twitter.com/kendou774/status/1234091412502671360
兵庫県,宍粟市,宇野,35.041908,134.530935,長水山,https://twitter.com/kendou774/status/1167771996672839682
長野県,天龍村,長島,35.282709,137.838593,天龍村　長沼,https://twitter.com/kendou774/status/1112209595970142208
高知県,香美市,別府,33.748322,134.02815,謎の集落,https://twitter.com/kendou774/status/1140158879252090886
奈良県,十津川村,大字竹筒,33.872429,135.860388,百夜月,https://twitter.com/kendou774/status/1071575444749598720 https://twitter.com/search?f=tweets&q=since%3A2018-08-24%20until%3A2018-08-25%20from%3Akendou774&src=typd https://twitter.com/search?f=tweets&q=-filter%3Areplies%20since%3A2018-08-19%20until%3A2018-08-23%20from%3Akendou774&src=typd
徳島県,つるぎ町,一宇,33.911348,134.062922,平井集落,https://twitter.com/kendou774/status/1144247780317306880 https://twitter.com/kendou774/status/1138811025069826049
長野県,飯田市,上村上町,35.364573,137.987745,平畑,https://twitter.com/kendou774/status/1059790838312529920
長野県,小谷村,大字北小谷,36.840099,137.918243,埋橋集落,https://twitter.com/kendou774/status/1135136400125308929
長野県,阿南町,大字大下条東條,35.322094,137.852454,万古集落,https://twitter.com/kendou774/status/1192064611022860290
長野県,飯田市,南信濃,35.307946,137.875972,名田熊集落,https://twitter.com/kendou774/status/1165234418660700161
愛媛県,西条市,荒川,33.855573,133.19041,李集落,https://twitter.com/kendou774/status/1226401678582136832
長野県,飯田市,上村上町,35.39093,137.969109,R256の終点付近,https://twitter.com/kendou774/status/1038041824139431939
兵庫県,宍粟市,小野,35.120611,134.543209,上ノ波賀線,https://twitter.com/kendou774/status/1065208150305910784
静岡県,天竜区,水窪町奥領家草木,35.254223,137.910926,青崩峠トンネル,https://twitter.com/kendou774/status/1206057183420403713
茨城県,石岡市,大塚,36.287474,140.151815,大塚真壁線,https://twitter.com/kendou774/status/1054697266798194690
東京都,奥多摩町,河内,35.742855,139.035287,東京r206旧道,https://twitter.com/search?f=tweets&q=since%3A2018-08-23%20until%3A2018-08-24%20from%3Akendou774&src=typd
兵庫県,宍粟市,小野,35.133141,134.535828,兵庫r546,https://twitter.com/kendou774/status/1064508331694292992
福島県,広野町,,37.201108,140.910516,片倉末続停車場線,https://twitter.com/kendou774/status/1080373550307930113
福島県,いわき市,大久町大久,37.189109,140.938325,片倉末続停車場線,https://twitter.com/kendou774/status/1058704091407253504
沖縄県,久米島町,字奥武,26.340614,126.839712,オーハ島,https://twitter.com/kendou774/status/1131559099982680064
広島県,大崎上島町,東野,34.297359,132.902566,契島,https://twitter.com/kendou774/status/1097063499132329984
島根県,益田市,土田町,34.835716,131.835809,高島,Twitterまとめ： https://twitter.com/kendou774/status/1256194838531194882 高島の証(島民への聞き取り資料)：  https://drive.google.com/file/d/179GoG3OVqbzuwB7oMmyc0fzDLi5xtHRB/view)
山口県,周南市,大字大津島,34.030469,131.745901,黒髪島,https://twitter.com/kendou774/status/1152809894237442051
愛媛県,今治市,宮窪町四阪島,34.108109,133.183994,四阪島,https://twitter.com/kendou774/status/1120682074308956160
山口県,周南市,大字富田,34.041992,131.765299,仙島,https://twitter.com/kendou774/status/1094244456813871106
沖縄県,渡嘉敷村,字前島,26.213205,127.446899,前島,https://twitter.com/kendou774/status/1127185606063169536 https://twitter.com/kendou774/status/1189538696350928896
長崎県,西海市,大串郷,32.996319,129.743214,竹島,https://twitter.com/kendou774/status/1201489768913129474
愛媛県,今治市,吉海町津島,34.152194,133.001132,津島,https://twitter.com/kendou774/status/1122494047661072386
山口県,萩市,櫃島,34.518332,131.387987,櫃島,https://twitter.com/kendou774/status/1249242065201852416
長野県,阿南町,大字大下条東條,35.311755,137.848613,為栗駅,https://twitter.com/kendou774/status/1076097458877296646
岩手県,宮古市,和井内,39.725541,141.69282,押角駅,https://twitter.com/kendou774/status/1079647951406821376
徳島県,三好市,西山,34.054064,133.823905,坪尻駅,https://twitter.com/kendou774/status/1069912799432781826
