name,pref,city,district,latitude,longitude,urban_point,in_mesh_point,is_island
スワン44ねむろ,北海道,根室市,酪陽,43.2616741,145.438370399999,335.67070728734785,6445731513,False
さるふつ公園,北海道,猿払村,浜鬼志別,45.329219,142.177348,368.6711978741343,,False
ぐるっとパノラマ美幌峠,北海道,美幌町,字古梅,43.647837,144.24901,412.5790193849444,,False
マリーンアイランド岡島,北海道,枝幸町,岡島,44.8783757,142.631812999999,415.7854037259454,6742255023,False
しらたき,北海道,遠軽町,奥白滝,43.870061,143.076278,427.5791108095688,,False
おだいとう,北海道,別海町,尾岱沼,43.533413,145.236875599999,458.15849015535616,6545214822,False
びふか,北海道,美深町,字紋穂内,44.5588576,142.3200331,467.0950788476353,,False
てっくいランド大成,北海道,せたな町,大成区花歌,42.212366,139.876681,482.9923576184104,,False
愛ランド湧別,北海道,湧別町,登栄床,44.1308204,143.719206399999,541.3215645395254,,False
サロマ湖,北海道,佐呂間町,字若里,44.0999179,143.8241425,569.8983165218401,,False
森と湖の里ほろかない,北海道,幌加内町,字政和第一,44.114633,142.139546,612.8473997485555,6642113131,False
さらべつ,北海道,更別村,字弘和,42.6333115,143.2718483,701.1234918337859,,False
ピンネシリ,北海道,中頓別町,字敏音知,44.8774622,142.213402099999,722.0397666876011,,False
奄美大島住用,鹿児島県,奄美市,大字役勝字下役勝,28.25964435,129.4088365,725.592744696104,4229331221,True
かわうち湖,青森県,むつ市,川内町国有林野地内,41.2703981,140.888218899999,734.8029488056951,,False
オスコイ！かもえない,北海道,神恵内村,大字赤石村,43.1653589,140.3855694,763.5336592613262,,False
足寄湖,北海道,足寄町,中矢,43.2522652,143.4806105,770.0783785960025,6443730814,False
阿寒丹頂の里,北海道,釧路市,阿寒町上阿寒,43.1440197,144.1469574,892.3653275923224,6444517124,False
おびら鰊番屋,北海道,小平町,字広富,44.137022,141.654956,916.4286869035768,6641156214,False
☆ロマン街道しょさんべつ,北海道,初山別村,字豊岬,44.5635037,141.7768178,924.158543663034,,False
しりうち,北海道,知内町,字上雷,41.6012589,140.3358339,983.5597345838823,6240322622,False
みついし,北海道,新ひだか町,字鳧舞,42.2208744,142.634226099999,1011.0632712668717,,False
白金ビルケ,北海道,上富良野町,清富,43.503055833000076,142.5972233330001,1013.7846467587249,6542240724,False
たいらだて,青森県,外ヶ浜町,字平舘門の沢,41.1748371,140.6411974,1036.4987860569263,6140650134,False
にしおこっぺ花夢,北海道,西興部村,字上興部,44.3359883,142.8680679,1040.508088308896,6642460914,False
はちもり,秋田県,八峰町,八森,40.421583,139.948678,1097.086318949837,,False
なかがわ,北海道,中川町,字誉,44.8016912999999,142.067347899999,1118.2345045694603,6742106512,False
あいおい,北海道,津別町,字布川,43.545622,143.980525,1191.1269903135112,6543275814,False
らんこし・ふるさとの丘,北海道,蘭越町,目名町,42.7620988,140.478985299999,1239.7733836166267,6440131814,False
わきのさわ,青森県,むつ市,脇野沢字滝山,41.167961,140.80477,1264.6186542629694,6140660412,False
上ノ国もんじゅ,北海道,上ノ国町,字原歌,41.8084965,140.0949663,1315.5677857603584,6240507721,False
しらぬか恋問,北海道,白糠町,西庶路東三条南４丁目,42.9927351,144.1981267,1320.206172036808,,False
みんまや,青森県,外ヶ浜町,字三厩龍浜,41.2538342,140.346791199999,1323.5562252809368,,False
こどまり,青森県,中泊町,大字小泊字浜野,41.1449049,140.320595799999,1378.4150421703396,,False
十三湖高原,青森県,中泊町,大字今泉字唐崎,41.045391,140.385462,1410.4012195238392,,False
三田貝分校,岩手県,岩泉町,門,39.871122,141.589311,1436.2124411327513,5941644731,False
しほろ温泉,北海道,士幌町,字下居辺,43.138881,143.367911,1469.5786237051723,6443526932,False
ふかうら,青森県,深浦町,大字風合瀬,40.7442227,140.0004692,1475.9776178696634,6140009013,False
いまべつ,青森県,今別町,大字大川平,41.145511,140.514335,1523.3812890017473,,False
たのはた,岩手県,田野畑村,室場,39.909617,141.902577,1532.2749888246635,5941679211,False
シェルプラザ・港,北海道,寿都町,字磯谷町能津登,42.8801825,140.370026999999,1567.3067462508295,6440225941,False
くろまつない,北海道,黒松内町,字熱郛原野,42.6727094,140.3800337,1576.4654930711229,6440030032,False
しんごう,青森県,新郷村,大字戸来,40.4317584,141.0744455,1590.8689074138344,,False
絵本の里けんぶち,北海道,剣淵町,東町,44.0938311,142.390979799999,1650.01105800055,,False
宇目,大分県,佐伯市,大字南田原,32.8037318,131.6103962,1682.694746127135,,False
布施ヶ坂,高知県,津野町,船戸,33.4266321,133.099612,1692.9348267839619,5033101722,False
おおぎみ,沖縄県,大宜味村,字根路銘,26.69032089,128.1081144,1714.0221251279277,,False
フォーレスト276大滝,北海道,伊達市,三階滝町,42.6980639,141.1303673,1724.2902257814455,,False
くずまき高原,岩手県,岩手町,大字江刈内,39.984567,141.339957599999,1745.8878529394972,5941728711,False
よってけ！島牧,北海道,島牧村,字元町,42.6867269,140.0134173,1773.7487455891703,6440002113,False
とうや湖,北海道,洞爺湖町,字洞爺町,42.6645113999999,140.8218199,1783.8361920185444,,False
ピア21しほろ,北海道,士幌町,字中士幌,43.14431243535183,143.23927561066256,1792.8264550168003,6443517913,False
サンフラワー北竜,北海道,北竜町,字板谷,43.7510483,141.875302,1810.8198859315382,6541570011,False
ゆすはら,高知県,檮原町,太郎川,33.3883586039407,132.944983352392,1834.8086738813352,,False
瀬戸農業公園,愛媛県,伊方町,塩成,33.4474558,132.2580887,1841.0776047256393,,False
四万十とおわ,高知県,四万十町,十和川口,33.22391239,132.835433,1856.753661227617,4932666644,False
こさか七滝,秋田県,小坂町,上向字藤原,40.356598,140.781686,1864.0262490928649,6040462243,False
四万十大正,高知県,四万十町,瀬里,33.1825666,132.9713214,1887.6234951387428,4932671743,False
木の香,高知県,いの町,足谷,33.77982358,133.3076915,1946.9516969713454,,False
やたて峠,秋田県,大館市,長走,40.4210338,140.624428999999,1962.4514423442624,,False
やまびこ館,岩手県,宮古市,夏屋,39.6488825,141.5891622,1997.1811144240244,,False
おおの,岩手県,洋野町,大野,40.2792091,141.6634076,2006.170630790809,6041353313,False
うり坊の郷katamata,山口県,萩市,大字片俣,34.4832259,131.6322742,2030.8797732691057,5131557043,False
種山ヶ原,岩手県,住田町,世田米字子飼沢,39.1798365,141.3958808,2032.087462033459,5841631141,False
今治市多々羅しまなみ公園,愛媛県,今治市,上浦町甘崎,34.2548482,133.0545056,2037.5074058877701,5133300432,False
願成就温泉,島根県,津和野町,中座,34.4344327,131.7705123,2169.5790040754523,,False
錦秋湖,岩手県,北上市,和賀町仙人,39.3007195,140.875146999999,2174.680446563569,,False
桜峠,石川県,能登町,字太田原,37.3313915,137.011255099999,2180.526977607817,,False
うずしお,徳島県,鳴門市,鳴門町土佐泊浦,34.2420275,134.6597796,2204.4083336299877,,False
北浦,宮崎県,延岡市,北浦町古江阿蘇,32.68479224,131.8009041,2222.5284138724933,,False
はやちね,岩手県,花巻市,内川目,39.5367746,141.3404903,2225.214735019436,5941224713,False
匹見峡,島根県,益田市,匹見町道川,34.6434408362994,132.091414707934,2229.4143211293294,5132707712,False
まるせっぷ,北海道,遠軽町,丸瀬布元町,43.9959412,143.3287235,2236.8812214954314,,False
ルート229元和台,北海道,乙部町,字三ツ谷,42.0113971,140.1062194,2261.7659776103624,6340001814,False
なとわ・えさん,北海道,函館市,日ノ浜町,41.7794873,141.1016303,2279.0836879136295,6241503831,False
イノブータンランド・すさみ,和歌山県,すさみ町,和深川,33.519882,135.545723,2336.202326043006,5035242323,False
千枚田ポケットパーク,石川県,輪島市,白米町,37.424166,136.997631,2354.4463777803035,5636170944,False
酒谷,宮崎県,日南市,大字酒谷甲酒谷７区,31.64171361,131.2662425,2356.0237073020976,4731326134,False
すず塩田村,石川県,珠洲市,仁江町,37.486335,137.113786,2357.5343797465403,5637108913,False
奥出雲おろちループ,鳥取県,日南町,新屋杉谷,35.0959542,133.1278312,2414.77591109486,,False
大月,高知県,大月町,大字弘見亀尾,32.82875238,132.7093139,2443.5285022614985,,False
もみじ川温泉,徳島県,那賀町,大久保,33.7976977,134.4462171,2446.7685175117304,5034535541,False
キラメッセ室戸,高知県,室戸市,元,33.3064297,134.1102099,2457.405737509665,4934706844,False
一枚岩,和歌山県,古座川町,相瀬,33.5459472,135.7201178,2507.9644957224464,5035255741,False
はなやか（葉菜野花）小清水,北海道,小清水町,字浜小清水,43.9339211,144.453267999999,2519.2374512622955,6544732612,False
大歩危,徳島県,三好市,,33.881363,133.7600397,2547.594692149771,5033665044,False
あかいがわ,北海道,赤井川村,字都,43.05086768,140.844843,2549.540400616339,,False
月山,山形県,鶴岡市,上名川,38.5869944,139.874501,2576.8180939411604,,False
富士見,北海道,遠別町,遠別汐見町,44.7141204,141.7936472,2599.8888159956464,6741065332,False
協和,秋田県,大仙市,協和荒川字上荒川,39.61884,140.362517,2626.3762187947736,,False
大山,高知県,安芸市,伊尾木下山,33.47009977,133.9440693,2663.7882623040123,,False
狼煙,石川県,珠洲市,狼煙町,37.525975,137.324423,2678.7666787401886,5637223522,False
望羊中山,北海道,喜茂別町,字福島,42.8551768,141.096589099999,2708.0490945890742,,False
香りの里たきのうえ,北海道,滝上町,新町,44.19689,143.090986,2717.045345112017,6643203732,False
めじかの里土佐清水,高知県,土佐清水市,三崎,32.7935136,132.8831857,2737.6924884119285,,False
ひろた,愛媛県,砥部町,総津,33.6403789,132.7998209,2741.917977296669,,False
長門峡,山口県,山口市,阿東篠目,34.3031352,131.5762756,2796.500053947177,5131346613,False
なんごう,宮崎県,日南市,夫婦浦,31.50305750451858,131.37893236128008,2821.5633796942134,,False
633美の里,高知県,いの町,上八川,33.6436742,133.3283198,2826.2179127647937,,False
さんりく,岩手県,大船渡市,三陸町越喜来字泊,39.121158,141.798998,2846.97968799615,,False
みさわ,青森県,三沢市,谷地頭２丁目,40.7854137,141.3638954,2851.293600219675,6141124911,False
ゆうひパーク三隅,島根県,浜田市,折居町,34.8203532,131.9768367,2868.8084034614594,5231178813,False
たたらば壱番地,島根県,雲南市,吉田町吉田,35.167018,132.8302795,2869.457363600169,,False
瀧之拝太郎,和歌山県,古座川町,小川,33.601578,135.765646,2869.8943849176844,5035362112,False
虹の湖,青森県,黒石市,大字袋,40.581966,140.687643,2881.8021413541405,,False
萩・さんさん三見,山口県,萩市,三見,34.3889298,131.3219684,2889.7590115329162,,False
にしいや,徳島県,三好市,,33.8891692,133.811312,2892.822008295424,,False
サンエイト美都,島根県,益田市,美都町丸茂,34.6877695,132.0221317,2893.85918858065,5232002142,False
田園の里うりゅう,北海道,雨竜町,平和,43.6625089,141.8940224,2902.8677494962008,,False
グリーンロード大和,島根県,美郷町,長藤,34.9675792,132.6417383,2929.7166368101907,5232356112,False
区界高原,岩手県,盛岡市,簗川第１地割,39.6516145,141.3535295,2929.8032389751415,5941328812,False
雫石あねっこ,岩手県,雫石町,橋場安栖,39.706412,140.874886,2935.544436258203,,False
おろちの里,島根県,雲南市,木次町北原,35.2203028,132.9620748,2958.243871514654,,False
みかわ,愛媛県,久万高原町,上黒岩,33.61453348177243,132.96965641623294,2958.745497991764,5032373741,False
たかの,広島県,庄原市,高野町中門田,35.024058,132.8815981,2977.2888307613,5232472043,False
清流の里ひじかわ,愛媛県,大洲市,肱川町宇和川,33.46112194,132.6766988,2979.6882091085045,5032155413,False
つるぬま,北海道,浦臼町,鶴沼第２,43.4516011,141.8357178,3048.32349775889,6541164622,False
フェニックス,宮崎県,宮崎市,大字折生迫,31.7689827,131.4784246,3063.3698060134384,4731532814,False
犬挟,鳥取県,倉吉市,関金町山口,35.3293041,133.7560998,3068.262043586507,,False
霧の森,愛媛県,四国中央市,新宮町馬立,33.92418679,133.6411104,3082.6520765951095,,False
根占,鹿児島県,南大隅町,根占山本,31.1855383,130.7673153,3114.5828597749755,4630662114,False
ことなみ,香川県,まんのう町,勝浦,34.0950942,134.007744,3122.4541278100087,5134101023,False
長島,鹿児島県,長島町,指江,32.1616955,130.1092388,3124.9670054098547,,False
ふぉレスト君田,広島県,三次市,君田町西入君,34.8990665,132.8494852,3136.285453595648,,False
波野,熊本県,阿蘇市,波野大字小地野,32.9599128,131.1974424,3164.026093983938,,False
スパ羅漢,広島県,廿日市市,中道,34.389119,132.1042513,3174.6409566019424,,False
大館能代空港,秋田県,北秋田市,脇神,40.19197,140.371628,3177.4256929876346,,False
笹川流れ,新潟県,村上市,桑川,38.3751788,139.458521099999,3196.180240522798,5739435621,False
パパスランドさっつる,北海道,清里町,札弦町,43.7904595,144.5339946,3200.465112881818,6544544243,False
いわいずみ,岩手県,岩泉町,乙茂,39.8423053,141.8626587,3212.1361573735016,,False
頓原,島根県,飯南町,花栗,35.0897856,132.7856173,3327.17647165401,,False
伊方きらら館,愛媛県,伊方町,九町,33.48089422,132.3075462,3344.755252807894,,False
瀞峡街道熊野川,和歌山県,新宮市,熊野川町田長,33.791406,135.897097,3346.665764578873,,False
よって西土佐,高知県,四万十市,西土佐奈路,33.1732559,132.7890999,3347.7080841417455,4932660333,False
230ルスツ,北海道,留寿都村,字留寿都,42.7399293,140.884562599999,3355.6783228041922,6440078044,False
うりまく,北海道,鹿追町,瓜幕東３丁目,43.1697466,143.0250228,3416.7770895381855,6443600213,False
おといねっぷ,北海道,音威子府村,字音威子府,44.729078,142.257872,3446.158984607074,6742027023,False
あつみ,山形県,鶴岡市,早田,38.580422,139.558108599999,3459.3145185976036,5739649441,False
北方よっちみろ屋,宮崎県,延岡市,北方町早日渡巳,32.595757,131.49193,3468.437968566512,,False
田野,宮崎県,宮崎市,甲倉谷（南分団）,31.7962179384285,131.306942591262,3482.1439411025826,,False
オホーツク紋別,北海道,紋別市,海洋公園,44.3283409,143.3750043,3490.591287284805,,False
シルクウェイにちはら,島根県,津和野町,池村曽庭,34.553541,131.8080661,3492.4673773494414,,False
そよ風パーク,熊本県,山都町,大字今,32.7266122,131.1634577,3511.803059899685,4931017311,False
いいたて村の道の駅までい館,福島県,飯舘村,深谷字椚立,37.697267,140.735624,3513.0663601435663,,False
蒜山高原,岡山県,真庭市,蒜山富山根共和,35.2949044550575,133.667559857008,3538.7544548701194,,False
山之口,宮崎県,都城市,山之口町山之口,31.79442,131.202615,3547.6547567143134,,False
あゆの里矢田川,兵庫県,香美町,村岡区原,35.5565686,134.5706767,3557.5473694098628,,False
たるみず,鹿児島県,垂水市,牛根麓,31.5587885,130.7445649,3590.1568674422965,4730257921,False
田沢,山形県,米沢市,大字神原,37.8776582,139.984182299999,3596.550449242855,5639675823,False
赤神,石川県,輪島市,門前町赤神,37.2482394,136.7094471,3614.613613197569,5536659644,False
あぐり窪川,高知県,四万十町,平串,33.2311649,133.1491857,3623.370220840184,,False
たろう,岩手県,宮古市,田老,39.7634891,141.965689,3627.7185701846515,,False
熊野古道中辺路,和歌山県,田辺市,中辺路町近露関ノ平,33.8120801,135.5949713,3645.979388981008,,False
かきのきむら,島根県,吉賀町,柿木村柿木,34.4422853,131.8677416,3648.602132704443,5131563912,False
ならは,福島県,楢葉町,大字山田岡字坂下,37.2500062,140.9976258,3651.708379813236,,False
サンピコごうつ,島根県,江津市,後地町,35.0451252,132.29894,3660.3547757266806,,False
白樺の里やまがた,岩手県,久慈市,山形町,40.1509394,141.5735177,3683.6977530979443,6041148522,False
おりつめ,岩手県,九戸村,大字江刺家,40.248349,141.4165286,3692.9450701637857,6041239334,False
ゆとりパークたまがわ,山口県,萩市,大字江崎,34.6485043,131.6650353,3693.724850937844,,False
萩往還,山口県,萩市,大字椿,34.36952669,131.4130646,3694.024626572595,,False
縄文ロマン 南かやべ,北海道,函館市,安浦町,41.9279214,140.944749799999,3708.6771381116027,,False
きなはい屋しろかわ,愛媛県,西予市,城川町下相,33.379789,132.7493583,3725.9178005020813,5032055942,False
とざわ,山形県,戸沢村,大字古口真柄,38.728688,140.161431,3747.3556201649635,,False
なかじまロマン峠,石川県,七尾市,中島町中島代本,37.130547,136.863246,3751.9888096589284,,False
みねはま,秋田県,八峰町,峰浜沼田,40.2668499,140.028074,3770.0842606193455,,False
すごう,大分県,竹田市,大字菅生,32.9566388,131.2941063,3811.967909094865,,False
鷹ら島,長崎県,松浦市,神崎免,33.4338551,129.7823616,3812.5213345283255,5029162221,False
裏磐梯,福島県,北塩原村,大字檜原字雄子沢原,37.6650583,140.0437534,3831.148735671868,5640309343,False
からむし織の里しょうわ,福島県,昭和村,大字佐倉,37.325463,139.630138999999,3883.707410486049,,False
わじき,徳島県,那賀町,中山,33.8690075,134.5546957,3886.849996461162,5034644414,False
黒之瀬戸だんだん市場,鹿児島県,長島町,山門野,32.1082779,130.1709191,3886.9416992357037,4830112343,False
尾瀬街道みしま宿,福島県,三島町,大字川井,37.4777576,139.670801999999,3913.282905972003,,False
津島やすらぎの里,愛媛県,宇和島市,津島町高田,33.139682,132.5203019,3921.7007711155693,,False
大杉,高知県,大豊町,杉,33.750923,133.6634001,3930.7000533268715,5033550311,False
しもごう,福島県,下郷町,大字南倉沢,37.2035393,139.916342799999,3940.5763472042913,,False
許田,沖縄県,名護市,字許田,26.55206898,127.9693201,3949.020770619344,3927676721,False
ことおか,秋田県,三種町,鯉川,40.022308,140.08035,3956.62571503365,6040002632,False
せせらぎ郷かみつえ,大分県,日田市,上津江町川原,33.1125613,130.9619356,3972.2308498953407,4930573642,False
ふたつい,秋田県,能代市,小繋字神明社下,40.21843,140.260873,3989.2524632923783,,False
鯛生金山,大分県,日田市,中津江村合瀬,33.12915687,130.8826215,3990.2947966555535,,False
いおり,石川県,七尾市,庵町虫崎町,37.0288253,137.0465297,4015.1314671217306,5537403323,False
そうべつ情報館ｉ（アイ）,北海道,壮瞥町,字滝之町,42.559133,140.899048499999,4021.590826671076,6340677122,False
越後市振の関,富山県,朝日町,境,36.979982,137.644765,4026.0222199601835,,False
小谷,長野県,小谷村,大字北小谷,36.8452608,137.900440399999,4031.4691616881983,5537271213,False
ピュアラインにしき,山口県,岩国市,錦町府谷字河本,34.2783956,131.9695374,4034.338365072697,5131373723,False
にちなん日野川の郷,鳥取県,日南町,生山１３区,35.1706825,133.3109329,4043.4025545417926,5233620424,False
霧島,鹿児島県,霧島市,霧島田口,31.8632418574195,130.851291496017,4045.7391383267723,,False
飛騨たかね工房,岐阜県,高山市,高根町中之宿,36.0464759,137.4407412,4051.982111446976,,False
あさじ,大分県,豊後大野市,朝地町下野,33.0025623,131.4480727,4077.6468004147596,4931430524,False
有明,熊本県,天草市,赤崎,32.5055195,130.3057604,4111.973401207558,4830620432,False
ハピネスふくえ,山口県,萩市,大字福井下,34.4339084,131.4826402,4114.705753412425,5131532821,False
番屋,福島県,南会津町,番屋,37.0688217,139.6154861,4117.632751674963,5539448913,False
野方あらさの,鹿児島県,志布志市,山重,31.50002,130.9242,4138.137334903735,4730270322,False
羽鳥湖高原,福島県,天栄村,大字田良尾字芝草,37.2399765,140.063392199999,4148.022161564604,,False
くにみ,大分県,国東市,伊美,33.68050195,131.6057447,4154.784209716028,,False
芸能とトキの里,新潟県,佐渡市,新穂潟上,38.0456376,138.4441345,4155.4858648842155,5738035523,True
たじま,福島県,南会津町,糸沢,37.0865496,139.7275995,4190.22288093138,5539550813,False
土佐和紙工芸村,高知県,いの町,鹿敷,33.5735339,133.366191,4194.73660071859,5033228934,False
ゆめランド布野,広島県,三次市,布野町下布野,34.8557897,132.7970555,4213.3667988812995,,False
﨑津,熊本県,天草市,崎津,32.31666777800006,130.02528000000007,4214.912228052956,4830308211,False
しかべ間歇泉公園,北海道,鹿部町,字大岩,42.0285219,140.8305528,4223.15156990231,6340063614,False
名水の郷きょうごく,北海道,京極町,字京極,42.8589072,140.870902399999,4228.209353112329,,False
尾瀬檜枝岐,福島県,檜枝岐村,字居平,37.032756,139.395721,4234.793826224499,5539433143,False
津山,宮城県,登米市,横山字伊貝,38.619593,141.325525,4249.673407419985,5741724613,False
パスカル清見,岐阜県,高山市,清見町大原,35.9406247,137.082694599999,4299.043838707595,,False
三滝堂,宮城県,登米市,米谷字福平,38.7079696,141.327823,4308.431525624413,,False
七ヶ宿,宮城県,白石市,小原字冷清水,37.971123,140.505066,4320.838714944053,,False
メルヘンの里新庄,岡山県,新庄村,東町,35.175467,133.571876,4331.866646121646,5233641522,False
伯方S・Cパーク,愛媛県,今治市,伯方町叶浦,34.20281321,133.0755153,4334.398565523891,5133204613,False
さんない,秋田県,横手市,山内土淵字道地,39.2893172,140.6258076,4338.554972103746,,False
大野温泉,熊本県,芦北町,天月,32.2898864,130.5821497,4391.511669844873,4830344643,False
あぷた,北海道,洞爺湖町,字入江,42.5289975,140.7787362,4392.668582859359,,False
高田松原,岩手県,陸前高田市,気仙町字土手影,39.008465,141.62854,4411.601645351074,,False
奥入瀬,青森県,十和田市,大字沢田,40.586204,141.117434,4412.495129632328,6041700914,False
ニセコビュープラザ,北海道,ニセコ町,字元町,42.7994920999999,140.7023947,4436.8159671012845,6440155633,False
あっさぶ,北海道,厚沢部町,緑町,41.9165731,140.2161538,4439.247344628707,6240619734,False
白い森おぐに,山形県,小国町,大字小国小坂町,38.0719561,139.7306094,4440.533263980819,,False
清和文楽邑,熊本県,山都町,大字米生,32.6906432695944,131.091349989549,4445.072431938769,4931002734,False
かみこあに,秋田県,上小阿仁村,小沢田,40.063515,140.297203,4464.581164270631,6040027342,False
親不知ピアパーク,新潟県,糸魚川市,大字歌,37.0031567,137.730283999999,4465.8648530562,5537450814,False
遠野風の丘,岩手県,遠野市,綾織町新里,39.3309253,141.501123,4479.735495846317,,False
かみおか,秋田県,大仙市,北楢岡,39.5221473,140.3767219,4491.058238995769,5940232031,False
あに,秋田県,北秋田市,阿仁比立内字堂ノ向,39.901824,140.456774,4493.821395749384,5940638621,False
にしね,岩手県,八幡平市,大更第１６地割,39.8799670999999,141.0993785,4494.432848437984,,False
日吉夢産地,愛媛県,鬼北町,大字下鍵山,33.33023396,132.7982451,4510.489305259292,4932769342,False
よこはま,青森県,横浜町,字林ノ後,41.083731,141.256588,4533.847529906191,6141520021,False
酒蔵奥出雲交流館,島根県,奥出雲町,亀嵩,35.2272046,133.0867723,4536.76816864961,5233607624,False
竹田,大分県,竹田市,大字米納,32.98558484,131.3404683,4537.376898917588,4931328713,False
林林館,宮城県,登米市,米川字飯土井,38.742664,141.316076,4546.281572898166,,False
おくとろ,和歌山県,北山村,大字大沼,33.939828,135.946428,4555.639868843773,5035772543,False
なかとさ,高知県,中土佐町,久礼,33.322394,133.235246,4562.669674142804,4933718842,False
大日岳,岐阜県,郡上市,西洞,35.9876432,136.8910742,4565.293933760887,,False
奥飛騨温泉郷上宝,岐阜県,高山市,奥飛騨温泉郷今見,36.249002,137.499654,4578.446618006117,,False
三朝・楽市楽座,鳥取県,三朝町,恩地,35.3663211,133.8503077,4581.698759200734,5333063833,False
原尻の滝,大分県,豊後大野市,緒方町上自在,32.9656659,131.4522001,4595.0704787634195,,False
桜の郷 荘川,岐阜県,高山市,荘川町猿丸,36.0212127,136.9656118,4601.238012563964,5436072731,False
慈恩の滝 くす,大分県,日田市,天瀬町赤岩,33.265953,131.068506,4628.088986726732,4931701534,False
龍神,和歌山県,田辺市,龍神村湯ノ又,33.9654598,135.5648354,4639.584333331787,5035745533,False
どなり,徳島県,阿波市,土成町宮川内,34.150942,134.3524444,4650.875401527535,5134128811,False
石狩「あいろーど厚田」,北海道,石狩市,厚田区小谷,43.403873,141.43118,4655.5251255359535,,False
青雲橋,宮崎県,日之影町,大字七折,32.6606405,131.3884957,4656.6959185087,,False
風の家,岡山県,真庭市,蒜山上徳山字中原,35.2768308,133.6239421,4662.695271686083,,False
飛騨街道 なぎさ,岐阜県,高山市,久々野町長淀,36.0068712,137.2916605,4685.735672710868,,False
とわだ,青森県,十和田市,大字伝法寺,40.574645,141.264611599999,4686.078452455284,,False
江差,北海道,江差町,字大澗町,41.8943424,140.1392891,4729.369444161085,6240617113,False
子守唄の里 五木,熊本県,五木村,丙,32.39931672,130.826733,4748.2729351838325,4830467633,False
路田里はなやま,宮城県,栗原市,花山字本沢富ノ原,38.794418,140.844319,4754.374670558466,5840165723,False
さんわ182ステーション,広島県,神石高原町,坂瀬川,34.6734859,133.2998686,4770.185912755155,,False
掛合の里,島根県,雲南市,掛合町掛合,35.2109317,132.817038,4781.209288397289,5232665514,False
もち米の里☆なよろ,北海道,名寄市,風連町南町,44.2874188,142.413771799999,4785.817974065778,6642334313,False
あさひ,山口県,萩市,大字佐々並久年,34.286296,131.4595121,4787.874347377228,5131334624,False
奥大山,鳥取県,江府町,佐川,35.2961102,133.4740758,4791.624480267576,5233735742,False
なないろ・ななえ,北海道,七飯町,字峠下,41.925666,140.655973,4810.832486011955,6240751212,False
すくも,高知県,宿毛市,市島,32.91616528,132.7125287,4835.785467305663,4932259733,False
おんねゆ温泉,北海道,北見市,温根湯温泉,43.7546445,143.500530799999,4844.951780625784,6543540031,False
鷲の里,徳島県,那賀町,和食,33.86319896,134.5022843,4871.928700931371,5034643031,False
マオイの丘公園,北海道,長沼町,１７区,42.94998,141.716616,4887.786204601399,6441353734,False
北浦街道 豊北,山口県,下関市,豊北町大字神田,34.3103986,130.8886701,4917.589318695997,5130377111,False
リストアステーション,広島県,庄原市,総領町稲草,34.784591,133.0713142,4926.646276934609,,False
ちくさ,兵庫県,宍粟市,下河野,35.1079584,134.4418745,4931.615039925263,,False
とよはま,愛媛県,四国中央市,川之江町余木,34.04276798,133.6013067,4969.525461559091,,False
瀬女,石川県,白山市,瀬戸,36.2881213,136.649386899999,4980.673861356,,False
つちゆ,福島県,二本松市,塩沢,37.65512,140.334294,4994.925557548857,,False
日向,宮崎県,日向市,幸脇遠見,32.3433606,131.6240436,5000.190899424072,4831441922,False
奥津温泉,岡山県,鏡野町,奥津川西,35.2233861,133.9228551,5005.781581342958,5233676344,False
モンデウス飛騨位山,岐阜県,高山市,一之宮町南,36.0618682,137.2256962,5029.787191768969,,False
水の郷日高川 龍游,和歌山県,田辺市,龍神村福井,33.895542,135.4393106,5040.838982479823,5035637513,False
河野,福井県,南越前町,大良,35.796725,136.091944,5040.883784858006,,False
みえ,大分県,豊後大野市,三重町宮野,33.0286904,131.621548,5054.8055200644,4931443923,False
湯西川,栃木県,日光市,五十里,36.930014,139.686957,5071.248266934601,,False
五城目,秋田県,五城目町,富津内下山内,39.9470864,140.1442137,5077.475889356048,,False
阿久根,鹿児島県,阿久根市,大川,31.9459201,130.2164754,5082.466369776797,4730713732,False
すえよし,鹿児島県,曽於市,末吉町深川,31.6883335,130.9703435,5096.686746983046,4730472741,False
北の関宿安芸高田,広島県,安芸高田市,高宮町原田,34.7210499,132.6810513,5100.075144122817,5232056432,False
雪のふるさと やすづか,新潟県,上越市,安塚区円平坊,37.095594,138.470325,5118.750432401249,5538531723,False
白崎海洋公園,和歌山県,由良町,大字大引,33.9773454,135.0697275,5131.409495846384,,False
松山,鹿児島県,志布志市,新橋,31.5815885,131.0424142,5154.189149067147,4731209334,False
ゆふいん,大分県,由布市,大字川北,33.2606456,131.327088,5158.5508451779615,,False
椿はなの湯,和歌山県,白浜町,大字日置,33.6032763,135.3917584,5185.56098395306,5035332114,False
利賀,富山県,南砺市,利賀村高沼,36.524368,137.026689,5210.962225415304,,False
虫喰岩,和歌山県,古座川町,池野山,33.539756,135.826121,5217.811581403299,5035264633,False
北川はゆま,宮崎県,延岡市,北川町長井本村,32.6660363,131.7045941,5218.37659757563,4831759634,False
細入,富山県,富山市,片掛,36.4885782,137.2381219,5224.071218295843,,False
南飛騨小坂,岐阜県,下呂市,赤沼田,35.9314581,137.2943447,5269.330247686325,5337721343,False
川辺やすらぎの郷,鹿児島県,南九州市,野崎,31.4127345,130.4328971,5284.606684815234,4730039441,False
じょんのびの里高柳,新潟県,柏崎市,高柳町岡野町,37.2133616,138.634207899999,5294.856870719148,,False
風穴の里,長野県,松本市,安曇稲核,36.1533265,137.752097199999,5299.712075098919,,False
きらら289,福島県,南会津町,山口字村上,37.2219817,139.5426599,5302.120801015658,5539646332,False
豊平どんぐり村,広島県,北広島町,都志見,34.6468579,132.4446982,5309.499577751292,5132737541,False
いぶすき,鹿児島県,指宿市,岩本,31.3022146,130.5900439,5310.898004956985,4630746713,False
上平,富山県,南砺市,真木,36.377491,136.871469,5318.78582579897,5436465923,False
飛騨古川いぶし,岐阜県,飛騨市,古川町畦畑,36.213988,137.150621,5320.728693480676,,False
みつまた,新潟県,湯沢町,大字三俣,36.8996915,138.777174999999,5347.022729401548,5538267233,False
ぽかぽかランド美麻,長野県,大町市,美麻,36.6053378,137.895563,5354.331704660867,5437772141,False
温泉の里神山,徳島県,神山町,神領,33.9735681,134.3676836,5361.822380991387,5034726934,False
田辺市龍神ごまさんスカイタワー,奈良県,野迫川村,大字弓手原,34.0611272,135.5643407,5377.930318600193,,False
サザンセトとうわ,山口県,周防大島町,大字西方,33.9041614,132.3417151,5415.275714603829,5032628714,False
馬瀬 美輝の里,岐阜県,下呂市,西村,35.819913,137.187413,5452.273388597835,5337518424,False
よがんす白竜,広島県,三原市,大和町和木,34.5064709,132.913945,5458.024516404155,5132670333,False
くしもと橋杭岩,和歌山県,串本町,鬮野川,33.488152,135.7944057,5460.334491568836,5035168341,False
熊野きのくに,三重県,熊野市,飛鳥町小又,33.959915,136.1042538,5460.608400875547,5036705812,False
錦江にしきの里,鹿児島県,錦江町,神川,31.2736586432512,130.79243728518,5461.4804983529575,4630762334,False
むろね,岩手県,一関市,折壁字月山下,38.933199,141.447163,5485.824521019012,5841331544,False
いりひろせ,新潟県,魚沼市,東野名,37.355921,139.057244,5489.0843673663085,,False
はが,兵庫県,宍粟市,原,35.20162267787064,134.52218764909145,5503.8040958518595,5234644122,False
坂本,熊本県,八代市,坂本町荒瀬,32.4266742,130.6409382,5510.118095637642,4830551112,False
鯉が窪,岡山県,新見市,哲西町矢田武内，馬場地区,34.9320499,133.3317222,5517.905125099597,5233321643,False
津和野温泉なごみの里,島根県,津和野町,鷲原,34.4501785,131.760771,5525.7942101830085,5131564022,False
たいら,富山県,南砺市,東中江,36.445401,136.9739623,5536.4129659413475,,False
さいかい,長崎県,西海市,木場郷,33.0429925322659,129.695700982278,5562.219254767158,4929455521,False
小田の郷せせらぎ,愛媛県,内子町,小田,33.5685039,132.8007525,5568.706787205606,5032268411,False
あわくらんど,岡山県,西粟倉村,大字影石影石,35.1801962,134.3352197,5575.928179749838,5234621642,False
なぶら土佐佐賀,高知県,黒潮町,佐賀,33.0867393,133.101781,5593.923872087452,,False
てんきてんき丹後,京都府,京丹後市,竹野願興寺,35.7390035,135.1052393,5595.662414644656,,False
喜多の郷,福島県,喜多方市,松山町鳥見山字松原,37.7019379,139.878264299999,5604.920503599996,,False
紀州備長炭記念公園,和歌山県,田辺市,秋津川,33.803251,135.427282,5626.842935672174,,False
くにさき,大分県,国東市,鶴川,33.5456622,131.7397294,5632.925265932001,5031255913,False
とうま,北海道,当麻町,宇園別,43.844134,142.4895,5636.525035503261,6542631913,False
やまくに,大分県,中津市,山国町宇曽,33.4063728,131.0614676,5676.108810499149,5031008444,False
白川郷,岐阜県,白川村,大字島,36.2789273,136.9015389,5709.539147279958,5436373213,False
吉野路 上北山,奈良県,上北山村,大字河合,34.139756,136.000117,5729.54517432121,,False
木曽福島,長野県,木曽町,福島,35.8176611,137.6822766,5747.511390180967,,False
神鍋高原,兵庫県,豊岡市,日高町栗栖野,35.4989999,134.6750817,5749.221391658327,,False
ビオスおおがた,高知県,黒潮町,浮鞭,33.0350772,133.0270676,5763.476047833777,4933404211,False
大坂城残石記念公園,香川県,土庄町,小海,34.53390705,134.2421851,5770.967969033346,5134614912,True
ながお,香川県,さぬき市,前山,34.22135991,134.1750001,5773.067832295056,5134216431,False
忠類,北海道,幕別町,忠類白銀町,42.5588618,143.2991945,5773.663861598531,6343627322,False
紫波,岩手県,紫波町,遠山字中松原,39.5555548,141.2064173,5777.312748508434,5941216641,False
あまるべ,兵庫県,香美町,香住区余部,35.6491191,134.5601201,5782.996301529418,5334347444,False
風の丘米山,新潟県,柏崎市,大字青海川,37.3465151,138.4899212,5784.154037256529,5638031931,False
三岳,長野県,木曽町,福島,35.8225594,137.6480735,5791.0176913993755,5337558142,False
奥会津かねやま,福島県,金山町,大字中川字沖根原,37.4719243,139.530582699999,5811.781963153633,5639146232,False
清水の里・鳥海郷,秋田県,由利本荘市,鳥海町上笹子字新町,39.1095406,140.2915146,5813.612705274702,5840523312,False
長野市大岡特産センター,長野県,長野市,信州新町左右,36.5263933,137.9581356,5826.9605533138765,5437673621,False
瀬替えの郷せんだ,新潟県,十日町市,中仙田甲,37.1990419,138.6863544,5828.386596961106,5538653444,False
しらまの里,和歌山県,有田川町,大字宇井苔,34.0150722,135.3344646,5889.540708266679,5135021644,False
胎内,新潟県,胎内市,下赤谷,38.0634898,139.4529738,5890.109676425547,,False
飛騨白山,岐阜県,白川村,大字御母衣,36.17388,136.901648,5906.204903939295,5436270233,False
十津川郷,奈良県,十津川村,大字小原,33.9882842,135.7931678,5913.253822024616,,False
瑞穂,島根県,邑南町,下田所,34.854446,132.51885,5930.738645373261,5232242141,False
みかわ,新潟県,阿賀町,吉津,37.7177569,139.3600965,5936.398163358933,,False
土佐さめうら,高知県,土佐町,宮古野,33.7426438,133.544235,5938.321279333797,5033449321,False
とうごう,宮崎県,日向市,鶴野内中水流,32.3913691,131.5135813,5939.2667404800995,4831446133,False
北条公園,鳥取県,北栄町,国坂大野,35.4981997,133.8199605,5969.34736711547,,False
小豆島ふるさと村,香川県,小豆島町,室生,34.47101922,134.2361538,5994.381198481331,5134516842,True
宇土マリーナ,熊本県,宇土市,赤瀬町,32.66224214,130.5226985,6012.973321956568,4830749124,False
おふく,山口県,美祢市,於福町下,34.23794705,131.2084956,6031.827157766682,5131218641,False
とようら,北海道,豊浦町,字旭町,42.577551,140.722382,6059.144480166751,6340659724,False
ゆいゆい国頭,沖縄県,国頭村,字鏡地,26.7319805,128.1693617,6077.2302537823325,4028017343,False
つぐ高原グリーンパーク,愛知県,設楽町,津具,35.1975534,137.6091672,6118.632987744969,,False
六合,群馬県,中之条町,大字生須,36.607483,138.638618,6136.944034617934,5438752133,False
遣唐使ふるさと館,長崎県,五島市,三井楽町浜ノ畔,32.7382789,128.6903638,6140.755490227438,4928058531,True
村岡ファームガーデン,兵庫県,香美町,村岡区光陽,35.4618426,134.6029025,6146.644684644614,5334145813,False
なかやま,愛媛県,伊予市,双海町上灘,33.669723056000066,132.69500000000005,6148.56482167574,5032450523,False
空の夢もみの木パーク,香川県,まんのう町,追上,34.1548496,133.8215512,6204.504429972859,,False
舟屋の里伊根,京都府,伊根町,伊根大浦,35.6746353,135.2910882,6210.276512392657,5335420334,False
瀬戸大橋記念公園,香川県,坂出市,沙弥島,34.3526893,133.8261282,6230.200929836318,,False
しまなみの駅御島,愛媛県,今治市,大三島町明日,34.2489624,133.0052532,6247.46768758243,5133209034,False
かもがわ円城,岡山県,吉備中央町,円城二番，三番，津恵田，岩倉,34.8922864,133.8139708,6257.585597440016,5233267511,False
たからだの里さいた,香川県,三豊市,財田町財田上,34.1096518756569,133.796699285705,6270.481745864171,5133163321,False
赤来高原,島根県,飯南町,赤名,34.9990459,132.7138075,6292.660399241251,5232359733,False
よしうみいきいき館,愛媛県,今治市,吉海町臥間,34.1274701,133.0219454,6299.9553729777,5133105124,False
耶馬トピア,大分県,中津市,本耶馬渓町樋田,33.48984147,131.1745356,6310.063143441333,5031118344,False
奥熊野古道ほんぐう,和歌山県,田辺市,本宮町伏拝,33.8652408,135.761985,6315.129223429029,5035663044,False
のと里山空港,石川県,穴水町,字木原,37.2950414,136.9571283,6318.983025489951,,False
風Ｗとままえ,北海道,苫前町,字苫前,44.3133031,141.6564717,6353.73096763008,,False
夜叉ヶ池の里さかうち,岐阜県,揖斐川町,坂内広瀬,35.602032,136.413732,6398.278942719159,,False
漢学の里しただ,新潟県,三条市,庭月,37.5418094,139.1020031,6423.0238970921655,,False
越前,福井県,越前町,茂原,35.91988,135.997047,6447.590095104679,,False
白鷹ヤナ公園,山形県,白鷹町,大字高岡高岡２,38.2181108,140.097322399999,6454.72716180569,5740206722,False
八ッ場ふるさと館,群馬県,長野原町,大字林,36.5475134,138.6842731,6464.737957419827,,False
三野,徳島県,三好市,太刀野,34.0504869,133.9324821,6467.243716841361,5133076421,False
San Pin 中津,和歌山県,日高川町,大字船津,33.950318,135.2633365,6482.025318048009,,False
美ヶ原高原,長野県,上田市,武石上本入,36.2306352,138.1403249,6492.020772037489,,False
はわい,鳥取県,湯梨浜町,南谷,35.4942979,133.8904755,6496.669509369736,,False
にしかわ,山形県,西川町,大字綱取,38.436059,140.099237,6518.678536450586,,False
くめなん,岡山県,久米南町,下二ケ,34.91226658,133.947028,6560.096365461409,5233279524,False
さくらの里きすき,島根県,雲南市,加茂町南加茂,35.318905,132.912142,6574.138352756797,5232778224,False
ふるさとセンター大塔,和歌山県,田辺市,鮎川,33.7427886,135.5018536,6577.5478731293515,5035449011,False
阿賀の里,新潟県,阿賀町,釣浜,37.7380141,139.3071892,6586.080817614116,,False
能生,新潟県,糸魚川市,大字能生,37.113566,138.003775,6608.010962411777,,False
三笠,北海道,岩見沢市,岡山町,43.2466006,141.804549899999,6611.691874527169,,False
のとじま,石川県,七尾市,能登島向田町,37.1373588,136.9982406,6613.083670990861,5536576924,False
志原海岸,和歌山県,白浜町,大字日置,33.5704506,135.4314215,6622.907341429309,5035238423,False
天城越え,静岡県,伊豆市,湯ケ島,34.8558282,138.921934999999,6639.406831813721,,False
九頭竜,福井県,大野市,朝日,35.904237,136.6614651,6644.308284954769,5336658242,False
ひだ朝日村,岐阜県,高山市,朝日町上ケ見,36.0879645,137.3505722,6663.59222193456,5437120831,False
ひらた,福島県,平田村,大字上蓬田,37.2505454,140.560032099999,6664.722760902572,,False
風早の郷風和里,愛媛県,松山市,大浦,33.99670576,132.7722822,6680.279643419279,,False
大桑,長野県,大桑村,大字殿,35.6820939,137.653466999999,6682.123611710716,5337451234,False
名田庄,福井県,おおい町,納田終（小向）,35.3946307,135.5842232,6693.709909294001,5335047623,False
かよう,岡山県,吉備中央町,北山本,34.8164407,133.7053268,6710.077473750459,,False
水辺の郷おおやま,大分県,日田市,大山町西大山字小平,33.2479097,130.972093,6724.162780763508,4930679742,False
佐賀関,大分県,大分市,大字大平,33.2472111,131.8284304,6727.131913646624,4931669632,False
ふたみ,愛媛県,伊予市,双海町高岸,33.68511817,132.6340324,6729.925285239823,5032452021,False
鹿北,福岡県,八女市,立花町上辺春,33.1136383,130.6688462,6773.403584644699,,False
あそ望の郷くぎの,熊本県,南阿蘇村,大字久石,32.81851,131.0415257,6790.03173455868,4931108312,False
伊良湖クリスタルポルト,愛知県,田原市,伊良湖町,34.5836256978391,137.020198234393,6802.101374056107,,False
フレッシュあさご,兵庫県,朝来市,岩津,35.2126699,134.7945519,6807.1555058638305,5234665341,False
うすずみ桜の里・ねお,岐阜県,本巣市,根尾長嶺,35.660163,136.589241,6833.605433610969,,False
すさみ,和歌山県,すさみ町,江住江須之川,33.50583784,135.599887,6851.824918117409,,False
たいじ,和歌山県,太地町,大字森浦,33.5923615,135.9337127,6895.668956996095,5035371421,False
神林,新潟県,村上市,牧目,38.1724825,139.4610655,6898.403031984312,,False
しんしのつ,北海道,新篠津村,宍粟１,43.2141162,141.6427006,6902.708222069215,,False
丹後王国「食のみやこ」,京都府,京丹後市,弥栄木橋,35.6746549,135.0681027,6905.65507984815,,False
世羅,広島県,世羅町,大字東上原,34.59638,133.0841,6923.003838311044,5133701641,False
さくらの郷,福島県,二本松市,東新殿字大林,37.53478,140.5902479,6925.810775010931,5640244711,False
信越さかえ,新潟県,津南町,上郷宮野原逆巻,36.9884835,138.581679799999,6928.739374344299,,False
紀宝町ウミガメ公園,三重県,紀宝町,井田,33.7698186,136.0284344,6933.283528041649,5036502214,False
マイントピア別子,愛媛県,新居浜市,立川町,33.9019237,133.3098559,6941.893508892452,,False
豊根グリーンポート宮嶋,愛知県,豊根村,坂宇場,35.1791637,137.6826773,6942.225135468627,5237651423,False
ハチ北,兵庫県,香美町,村岡区福岡,35.411442,134.5998095,6944.460924156127,5334049724,False
三方五湖,福井県,若狭町,鳥浜,35.56019,135.894361,6953.60320214906,,False
木曽ならかわ,長野県,塩尻市,大字木曽平沢宮下,35.9862023,137.841959099999,6956.418530759014,,False
いいで,山形県,飯豊町,大字松原字松原下,38.026065,139.994671,6962.373053512334,,False
なかさつない,北海道,中札内村,大通南７丁目,42.69214,143.126839,6986.091869491928,6443013011,False
歌舞伎の里大鹿,長野県,大鹿村,大字大河原、大字鹿塩,35.56500111100006,138.03694666700005,7007.449891142388,5338207244,False
星のふる里 ふじはし,岐阜県,揖斐川町,西横山,35.5774127,136.462913399999,7023.423641212454,,False
熊野・板屋 九郎兵衛の里,三重県,熊野市,紀和町木津呂,33.876518,135.915236,7039.903338369438,5035675311,False
みなみ波賀,兵庫県,宍粟市,安賀,35.1483048,134.5398216,7048.8988528108,5234547333,False
メルヘンの丘めまんべつ,北海道,大空町,女満別公園６丁目,43.9173357,144.188488099999,7065.228663482715,,False
そうま,福島県,相馬市,赤木字勝木作,37.7611089,140.947952399999,7109.897197963003,5640571524,False
南信州うるぎ,長野県,売木村,,35.273888889000034,137.7094452780001,7118.582525258948,5237752644,False
来夢とごうち,広島県,安芸太田町,大字上殿,34.5744153,132.2698295,7138.954102912519,,False
ふるどの,福島県,古殿町,大字田口字寺前,37.0931301,140.5297735,7160.933421916862,5540541212,False
今治湯ノ浦温泉,愛媛県,今治市,湯ノ浦,33.99285832,133.0484121,7163.229526988265,5033709322,False
なんごう,青森県,八戸市,南郷大字中野,40.4067846,141.4304303,7203.512427019032,,False
白鳥,岐阜県,郡上市,歩岐島,35.9233631,136.8321178,7219.901384132455,,False
琴の浦,鳥取県,琴浦町,別所船望台,35.502427,133.6585,7220.325040910691,5333250223,False
上矢作ラ・フォーレ福寿の里,岐阜県,恵那市,上矢作町本郷,35.323636,137.471578,7233.257483141878,,False
一向一揆の里,石川県,白山市,別宮町,36.3604418,136.599083299999,7237.147747140472,5436443724,False
ながゆ温泉,大分県,竹田市,直入町大字長湯,33.0716662,131.3830698,7283.90870427609,4931438041,False
みやもり,岩手県,遠野市,字下宮守２７地割,39.3460524,141.3513044,7299.56304380603,5941021831,False
自然体感しむかっぷ,北海道,占冠村,字中央,42.978859,142.39758,7313.586937632997,,False
いんない,大分県,宇佐市,院内町大副,33.4238178,131.3202066,7314.350628081424,5031120543,False
みま,愛媛県,宇和島市,三間町務田,33.2863482,132.5960143,7317.877516292803,4932744723,False
良寛の里 わしま,新潟県,長岡市,島崎,37.5816068,138.7590595,7319.438447000991,,False
くみはまSANKAIKAN,京都府,京丹後市,神野長柄,35.6304672,134.9319473,7320.400612569598,5334375441,False
秋鹿なぎさ公園,島根県,松江市,大垣町,35.4745447,132.9507238,7340.638219454889,,False
夕陽が丘そとめ,長崎県,長崎市,東出津町,32.8358987,129.7037628,7354.707095480775,,False
えびの,宮崎県,えびの市,大字永山永山,32.05018155,130.8055977,7360.98457560944,4830066412,False
しみず,和歌山県,有田川町,大字清水,34.0882447,135.4432703,7361.236056798786,5135130532,False
キララ多伎,島根県,出雲市,多伎町久村,35.2907257,132.6324284,7370.278849389267,5232754043,False
はっとう,鳥取県,八頭町,徳丸上徳丸,35.3665335,134.3395629,7372.020597212468,5334023733,False
和良,岐阜県,郡上市,宮地,35.7425082,137.067786699999,7377.301100677563,,False
大栄,鳥取県,北栄町,由良宿４区,35.4987404,133.7617796,7393.29214305668,,False
うとろ・シリエトク,北海道,斜里町,漁港区域,44.0690728999999,144.990668499999,7415.645314161606,6644078914,False
越後出雲崎 天領の里,新潟県,出雲崎町,大字尼瀬,37.5388864,138.678708799999,7420.240728366613,5638254432,False
真狩フラワーセンター,北海道,真狩村,字真狩,42.7623215,140.807704599999,7428.6094683122765,6440161423,False
信州平谷,長野県,平谷村,,35.324356,137.631746,7435.65604781883,5237758043,False
農匠の郷やくの,京都府,福知山市,字平野平野,35.3383704,134.929796,7445.169963171794,5334070432,False
おがち,秋田県,湯沢市,小野,39.0651389,140.460393,7455.9576881878975,5840437644,False
杉原紙の里・多可,兵庫県,多可町,加美区清水,35.1889597,134.930123,7466.164636639968,5234672432,False
摩周温泉,北海道,弟子屈町,湯の島３丁目,43.4923914,144.4477187,7515.902461093051,6544139522,False
もりた,青森県,つがる市,森田町床舞,40.784406,140.322251,7545.949007111052,6140124522,False
黒井山グリーンパーク,岡山県,瀬戸内市,邑久町虫明上町,34.6935595,134.2053097,7556.295701785401,,False
しちのへ,青森県,東北町,大字新舘,40.716825299999996,141.1552503,7573.555326785693,6141016212,False
ふくしま東和,福島県,二本松市,戸沢字下田,37.5699562,140.5773494,7573.56279838678,,False
海山,三重県,紀北町,大字便ノ山,34.102363,136.214084,7585.590913968925,,False
山陰海岸ジオパーク浜坂の郷,兵庫県,新温泉町,戸田,35.610649,134.469807,7599.541567089541,,False
清流白川 クオーレの里,岐阜県,白川町,和泉,35.5954472,137.2189831,7612.515673010515,,False
きんぽう木花館,鹿児島県,南さつま市,池辺,31.4654251,130.3455615,7615.825035349723,4730125743,False
上関海峡,山口県,上関町,大字室津,33.8330038,132.1165198,7623.514746424297,5032509934,False
一本松展望園,岡山県,瀬戸内市,邑久町尻海市場,34.65635976,134.1657126,7625.756037008226,,False
阿武町,山口県,阿武町,大字奈古,34.4971187,131.4680689,7661.6263544589865,5131539732,False
茶の里東白川,岐阜県,東白川村,越原,35.6677832,137.352420599999,7667.951821518999,5337420811,False
しおのえ,香川県,高松市,塩江町安原上,34.17020407,134.0820671,7699.619466933424,5134200623,False
アグリステーションなぐら,愛知県,設楽町,西納庫字森田,35.1729675,137.5347209,7701.179339298834,5237640244,False
小豆島オリーブ公園,香川県,小豆島町,西村,34.47284808,134.2736405,7706.216923769366,5134526142,True
小石原,福岡県,東峰村,大字小石原,33.46511246,130.8258086,7711.9819400441465,5030165633,False
あがつま峡,群馬県,東吾妻町,大字松谷松中,36.57048,138.73569,7715.742072422088,5438658824,False
猪苗代,福島県,猪苗代町,大字磐里,37.538341,140.107459,7715.777789714091,,False
うたしないチロルの湯,北海道,歌志内市,字中村,43.503388,142.004244,7743.047985946257,6542200014,False
あらぎの里,和歌山県,有田川町,大字三田,34.0930462,135.4128144,7769.060907254656,5135131311,False
白馬,長野県,白馬村,大字神城飯田,36.65359,137.8473274,7772.362465760339,5437768724,False
尾花沢,山形県,大石田町,大字鷹巣,38.6569024,140.3636879,7802.024307955531,,False
昆虫の里たびら,長崎県,平戸市,深月免,33.31770825,129.6031137,7819.0126644553575,4929748811,False
東由利,秋田県,由利本荘市,東由利蔵,39.3016038,140.285026,7825.921692168347,,False
象潟,秋田県,にかほ市,象潟町,39.220129,139.9001819,7829.874810109743,5839676213,False
南ふらの,北海道,南富良野町,字幾寅,43.1697013,142.572798299999,7849.643793142427,,False
ゆ～ぱるのじり,宮崎県,小林市,三ケ野山小坂,31.9643837,131.0822805,7852.387918468976,4731705641,False
おおがた,秋田県,大潟村,字西１丁目,40.0153495,139.9515185,7857.440432768368,,False
若狭熊川宿,福井県,若狭町,熊川,35.440696,135.906077,7858.974441852847,5335172234,False
吉野路 大塔,奈良県,五條市,大塔町天辻,34.2142491,135.7329027,7890.739681180756,5135255841,False
さとみ,茨城県,常陸太田市,小菅町,36.7057462,140.5096817,7942.3532555167585,5540044042,False
マキノ追坂峠,滋賀県,高島市,マキノ町小荒路,35.481102,136.0830386,7943.957101464796,,False
樹海ロード日高,北海道,日高町,本町西１丁目,42.8767898,142.442007399999,7973.918335657925,6442235512,False
生月大橋,長崎県,平戸市,南免,33.3551861,129.4335547,7978.389506480557,5029032441,False
明宝,岐阜県,郡上市,有穂,35.8447929,137.0284298,8003.343948020899,,False
ななもり清見,岐阜県,高山市,八日町,36.1339762,137.166209699999,8030.947717413735,5437116312,False
湖畔の里福富,広島県,東広島市,久芳,34.5322334,132.7759856,8034.901741938214,5132663233,False
しょうない,山形県,庄内町,狩川緑町,38.794158,139.984412,8039.343893184528,5839175824,False
インフォメーションセンターかわもと,島根県,川本町,大字因原,34.9660004,132.4729896,8066.675091278606,5232335744,False
花の三聖苑伊豆松崎,静岡県,松崎町,明伏,34.7577828,138.8253994,8085.738511713532,5238160633,False
鐘のなるまち・ちっぷべつ,北海道,秩父別町,字南山,43.7648305,141.9659629,8111.012213112367,6541571734,False
ふるさと豊田,長野県,中野市,大字永江三俣,36.8005161,138.322323999999,8117.105182078918,5538126522,False
清流茶屋 かわはら,鳥取県,鳥取市,河原町高福福和田,35.3931217,134.2029535,8146.811267794707,5334017611,False
たるみずはまびら,鹿児島県,垂水市,本城,31.468612500000038,130.6980572220001,8164.605297295713,4730156522,False
大谷海岸,宮城県,気仙沼市,本吉町三島,38.8140093,141.5664822,8187.793674483556,,False
おおの,大分県,豊後大野市,大野町田代,33.03625283129785,131.5029064248194,8219.863081960237,4931444013,False
むいかいち温泉,島根県,吉賀町,有飯,34.3529102,131.9438432,8221.409427441724,5131472523,False
ウトナイ湖,北海道,苫小牧市,字沼ノ端ウトナイ区画整理地区,42.6999513,141.694648799999,8245.407676932467,,False
ひなの里かつうら,徳島県,勝浦町,大字中角,33.93219181,134.5228323,8301.57746958389,5034741144,False
夕張メロード,北海道,夕張市,紅葉山,42.93699,142.038078,8306.837200573518,6442302313,False
太良,佐賀県,太良町,大字伊福湯牟田,33.0469887,130.1693594,8307.735219955874,,False
加治川,新潟県,新発田市,下西山,38.0023437,139.3724223,8316.730166645708,,False
白尾ふれあいパーク,岐阜県,郡上市,中西,35.889671,136.891924,8328.271611627883,5336676134,False
あ・ら・伊達な道の駅,宮城県,大崎市,岩出山池月字下宮山口前,38.70744,140.833294,8348.497444065384,5840064643,False
米山,宮城県,登米市,西野字見通,38.6271176,141.1878908,8357.30946694021,,False
小松オアシス,愛媛県,西条市,小松町新屋敷,33.88368862,133.1076222,8364.020850387556,,False
北前船 松前,北海道,松前町,字唐津,41.4265145,140.107232299999,8374.600710147968,6240101821,False
ライスランドふかがわ,北海道,深川市,音江町１丁目,43.6994830999999,142.070593,8385.501734674679,6542403543,False
しなの,長野県,信濃町,大字野尻,36.8182909,138.1901619,8396.15938343672,,False
横綱の里ふくしま,北海道,福島町,字福島,41.479134,140.255731,8404.029550183835,6240127014,False
信州新町,長野県,長野市,信更町上尾,36.585417,138.052741999999,8406.147727528685,5438700411,False
雁の里せんなん,秋田県,横手市,金沢,39.3789953,140.5675681,8426.14029316077,,False
シーサイド高浜,福井県,高浜町,青戸,35.4890515714959,135.595496429361,8427.194119787318,,False
賤母,岐阜県,中津川市,山口,35.586112,137.550438799999,8450.073422379317,,False
朝霧高原,静岡県,富士宮市,根原,35.4133187,138.5912918,8465.482510045656,,False
みわ,茨城県,常陸大宮市,小舟,36.6558574,140.2800036,8467.897035888047,5440728232,False
くんま水車の里,静岡県,天竜区,熊市場,34.9608241,137.733227899999,8474.514241032079,5237355823,False
とうわ,岩手県,花巻市,安俵,39.3824368,141.2218949,8480.498069300336,5941015744,False
伊勢志摩,三重県,志摩市,磯部町穴川,34.3594609,136.7989126,8485.941696452664,,False
遊YOUさろん東城,広島県,庄原市,東城町川東,34.88967,133.2757124,8493.20301920103,5233226233,False
南魚沼,新潟県,南魚沼市,下一日市,37.0030693,138.819214,8550.59146608705,,False
朝日,新潟県,村上市,川端,38.2821299,139.5224236,8573.054566561737,,False
津軽白神,青森県,西目屋村,大字田代字神田,40.577739,140.300462,8600.800675482227,6040629413,False
たまかわ,福島県,玉川村,大字小高,37.2228324,140.4181372,8615.826834045225,,False
信州蔦木宿,長野県,富士見町,落合下蔦木,35.8632686,138.2769108,8645.390893410597,,False
美杉,三重県,津市,美杉町上多気,34.5116756,136.306807199999,8651.96205267242,,False
不知火,熊本県,宇城市,永尾,32.6337057,130.6287109,8671.59991029773,,False
かわさき,岩手県,一関市,薄衣,38.8986767,141.2723745,8684.347847138923,5841227144,False
きよかわ,大分県,豊後大野市,清川町砂田,32.9715626,131.5180108,8694.65651408456,4931346132,False
みとみ,山梨県,山梨市,三富川浦,35.8625522,138.755249899999,8714.876536963779,,False
五木のやかた・かわうえ,岐阜県,中津川市,上野,35.602352,137.501864,8744.97974527582,5337342013,False
美濃白川,岐阜県,白川町,坂ノ東,35.6040087,137.173860699999,8747.156228335192,5337312324,False
いくさかの郷,長野県,生坂村,上生坂,36.424168889000036,137.93138916700002,8761.757329047208,5437570443,False
但馬のまほろば,兵庫県,朝来市,山東町楽音寺,35.3113027,134.8701078,8762.302697574964,,False
しもべ,山梨県,身延町,古関,35.469985,138.512894,8784.736994281038,5338146113,False
ポート赤碕,鳥取県,琴浦町,別所朝日町,35.507059,133.6624616,8807.237496658576,5333250244,False
いかりがせき,青森県,大鰐町,大字唐牛,40.4815576,140.6231652,8807.524579332263,6040547944,False
神話の里 白うさぎ,鳥取県,鳥取市,伏野,35.5255359,134.1143157,8818.148406369022,,False
フォーレなかかわね茶茗舘,静岡県,川根本町,徳山,35.0704474,138.1078277,8828.217760413265,,False
大山恵みの里,鳥取県,大山町,名和新坪田,35.5046627,133.5020808,8867.429490279535,5333240031,False
紀伊長島マンボウ,三重県,紀北町,東長島,34.2172444,136.3466595,8936.241261364084,5136226721,False
おがわ,長野県,小川村,大字高府,36.6132998,137.990556299999,8969.89434905792,5437773931,False
関川,新潟県,関川村,大字下関,38.091473,139.567001,8979.013842672,5739140534,False
高松,石川県,かほく市,学園台５丁目,36.786301,136.724691,8995.269096980168,,False
季の里天栄,福島県,天栄村,大字下松本字要谷,37.2436602999999,140.244785699999,9019.819857194318,5540619921,False
会津柳津,福島県,柳津町,大字柳津,37.527693,139.722175399999,9042.814193437645,5639253724,False
みくに,福井県,坂井市,山岸,36.1895672,136.1390707,9043.547763698609,,False
みのぶ・富士川観光センター,山梨県,身延町,下山仲町，竹下，大工,35.418592,138.437249,9070.773323230795,,False
シルクのまち かや,京都府,与謝野町,与謝金屋,35.4815585,135.0936255,9075.52166289689,5335107734,False
下賀茂温泉 湯の花,静岡県,南伊豆町,下賀茂,34.6497101,138.866579799999,9091.173587733687,5138767934,False
きなんせ岩美,鳥取県,岩美町,河崎日ノ出町,35.56741079,134.3259855,9103.072146996039,5334228611,False
富弘美術館,群馬県,みどり市,東町草木,36.5525594,139.372848699999,9145.408628435978,,False
伊万里,佐賀県,伊万里市,南波多町井手野,33.31361997,129.9289587,9158.308451589328,4929777432,False
国上,新潟県,燕市,国上,37.6628849,138.8251803,9182.715747776065,,False
宍喰温泉,徳島県,海陽町,大字久保,33.56906339,134.3072826,9191.814988950586,5034228423,False
たかのす,秋田県,北秋田市,材木町,40.251513,140.375856,9220.987761608321,6040330011,False
ロード銀山,島根県,大田市,久手町刺鹿,35.2220534,132.5140109,9221.790312349956,,False
くにの松原おおさき,鹿児島県,大崎町,神領,31.43781975,131.0307584,9236.90441408285,4731102232,False
いっぷく処横川,静岡県,天竜区,横川横川,34.9054921,137.8720545,9259.052123351981,5237268942,False
銀の馬車道・神河,兵庫県,神河町,吉冨,35.091049,134.77821,9265.53486845875,5234560234,False
天竜相津 花桃の里,静岡県,天竜区,伊砂,34.911788,137.8150063,9268.79401542351,5237269513,False
つるた,青森県,鶴田町,大字鶴泊,40.7371457,140.4427046,9275.154524317735,6140038514,False
花の駅 千曲川,長野県,飯山市,大字常盤,36.8815106,138.3877614,9286.752191838048,,False
あらい,新潟県,妙高市,大字長森,37.0261176,138.2258864,9288.989064568515,,False
こぶちさわ,山梨県,北杜市,小淵沢,35.8789005,138.3167144,9311.154722984546,,False
南きよさと,山梨県,北杜市,高根町長沢,35.8657383,138.4277858,9317.687186512783,,False
あさご,兵庫県,朝来市,立脇,35.247009,134.803884,9327.309400519089,5234669432,False
那須高原友愛の森,栃木県,那須町,大字高久甲,37.0415321,140.013703599999,9336.459130869973,,False
うらほろ,北海道,浦幌町,北町３区,42.81399805,143.6636566,9338.513953478137,,False
岩城,秋田県,由利本荘市,岩城内道川,39.5420844,140.052932999999,9359.32183161999,,False
杉の湯 川上,奈良県,川上村,大字迫,34.3370408,135.9548858,9396.409735305506,5135470614,False
みなみかた,宮城県,登米市,西山成前,38.66488,141.160641,9435.957254341201,,False
歓遊舎ひこさん,福岡県,添田町,大字野田,33.54902494,130.8599574,9441.602860778581,,False
あいづ 湯川・会津坂下,福島県,湯川村,大字佐野目字宮前,37.5569993,139.8631361,9471.256530001778,,False
みとう,山口県,美祢市,美東町大田,34.21818272,131.3439343,9471.925071270627,5131226721,False
あいお,山口県,山口市,秋穂東,34.0288046,131.4572464,9506.654453976444,5131033623,False
伊勢本街道 御杖,奈良県,御杖村,大字神末敷津,34.5154032,136.2000809,9523.100635620907,5136611633,False
あさひまち,山形県,朝日町,大字和合沼向,38.32738812,140.1692573,9539.415928947432,5740319323,False
伊達の郷 りょうぜん,福島県,伊達市,霊山町下小国,37.766524,140.58845,9553.264646652367,5640541733,False
醍醐の里,岡山県,真庭市,鹿田平,34.9910404,133.7255327,9619.400871998196,5233358833,False
オーロラタウン93りくべつ,北海道,陸別町,字鉄道,43.467863,143.742367,9650.686813382878,6543156912,False
虹の森公園まつの,愛媛県,松野町,大字松丸,33.22978492,132.7094931,9655.722567004072,4932657642,False
中条,長野県,長野市,中条住良木,36.6037997,138.0161699,9669.914547026858,,False
奥伊勢木つつ木館,三重県,大紀町,滝原,34.3675907,136.418877299999,9676.385831823934,5136434321,False
宿場町ひらふく,兵庫県,佐用町,平福下町,35.0447889,134.3694431,9688.562373487892,5234425923,False
美並,岐阜県,美濃市,上河和,35.6092047,136.9431417,9720.776704734584,5336373512,False
織姫の里なかのと,石川県,中能登町,最勝講,36.969954,136.904789,9725.025665228222,,False
明治の森・黒磯,栃木県,那須塩原市,青木,37.000375,139.984479,9732.794409715882,,False
茶倉駅,三重県,松阪市,飯南町粥見,34.4603762,136.3982131,9743.145732481025,5136535124,False
蛍街道西ノ市,山口県,下関市,豊田町大字西市,34.1983964,131.0767314,9760.33702618265,5131203633,False
飛騨金山ぬく森の里温泉,岐阜県,下呂市,金山諏訪町,35.6689112,137.1471787,9798.05317278539,5337410124,False
なんぶ,山梨県,南部町,中野,35.306755,138.446941,9810.136100680296,5238736544,False
鳥海,山形県,遊佐町,菅里西浜,39.060163,139.875583,9810.941860902192,,False
美山ふれあい広場,京都府,南丹市,平屋安掛,35.277121,135.588035,9824.562535010495,5235743713,False
加子母,岐阜県,中津川市,加子母,35.7087822,137.3747534,9828.084600374186,5337425922,False
霊山たけやま,群馬県,中之条町,大字五反田,36.6089289,138.8297562,9840.664171391318,5438763612,False
オアシスなんもく,群馬県,南牧村,大字小沢,36.1782734,138.741707899999,9880.10221637205,,False
上野,群馬県,上野村,大字勝山,36.080532,138.784106,9892.997368024713,5438069241,False
南房パラダイス,千葉県,館山市,布沼,34.9398785,139.8216178,9921.461576795551,,False
あおがき,兵庫県,丹波市,青垣町田井縄,35.241267,135.0098438,9943.839654792355,5235608044,False
やよい,大分県,佐伯市,大字平井,32.96456913,131.8386843,9964.393619322413,4931365731,False
和,京都府,京丹波町,本庄,35.2702495,135.3975594,9969.765663632938,5235732124,False
久米の里,岡山県,津山市,くめ,35.0560424,133.9228946,9998.270120958301,5233476342,False
塩津海道あぢかまの里,滋賀県,長浜市,西浅井町塩津浜,35.5205935,136.162805,9999.516390258403,5336212313,False
越後川口,新潟県,長岡市,川口中山,37.2608955,138.8676387,10016.031127225802,5538761914,False
木曽川源流の里 きそむら,長野県,木祖村,大字菅,35.9307238,137.785829199999,10021.814695722933,5337761242,False
みろく,香川県,さぬき市,大川町富田中,34.25819,134.2424659,10041.808050443417,5134310934,False
のだ,岩手県,久慈市,宇部町,40.116105,141.818707,10042.067176264554,6041163534,False
浅虫温泉,青森県,青森市,大字浅虫字蛍谷,40.891692,140.86137,10066.082722933137,6140267822,False
よしかわ杜氏の郷,新潟県,上越市,柿崎区江島新田,37.2416518,138.3769706,10079.538868335238,5538639011,False
川根温泉,静岡県,島田市,川根町笹間渡,34.9598856,138.089691099999,10120.204853668363,,False
てしお,北海道,天塩町,天塩５丁目,44.8845722999999,141.747755099999,10122.137479984684,6741256922,False
厳美渓,岩手県,一関市,厳美町字滝ノ上,38.9464394,141.0528845,10152.06243388607,5841303431,False
てんのう,秋田県,潟上市,天王字棒沼台,39.8568152,140.0095627,10158.76333812768,5940602044,False
尾瀬かたしな,群馬県,片品村,大字鎌田,36.773231,139.225238,10170.002923037124,5539112833,False
みずさわ,岩手県,奥州市,姉体町字林前,39.094217,141.181477,10197.492139987578,,False
美里「佐俣の湯」,熊本県,美里町,佐俣,32.62359207,130.8227039,10211.848176561954,,False
たくみの里,群馬県,みなかみ町,須川,36.6960799999999,138.9083498,10228.133105718474,5538073241,False
東山道伊王野,栃木県,那須町,大字睦家,36.9540486,140.157412,10242.802062556715,5540314223,False
瑞穂の里・さらびき,京都府,京丹波町,大朴,35.1672997,135.3613852,10254.402238274268,,False
平泉,岩手県,平泉町,平泉字鈴沢,38.991816,141.121791,10268.411301585942,,False
吉野路 黒滝,奈良県,黒滝村,大字長瀬,34.3059869,135.8228857,10272.294477153355,5135366542,False
飯高駅,三重県,松阪市,飯南町有間野,34.4275673,136.3319507,10275.43305898413,5136521623,False
西山ふるさと公苑,新潟県,柏崎市,西山町鬼王,37.4506748,138.6621316,10289.453476395869,5638154222,False
ぎのざ,沖縄県,宜野座村,字漢那,26.473874,127.952328,10294.605250541403,3927576633,False
かわうその里すさき,高知県,須崎市,西町２丁目,33.3876602,133.2746768,10399.074155848564,5033026142,False
樋脇,鹿児島県,薩摩川内市,樋脇町塔之原,31.7964457,130.4073678,10405.217509593233,4730535241,False
錦,熊本県,錦町,大字一武１６区,32.20586981,130.8451635,10408.991510678807,4830264741,False
湯の香しおばら,栃木県,那須塩原市,関谷,36.9557969,139.8993301,10454.271787136442,5539374142,False
厳木,佐賀県,唐津市,厳木町中島,33.3111192,130.071911,10508.463256401583,4930707524,False
ようか但馬蔵,兵庫県,養父市,高柳,35.393994,134.742487,10528.967107926737,5334057914,False
みやこ,岩手県,宮古市,臨港通,39.6390181,141.9698939,10538.086840080317,,False
鹿島,佐賀県,鹿島市,大字音成小宮道,33.07501638,130.1457472,10572.776901477248,4930419121,False
松浦海のふるさと館,長崎県,松浦市,志佐町,33.3486836,129.7015151,10579.127400169937,5029051633,False
鳳来三河三石,愛知県,新城市,上吉田,34.9025911,137.613393099999,10581.49603643648,5237248913,False
本庄,島根県,松江市,野原町,35.518244,133.1365866,10625.571938682622,5333212022,False
仁保の郷,山口県,山口市,仁保中郷井開田西,34.2109098,131.5593634,10627.772145921088,5131245423,False
さかきた,長野県,筑北村,坂北,36.4263776,138.012123699999,10650.878388063777,,False
にしめ,秋田県,由利本荘市,西目町海士剥,39.36288,140.014564,10689.042582923044,,False
万葉の里,群馬県,神流町,大字黒田,36.1092423,138.897830099999,10697.232294937923,,False
みなとま～れ寿都,北海道,寿都町,字大磯町,42.7955338,140.2318241,10747.258002035724,6440115823,False
しんあさひ風車村,滋賀県,高島市,新旭町藁園,35.3504496,136.0670325,10773.976628666564,,False
知床・らうす,北海道,羅臼町,本町,44.0174537,145.1920893,10814.669753153259,6645012512,False
上天草さんぱーる,熊本県,上天草市,上,32.57713806,130.4201417,10819.336884963961,4830639323,False
遠山郷,長野県,飯田市,南信濃,35.3213462,137.9309442,10876.337990156637,5237778432,False
うなづき,富山県,黒部市,下立,36.8604263,137.541559199999,10878.567260722408,5537243312,False
みなかみ水紀行館,群馬県,みなかみ町,湯原,36.7645152,138.96767,10883.327439994811,5538171732,False
あぐりーむ昭和,群馬県,昭和村,大字橡久保,36.612775,139.0689353,10999.00578074692,,False
奈良井木曽の大橋,長野県,塩尻市,大字奈良井下城,35.965946,137.814405,11007.55803962802,5337765533,False
燕趙園,鳥取県,湯梨浜町,引地,35.4646909,133.8926402,11043.231270854636,,False
信濃路下條,長野県,飯田市,三穂下瀬,35.4171252,137.7942491,11060.842637985035,5337160321,False
湖北みずどりステーション,滋賀県,長浜市,湖北町尾上,35.4450126,136.190765,11151.84904189801,,False
しょうわ,秋田県,潟上市,昭和乱橋,39.864734,140.077799,11156.104903553036,5940603633,False
若桜,鳥取県,若桜町,若桜下町,35.343886,134.400272,11232.310466153624,5334031213,False
ラステンほらど,岐阜県,関市,洞戸菅谷,35.5963612,136.7982998,11238.987904919959,5336361342,False
古今伝授の里やまと,岐阜県,郡上市,剣字下剣,35.8160909,136.901735,11269.983889052384,5336577233,False
なかせん,秋田県,大仙市,長野,39.5385396,140.533182099999,11295.781050073445,5940244241,False
ふれあいパークみの,香川県,三豊市,三野町大見,34.2263483,133.7228554,11297.918089031393,5133257722,False
安達,福島県,二本松市,米沢字川原田,37.635666,140.483688,11321.735329219611,,False
川場田園プラザ,群馬県,川場村,大字立岩,36.6870421,139.107301099999,11340.964597519516,,False
うみんぴあ大飯,福井県,おおい町,尾内,35.4812687,135.6299804,11390.005624023092,5335157032,False
たかはた,山形県,高畠町,大字安久津緑町,38.006775,140.217442,11403.126554566472,5740010734,False
マルメロの駅ながと,長野県,長和町,古町,36.2729409,138.2575884,11438.101579021079,5438322043,False
つど～る・プラザ・さわら,北海道,森町,字砂原１丁目,42.1253109,140.6673361,11443.086757545136,6340155312,False
ローズマリー公園,千葉県,南房総市,白子,35.0087388,139.975265499999,11448.225253236045,5239471811,False
夢さんさん谷汲,岐阜県,揖斐川町,谷汲名礼,35.5314813,136.585563699999,11452.778039314193,,False
石神の丘,岩手県,岩手町,大字子抱,39.968545,141.21381,11454.961633313316,5941716711,False
ろくのへ,青森県,六戸町,大字鶴喰,40.6064042,141.3247271,11488.883204188176,6041722544,False
かつら,茨城県,城里町,大字御前山,36.5449685,140.3330587,11527.820033046763,5440625623,False
桃山天下市,佐賀県,唐津市,鎮西町名護屋,33.5285331,129.8731411,11560.094807116124,5029263924,False
ばんだい,福島県,磐梯町,大字磐梯,37.5628041,139.9866329,11605.62961088023,,False
かまえ,大分県,佐伯市,大字蒲江浦,32.8017723,131.9243176,11616.012632260965,4931176322,False
奥永源寺渓流の里,滋賀県,東近江市,蓼畑町,35.105711,136.371792,11636.070180356726,5236522941,False
しかおい,北海道,鹿追町,南町２丁目,43.0977132,142.990276399999,11642.957158537367,6442571931,False
上品の郷,宮城県,石巻市,小船越字舟形,38.501033,141.295318,11690.8081152271,5741620321,False
ふれあいパーク・きみつ,千葉県,君津市,笹,35.198557,140.069545,11705.089148475796,,False
どんぶり館,愛媛県,西予市,宇和町卯之町５丁目,33.3549772,132.5271357,11708.479285939684,5032042231,False
日義木曽駒高原,長野県,木曽町,新開,35.8664703,137.7400334,11798.528092981003,5337653933,False
田切の里,長野県,飯島町,田切,35.691023,137.939944,11798.900342260027,5337472533,False
うみてらす名立,新潟県,上越市,名立区名立大町,37.163533,138.0866912,11834.965255946454,5538509642,False
みなべうめ振興館,和歌山県,みなべ町,谷口,33.7906972,135.3270776,11843.672643899095,5035524633,False
みょうぎ,群馬県,富岡市,妙義町妙義,36.2996438,138.765967,11867.532950206813,5438365134,False
たちばな,福岡県,八女市,立花町下辺春,33.18744243,130.6104152,11901.402152090148,4930642842,False
喜入,鹿児島県,鹿児島市,喜入町,31.378962,130.545172,11919.18461308725,4730045323,False
津田の松原,香川県,さぬき市,津田町鶴羽,34.2852705,134.2532485,11940.868070758215,5134324012,False
どんぐりの里 いなぶ,愛知県,豊田市,桑原町,35.2139047729337,137.503069357672,11956.829190324868,5237645031,False
やぶ,兵庫県,養父市,大塚,35.3824214,134.8159142,11965.27455990415,,False
あかばねロコステーション,愛知県,田原市,赤羽根町,34.6077776,137.1893809,11972.522761736804,5137712533,False
さんのへ,青森県,三戸町,大字六日町,40.387808,141.2554758,12010.341107303337,6041426032,False
おばあちゃん市・山岡,岐阜県,瑞浪市,陶町水上,35.3282547,137.3064444,12034.257135400034,5237729423,False
中山盆地,群馬県,高山村,大字中山,36.6224975,138.954256699999,12061.510437138033,,False
しろいし,佐賀県,白石町,大字福富東区,33.176871,130.196458,12069.790784920366,4930611521,False
鴨川オーシャンパーク,千葉県,鴨川市,江見太夫崎,35.0638015,140.077089099999,12098.023831730172,5240407631,False
日和佐,徳島県,美波町,奥河内字寺前,33.7302896,134.5302471,12107.846106048224,5034447232,False
庄内みかわ,山形県,三川町,大字横山字城下,38.7828046,139.8463299,12145.105293125995,5839163743,False
但馬楽座,兵庫県,養父市,上野東上野,35.3793183,134.7839118,12145.815639517095,,False
那須与一の郷,栃木県,大田原市,南金丸,36.8630177,140.0873784,12160.696062894176,5540203642,False
湧水の郷しおや,栃木県,日光市,塩野室町,36.7646574,139.781406899999,12173.410650775179,5539161243,False
くつき新本陣,滋賀県,高島市,朽木市場,35.3510891,135.9156479,12201.026344763115,5335072312,False
信州新野千石平,長野県,阿南町,大字新野,35.257481,137.745387,12211.424132471084,5237750943,False
むなかた,福岡県,宗像市,牟田尻,33.8484732,130.503451,12215.587317471782,5030641034,False
はしかみ,青森県,八戸市,大字金浜字荒屋敷久保,40.4584959,141.6084329,12227.757363136856,6041545821,False
スプリングスひよし,京都府,南丹市,世木中,35.1524243822895,135.517810225409,12264.8241544114,,False
くらぶち小栗の里,群馬県,高崎市,倉渕町三ノ倉,36.4245108,138.7931396,12278.715290553215,5438560334,False
とぎ海街道,石川県,志賀町,富来領家町,37.140177,136.724883,12306.426864791682,,False
大滝温泉,埼玉県,秩父市,大滝字神岡,35.9503803,138.9381995,12314.92308293692,5338774511,False
たのうら,熊本県,芦北町,田浦町,32.36456725,130.5124497,12337.847697065354,4830443042,False
舞ロードIC千代田,広島県,北広島町,古保利,34.6745412,132.5412326,12353.627202044487,5232040334,False
はくしゅう,山梨県,北杜市,白州町台ケ原,35.8103246,138.3306551,12375.499887879889,5338527612,False
広見森の三角ぼうし,愛媛県,鬼北町,大字永野市,33.25385686,132.6871266,12392.841390916676,4932750424,False
つくで手作り村,愛知県,新城市,作手清岳北畑,34.9631966,137.420692,12531.402912568437,5237335341,False
笠岡ベイファーム,岡山県,笠岡市,カブト南町,34.473317,133.500244,12547.622216837144,5133546033,False
奥大井音戯の郷,静岡県,川根本町,東藤川,35.1084211207701,138.136841685983,12575.226198220778,5238513022,False
やまだ,岩手県,山田町,船越第９地割,39.4369048,141.973205,12578.167565454261,5941172724,False
甲斐大和,山梨県,甲州市,鶴瀬,35.6359342,138.7927141,12666.965951626305,,False
そばの郷 らっせぃみさと,岐阜県,恵那市,三郷町佐々良木,35.4057084,137.358747399999,12676.004300861296,5337028841,False
女神の里 たてしな,長野県,立科町,大字芦田野方,36.276288,138.331675,12685.02407293645,,False
まつだいふるさと会館,新潟県,十日町市,松代,37.1326116,138.6138286,12686.983333051348,5538545933,False
かみゆうべつ温泉チューリップの湯,北海道,湧別町,中湧別東町,44.1851816,143.5956986,12696.66883532606,6643242721,False
大和,佐賀県,佐賀市,大和町大字八反原,33.3390166,130.2578278,12743.327325779534,5030020041,False
なち,和歌山県,那智勝浦町,大字浜ノ宮,33.6443666,135.9366721,12748.86540513057,5035377424,False
おうむ,北海道,雄武町,本町,44.5830367,142.9597327,12780.56284665534,6642679644,False
やす,高知県,香南市,千切,33.5341373,133.7538524,12844.922552757318,5033264012,False
南アルプスむら長谷,長野県,伊那市,勝間,35.809814,138.0837089,12884.609681800848,5338507621,False
たけゆらの里おおたき,千葉県,大多喜町,石神,35.254825,140.258616,12886.56104788897,,False
平成,岐阜県,関市,下之保,35.552245,136.997291799999,12900.973045868745,5336276924,False
大芝高原,長野県,南箕輪村,大芝,35.88666750000005,137.94389,12907.210632419929,,False
YOU･遊･もり,北海道,森町,字上台町,42.098901,140.568716,12928.871405248134,,False
常陸大宮,茨城県,常陸大宮市,岩崎,36.5969609,140.4096155,12944.324831410668,,False
あやま,三重県,伊賀市,湯舟,34.8445672,136.1709955,12964.282104936821,,False
みずなし本陣ふかえ,長崎県,島原市,南安徳町,32.73970208,130.3675809,12971.791377525307,4930028934,False
長崎街道鈴田峠,長崎県,大村市,中里町,32.8853776,130.0074643,12995.064057551981,4930206021,False
明恵ふるさと館,和歌山県,有田川町,大字中井原,34.0540787,135.2628951,13001.733602312323,5135026113,False
おのこ,群馬県,渋川市,祖母島,36.5481138,138.952806199999,13082.585197174903,5438675633,False
きくすい,熊本県,和水町,大字江田馬場,32.97335053,130.6023182,13109.416706691742,4930346833,False
いが,三重県,伊賀市,柘植町,34.8371363,136.2534017,13121.814787057356,5236220014,False
ノンキーランド ひがしもこと,北海道,大空町,東藻琴北２区,43.845319,144.294951,13141.286732621948,6544621323,False
おおむた,福岡県,大牟田市,四箇新町２丁目,33.0732475,130.5321905,13155.372361579482,4930448243,False
雨晴,富山県,高岡市,太田太田渋谷,36.814906,137.041623,13170.908256646946,5537107334,False
草津運動茶屋公園,群馬県,草津町,大字草津,36.614528,138.590048,13187.666643871096,5438743731,False
みつ,兵庫県,たつの市,御津町岩見,34.7798988,134.5232452,13195.25888613585,,False
とっとパーク小島,大阪府,岬町,多奈川小島,34.3151101,135.0999192,13211.6441432835,,False
ロック・ガーデン ひちそう,岐阜県,七宗町,中麻生,35.533911,137.11445,13234.210219754812,5337204911,False
芦北でこぽん,熊本県,芦北町,佐敷,32.302882,130.508036,13256.231607752967,4830346023,False
白浜野島崎,千葉県,南房総市,白浜町滝口,34.9062489,139.877387399999,13267.48588126289,5239278031,False
FARMUS 木島平,長野県,飯山市,大字野坂田,36.8521479,138.388223,13279.963365317288,,False
ちくら・潮風王国,千葉県,南房総市,千倉町千田,34.9299008,139.9520926,13280.749610817747,5239371631,False
山中温泉 ゆけむり健康村,石川県,加賀市,山中温泉こおろぎ町,36.2377003,136.3675157,13289.83631107356,5436228932,False
おが,秋田県,男鹿市,船川港船川字新浜町,39.88194527800005,139.84833500000002,13312.89076017493,5939665744,False
月夜野矢瀬親水公園,群馬県,みなかみ町,月夜野,36.6976003,138.9812566,13317.75170291548,5538073841,False
おおつの里,千葉県,南房総市,富浦町手取,35.0577165,139.8603645,13324.326929849682,5239466844,False
吉野ヶ里,佐賀県,吉野ヶ里町,松隈松隈,33.3804956,130.3973146,13327.82503817178,,False
熊野・花の窟,三重県,熊野市,有馬町,33.878939,136.092541,13336.495423237453,5036605714,False
くろほね・やまびこ,群馬県,桐生市,黒保根町八木原,36.491184,139.2719912,13339.328971359799,,False
川俣,福島県,川俣町,大字鶴沢字東,37.6678183,140.5766931,13350.232716202185,5640440611,False
ばとう,栃木県,那珂川町,北向田,36.7476018,140.1498715,13358.038258990284,5540019142,False
丹波おばあちゃんの里,兵庫県,丹波市,春日町七日市,35.1663913,135.1167249,13374.452816035964,,False
旭志,熊本県,菊池市,伊坂,32.9312589,130.8302719,13396.474050203473,,False
おがわら湖,青森県,東北町,旭南一丁目,40.728039,141.274961,13402.30535610211,6141027124,False
寒河江,山形県,寒河江市,字夕カヘ,38.399013,140.269891,13438.764855582553,,False
ハウスヤルビ奈井江,北海道,奈井江町,字奈井江町北町,43.4332722,141.888801599999,13465.71655188952,6541171133,False
おおゆ,秋田県,鹿角市,十和田山根,40.295831,140.82593,13483.723372361532,6040365613,False
竜北,熊本県,氷川町,高塚,32.5767711,130.6947352,13497.300692392077,4830659521,False
石鳥谷,岩手県,花巻市,中寺林第５地割,39.4832705,141.142136899999,13536.617158528692,5941117134,False
倶利伽羅 源平の郷,石川県,津幡町,字竹橋,36.662745,136.768516,13606.461721888241,5436769132,False
うきは,福岡県,うきは市,大字山北,33.33401533,130.8181663,13607.274799061592,5030060512,False
美良布,高知県,香美市,美良布,33.6481473,133.7824983,13631.552709202375,5033367243,False
通潤橋,熊本県,山都町,大字下市,32.681489,130.9916631,13632.225495960653,4930071934,False
香春,福岡県,香春町,大字鏡山,33.6765903,130.8599817,13685.742944589068,,False
釜石仙人峠,岩手県,釜石市,甲子町第５地割,39.25363306,141.7816824,13704.945948212999,5841760223,False
にしあいづ,福島県,西会津町,野沢,37.5858675,139.642595199999,13729.761281171172,5639350114,False
安曇野松川,長野県,松川村,細野,36.396278,137.867643,13741.894447407334,5437467932,False
花の里いいじま,長野県,飯島町,七久保,35.6620051,137.9100456,13793.128046726868,5337379224,False
湯の川,島根県,松江市,宍道町伊志見,35.3956721,132.8692971,13923.713053001431,5332067923,False
水辺プラザかもと,熊本県,菊池市,台,32.9871618,130.7559,13947.882934443562,4930368014,False
もてぎ,栃木県,茂木町,大字茂木,36.5278259,140.1728576,13997.514268885638,5440613324,False
すずなり,石川県,珠洲市,飯田町,37.441561,137.269964,14043.180660111046,5637122143,False
あいの土山,滋賀県,甲賀市,南土山,34.9277903,136.2956751,14051.924461074803,5236321323,False
潮見坂,静岡県,湖西市,白須賀,34.6772824,137.499226799999,14155.601291039196,,False
播磨いちのみや,兵庫県,宍粟市,須行名,35.0885182,134.5882082,14218.313925082626,5234540731,False
花街道付知,岐阜県,中津川市,田瀬,35.6426846,137.4415533,14224.736234203348,5337337512,False
みなまた,熊本県,水俣市,港町３丁目,32.19916882,130.3817017,14224.86083415139,4830233043,False
おおうち,秋田県,由利本荘市,岩谷町字西野,39.4428837,140.0901559,14262.260177974413,5940103711,False
たばやま,山梨県,丹波山村,下組,35.78926,138.923819,14303.539117523947,5338574342,False
広瀬・富田城,島根県,安来市,広瀬町町帳,35.3683383,133.1806139,14322.15108605834,5333014412,False
田野駅屋,高知県,田野町,北町,33.43015487,134.0078394,14336.86209605758,5034101041,False
高千穂,宮崎県,高千穂町,大字三田井,32.7084429,131.3004346,14345.360815251273,,False
ステラ★ほんべつ,北海道,本別町,山手町,43.1256342,143.6132503,14360.406035493996,6443545911,False
高岡,宮崎県,宮崎市,花見宮水流（穆佐）,31.9457372,131.3405553,14365.15729998059,4731723713,False
一乗谷あさくら水の駅,福井県,福井市,安波賀中島町,36.020564,136.29458,14373.319108409494,5436022323,False
あおき,長野県,青木村,大字夫神細谷,36.372865,138.140884,14464.004561305373,,False
くちくまの,和歌山県,上富田町,岩崎,33.69142499,135.4145694,14535.351702778577,5035432333,False
あらエッサ,島根県,安来市,中海町,35.4095485,133.3124056,14577.781353461998,5333029422,False
おおすみ弥五郎伝説の里,鹿児島県,曽於市,大隅町岩川,31.5931188,130.991067,14586.017585155465,,False
七城メロンドーム,熊本県,菊池市,岡田,32.9799358,130.7703282,14598.37390809622,,False
公方の郷なかがわ,徳島県,阿南市,那賀川町,33.9529323,134.6678143,14633.119800958693,5034754314,False
ひない,秋田県,大館市,扇田,40.219348,140.585214,14636.06267969407,6040246624,False
みたら室蘭,北海道,室蘭市,祝津町４丁目,42.342012,140.943745,14643.749239874152,6340471512,False
みそぎの郷 きこない,北海道,木古内町,字本町,41.6780521,140.4353634,14672.127735677812,6240431424,False
宇陀路室生,奈良県,宇陀市,大字三本松,34.5765439,136.0342371,14723.348063909327,5136609221,False
おおえ,山形県,大江町,大字藤田,38.367756,140.213291,14733.347172822005,5740414711,False
伊吹の里,滋賀県,米原市,小田,35.3968414,136.3709852,14738.564540443636,5336027941,False
豊栄,新潟県,北区,浦ノ入,37.957911,139.22301,14758.42306021294,5639714744,False
なかつ,大分県,中津市,大字加来,33.5516096,131.2141064,14777.510564409484,,False
さかい,福井県,坂井市,蔵垣内,36.17097015647466,136.22097197012133,14842.02525633564,5436210741,False
童話の里 くす,大分県,玖珠町,大字帆足,33.2893373,131.1569324,14856.337846312503,4931714241,False
南国風良里,高知県,南国市,領石,33.6112003,133.6421517,14948.975547383257,5033353114,False
箱根峠,神奈川県,箱根町,箱根,35.1867643,139.0156098,14991.024063470853,,False
山内,佐賀県,武雄市,大字三間坂,33.1917813,129.9561607,15048.856861678005,,False
みまの里,徳島県,つるぎ町,貞光字馬出,34.050557222000066,134.05889000000002,15049.804328386459,5134006421,False
みやま公園,岡山県,玉野市,田井２丁目,34.520201,133.926904,15050.02634683461,,False
京丹波 味夢の里,京都府,京丹波町,須知,35.149554,135.426755,15058.146884084206,5235537433,False
つの,宮崎県,都農町,大字川北北町,32.2603007,131.5580347,15073.302296818765,4831341421,False
奥伊勢おおだい,三重県,大紀町,船木,34.3938706,136.4085972,15092.14528863913,5136437223,False
天空の郷さんさん,愛媛県,久万高原町,久万,33.6611355,132.8987127,15093.398158982842,5032379124,False
風のマルシェ 御前崎,静岡県,御前崎市,門屋七ツ山,34.640677,138.110751,15107.447138649753,,False
原鶴,福岡県,朝倉市,杷木久喜宮,33.35376454,130.7846775,15155.926095008526,5030062224,False
玉露の里,静岡県,藤枝市,岡部町殿,34.9507285,138.251557899999,15187.219973224359,5238324011,False
潮彩市場防府,山口県,防府市,新築地町,34.0380706,131.5976786,15188.059026568688,,False
奥久慈だいご,茨城県,大子町,大字北田気,36.7685851,140.3592347,15217.979283065972,5540122821,False
白沢,群馬県,沼田市,白沢町平出,36.6616976,139.120031299999,15280.245843250223,5439709923,False
こすげ,山梨県,丹波山村,保之瀬下,35.75396,138.949946,15329.99784956221,,False
禅の里,福井県,永平寺町,清水,36.0800489,136.3986545,15366.387755209704,5436039142,False
山川港活お海道,鹿児島県,指宿市,町,31.2030165,130.6349136,15386.420167287144,4630654024,False
むらやま,山形県,村山市,楯岡新高田,38.4871462,140.3823105,15408.712287181974,,False
河北,山形県,東根市,大字藤助新田,38.41304,140.328447,15437.080917959347,,False
コスモール大樹,北海道,大樹町,一条通,42.489824,143.273259,15449.097425940274,6343528144,False
とみざわ,山梨県,南部町,福士中央,35.2417855,138.4850509,15500.591493881207,,False
おこっぺ,北海道,興部町,字興部仲町,44.469498,143.116955,15539.924039695903,6643506914,False
小坂田公園,長野県,塩尻市,大字柿沢町区,36.1063465999999,137.988190799999,15594.040044407768,,False
阿蘇,熊本県,阿蘇市,黒川東黒川,32.9370344,131.0809168,15597.47674264111,4931302614,False
みまき,長野県,東御市,布下西田,36.3347839,138.3595655,15669.184388608985,,False
R290とちお,新潟県,長岡市,栃尾宮沢,37.4595997,139.0072657,15684.099988236148,5639105021,False
ひろさき,青森県,平川市,大字岩館,40.5547520999999,140.5487947,15718.779203483782,6040646342,False
きくがわ,山口県,下関市,菊川町大字下岡枝,34.1262472,131.0316891,15778.79609566702,5131105221,False
しもにた,群馬県,下仁田町,大字白山,36.2240358,138.8020175,15847.194582179212,5438266433,False
厚岸グルメパーク,北海道,厚岸町,住の江２丁目,43.0576697,144.844018399999,15858.180172230217,6444466743,False
富楽里とみやま,千葉県,南房総市,検儀谷,35.1005082,139.8556137,15885.004153098656,5239562812,False
たまつくり,茨城県,行方市,甲字高須,36.0963942,140.4037633,15885.289085121372,5440131232,False
北欧の風 道の駅とうべつ,北海道,当別町,当別太,43.177254,141.448498,15898.377496033365,,False
貞光ゆうゆう館,徳島県,つるぎ町,貞光字大須賀,34.042626,134.0600296,15908.032229399007,5134005422,False
しらやまさん,石川県,白山市,鶴来今町,36.436858,136.630472999999,15973.656961961053,,False
掛川,静岡県,掛川市,八坂,34.7942015,138.076063999999,15981.726497935699,,False
いなかだて,青森県,田舎館村,大字高樋,40.6336188999999,140.577685999999,15996.343664013084,6040746611,False
きらら あじす,山口県,山口市,阿知須小古郷,34.0128549,131.3695613,16004.428998288338,,False
もっくる新城,愛知県,新城市,八束穂,34.91757,137.5337,16008.290735161852,,False
花夢里にいつ,新潟県,秋葉区,川根,37.7925908,139.078895,16073.563165451666,,False
志野・織部,岐阜県,土岐市,泉北山町３丁目,35.3941426,137.188130799999,16173.282967104946,5337017513,False
クロスロードみつぎ,広島県,尾道市,御調町神,34.5115157,133.1446622,16197.42494308206,5133611123,False
三芳村,千葉県,南房総市,川田,35.0341006,139.8948453,16327.763310452934,5239474121,False
第九の里,徳島県,鳴門市,大麻町桧,34.1638897,134.4988142,16367.976372221852,5134139942,False
アルプ飛騨古川,岐阜県,高山市,国府町宇津江,36.220446,137.192351,16401.332744830695,5437216514,False
どうし,山梨県,道志村,東神地,35.503387,138.989848,16424.500496205226,5338270913,False
メルヘンおやべ,富山県,小矢部市,西中野,36.6894706,136.8766877,16532.946994270173,5536072031,False
両神温泉薬師の湯,埼玉県,小鹿野町,両神薄下大平戸,36.0047724,138.970964399999,16538.48241081761,5438070741,False
あなみず,石川県,穴水町,字大町,37.2283748,136.9056837,16608.315976362406,5536677214,False
うご,秋田県,羽後町,西馬音内,39.200532,140.412438,16702.48847683758,5840634222,False
上州おにし,群馬県,藤岡市,譲原,36.1430927,139.0403486,16758.60122358543,5439107311,False
東近江市あいとうマーガレットステーション,滋賀県,東近江市,下中野町,35.1097186,136.2587666,16784.372548208077,,False
ちぢみの里おぢや,新潟県,小千谷市,大字稗生津山町,37.305143,138.822908,16823.251819145305,5538766542,False
ほっとぱ～く・浅科,長野県,佐久市,甲上原,36.2575102,138.404306799999,16842.348143089683,5438330234,False
ころ柿の里しか,石川県,志賀町,末吉,37.0068731,136.780021,16894.10487815262,5536460234,False
くりもと,千葉県,香取市,沢,35.805852,140.4699424,16916.78739041483,,False
彩菜茶屋,岡山県,美作市,明見東２,35.014721,134.1508967,16962.327717642136,5234411233,False
和田浦 WA・O！,千葉県,南房総市,和田町仁我浦,35.042582,140.02057,17026.311747075557,5240405121,False
サシバの里いちかい,栃木県,市貝町,大字市塙,36.543766,140.10118,17032.49491925329,5440605811,False
しんぐう,兵庫県,たつの市,新宮町芝田,34.9221217,134.5370837,17056.676927649256,5234340242,False
北信州やまのうち,長野県,山ノ内町,大字佐野,36.7413505,138.404622099999,17082.915597495958,5538038234,False
のと千里浜,石川県,羽咋市,千里浜町,36.886027,136.768455,17127.127823671486,5536266114,False
おおさと,宮城県,大郷町,粕川字後沢田畑,38.424053,140.992791,17146.552000634125,5740570934,False
パーク七里御浜,三重県,御浜町,大字阿田和,33.8035647,136.0431051,17194.876034255525,5036506314,False
近江母の郷,滋賀県,米原市,宇賀野,35.3432724,136.2777302,17253.37874264183,,False
小国,熊本県,小国町,大字宮原,33.123101,131.0646886,17322.042735516323,4931504533,False
あしょろ銀河ホール21,北海道,足寄町,北一条１丁目,43.244332,143.546455,17349.870668057156,6443649323,False
たきかわ,北海道,滝川市,江部乙町東１１丁目,43.6234396,141.941477999999,17473.70039285523,6541374534,False
むかわ四季の館,北海道,むかわ町,美幸３丁目,42.5739733,141.925464299999,17477.43911098381,6341678433,False
京都新光悦村,京都府,南丹市,桐ノ庄千妻,35.123886,135.482213,17530.97544768433,,False
今井 恵みの里,長野県,松本市,大字今井,36.148281,137.902754299999,17545.311441796228,,False
ウッディー京北,京都府,右京区,周山神明,35.1558354,135.633108,17600.25410609896,5235558041,False
くしがきの里,和歌山県,かつらぎ町,大字滝,34.31829,135.477346,17605.02736349607,5135338811,False
雷電くるみの里,長野県,東御市,滋野中屋敷,36.3557148,138.373897299999,17621.72300608905,,False
ゆのたに,新潟県,魚沼市,吉田,37.2238403,138.9830342,17625.859301391094,,False
こまつ木場潟,石川県,小松市,三谷町,36.3700059,136.4623598,17666.277644654736,,False
きょなん,千葉県,鋸南町,吉浜,35.1279707,139.8371002,17694.07077742708,5239565624,False
庭園の郷 保内,新潟県,三条市,下保内,37.647125,139.026294,17729.331017483863,5639307231,False
山北,神奈川県,山北町,湯触,35.3798757,139.0314839,17836.402820565065,5339005241,False
サラブレッドロード新冠,北海道,新冠町,字本町,42.3598362,142.315690799999,17933.912333982837,6342423512,False
多古,千葉県,多古町,多古,35.7312831,140.4752846,17968.18997928765,5340437831,False
みしょうMIC,愛媛県,愛南町,御荘平城,32.9587802,132.561599,18039.33890194324,4932345422,False
ひたちおおた,茨城県,常陸太田市,谷河原町,36.5103878,140.5254761,18069.16995631786,,False
ましこ,栃木県,益子町,大字長堤,36.431168,140.071976,18108.494246802376,5440501542,False
いたこ,茨城県,潮来市,延方西,35.9461322,140.589244799999,18134.761936281033,,False
おおとう桜街道,福岡県,大任町,大字今任原向田,33.626154,130.8451701,18195.974486154744,,False
たからべ,宮崎県,都城市,蓑原町,31.7287045,130.9987033,18214.41834682338,4730477924,False
あらかわ,埼玉県,秩父市,荒川日野,35.9544145,139.012633599999,18217.55785985889,5339704131,False
桜島,鹿児島県,鹿児島市,桜島横山町,31.5893744,130.5988039,18263.31050065919,4730340742,False
福光,富山県,南砺市,中ノ江,36.5664199,136.861891799999,18327.275001945647,5436667844,False
きつれがわ,栃木県,さくら市,喜連川,36.7154994,140.0326363,18405.571434939564,5540005243,False
清流の里しろとり,岐阜県,郡上市,為真,35.881564,136.854767,18463.29723981474,5336665834,False
花かげの郷まきおか,山梨県,山梨市,牧丘町室伏室伏,35.7544617,138.718367899999,18469.260395289915,,False
紀の川万葉の里,和歌山県,かつらぎ町,大字島,34.28451,135.464531,18620.506327846168,5135334711,False
パークイン丹生ヶ丘,福井県,越前町,朝日,35.969483,136.119514,18625.388417950246,5336706923,False
つどいの郷むつざわ,千葉県,睦沢町,上之郷,35.352183,140.3036799,18641.603944765917,,False
豊前おこしかけ,福岡県,豊前市,大字松江,33.6141375,131.1008813,18681.24629381698,5031303831,False
しんよしとみ,福岡県,上毛町,大字大ノ瀬,33.58871601,131.1543082,18699.373429603227,,False
山田錦発祥のまち・多可,兵庫県,多可町,中区天田,35.0590116,134.9187617,18750.424825628917,5234477321,False
村田,宮城県,村田町,大字村田字塩内,38.118639,140.717279,18841.04572524773,5740154712,False
開国下田みなと,静岡県,下田市,武が浜,34.6748202,138.9508766,18889.107546392926,,False
発酵の里こうざき,千葉県,神崎町,松崎,35.90023,140.3797,18892.315616255568,,False
にらさき,山梨県,北杜市,明野町小笠原小笠原,35.7484117,138.4385896,18909.765248056454,5338439533,False
伊東マリンタウン,静岡県,伊東市,湯川４丁目,34.9846432,139.094386,18946.686334719056,,False
宇津ノ谷峠,静岡県,藤枝市,岡部町岡部,34.92545,138.300822,19012.23480744283,5238321411,False
池田,長野県,池田町,大字会染和合,36.3970744,137.8846375,19073.21582779721,5437477042,False
なるさわ,山梨県,鳴沢村,大田和,35.480152,138.698504,19091.046530666226,5338157542,False
藍ランドうだつ,徳島県,美馬市,脇町大字脇町,34.06697457,134.1465136,19136.634042130976,5134018121,False
はなわ,福島県,塙町,大字塙字本町,36.9506187,140.4145197,19148.592217284553,5540334311,False
わっかない,北海道,稚内市,中央２丁目,45.41725,141.677348,19183.469148730317,6841150411,False
いとだ,福岡県,糸田町,鼡ケ池,33.64191221,130.7646945,19228.213465948258,5030367111,False
萩しーまーと,山口県,萩市,大字椿東無田ケ原口の１,34.42624582,131.4146209,19331.294760108314,5131531311,False
きりら坂下,岐阜県,中津川市,坂下,35.5704301,137.534574,19363.211054267238,,False
くるら戸田,静岡県,沼津市,戸田,34.9713,138.7868,19490.263128611943,5238366242,False
針Ｔ・Ｒ・Ｓ,奈良県,奈良市,針町,34.610429,135.963208,19568.385616461383,,False
根来さくらの里,大阪府,泉南市,信達楠畑,34.3118642,135.3069985,19568.55127962753,,False
こんぜの里りっとう,滋賀県,栗東市,観音寺,34.9683823,136.0391198,19642.54525049292,,False
お茶の京都 みなみやましろ村,京都府,南山城村,大字北大河原月ケ瀬ニュータウン,34.765472,136.024007,19773.396825645064,5236101144,False
舞鶴港とれとれセンター,京都府,舞鶴市,四所第四埠頭,35.450349,135.3145072,19846.779712826967,5335124511,False
なみおか,青森県,青森市,浪岡大字杉沢字福田,40.7179284,140.579519,19895.22909782163,6140046612,False
北はりまエコミュージアム,兵庫県,西脇市,寺内,35.007794,134.987129,19969.559082849148,5234470844,False
ひがしかわ「道草館」,北海道,東川町,南町１丁目,43.6973051,142.5088143,19984.2345683494,6542443041,False
うしぶか海彩館,熊本県,天草市,牛深町岡一,32.193836,130.026968,20108.404260506468,4830203213,False
彼杵の荘,長崎県,東彼杵町,彼杵宿郷,33.0358508,129.9199353,20125.11965084474,4929474323,False
アルプス安曇野 ほりがねの里,長野県,安曇野市,堀金烏川上堀,36.2934956,137.877719999999,20163.388078320782,,False
かつらぎ西,和歌山県,かつらぎ町,大字笠田東,34.2977409,135.4738277,20184.063593721112,5135335742,False
三本木,宮城県,大崎市,三本木字廻山,38.521611,140.938388,20186.133804747806,5740672531,False
ぐりーんふらわー牧場・大胡,群馬県,前橋市,滝窪町,36.4590603,139.136429,20212.52353634395,5439515022,False
丹波マーケス,京都府,京丹波町,須知,35.154813,135.4287046,20354.656084393784,,False
上田 道と川の駅,長野県,上田市,下之条,36.407122,138.205586,20541.595594678176,,False
オライはすぬま,千葉県,山武市,ハ,35.6017957,140.5015935,20556.990601614554,,False
せせらぎの里こうら,滋賀県,甲良町,大字金屋,35.2018443,136.2755566,20711.13686723663,5236624211,False
ソレーネ周南,山口県,周南市,大字戸田,34.07489931,131.6882042,20778.545332272883,5131058533,False
吉野路 大淀ｉセンター,奈良県,大淀町,大字畑屋,34.4122094,135.7969172,20896.34609638229,5135469324,False
ゆうひパーク浜田,島根県,浜田市,瀬戸見町,34.8890254,132.0712455,21003.651737621673,5232206541,False
宙ドーム・神岡,岐阜県,飛騨市,神岡町江馬町,36.3290175,137.3071895,21067.552049064485,5437329423,False
津かわげ,三重県,津市,河芸町北黒田,34.7967069,136.5179906,21149.88908651398,,False
内子フレッシュパークからり,愛媛県,内子町,知清,33.55490563,132.6582901,21239.596242576354,5032256241,False
ほっと?はぼろ,北海道,羽幌町,北四条１丁目,44.3673322,141.7065768,21318.69586657235,6641454621,False
スタープラザ 芦別,北海道,芦別市,北四条東,43.5255178,142.188894099999,21437.495587913443,6542213511,False
ヘルシーテラス佐久南,長野県,佐久市,桜井,36.236692,138.440822,21469.72769922371,5438238514,False
すばしり,静岡県,小山町,須走（ひばりが丘）,35.3627022,138.858767299999,21489.033764675525,,False
若狭おばま,福井県,小浜市,府中,35.4919688,135.7630954,21539.352383540325,,False
龍勢会館,埼玉県,秩父市,下吉田,36.0490086,139.0401091,21621.558966608492,5439005333,False
庄川,富山県,砺波市,庄川町示野,36.5743326,136.9799087,21628.001778317954,5436678834,False
はが,栃木県,芳賀町,大字上延生,36.5523813,140.0581962,21735.837234119914,5440606423,False
センザキッチン,山口県,長門市,仙崎,34.388466,131.202713,21822.76798126974,5131416631,False
美濃にわか茶屋,岐阜県,美濃市,梅山町,35.554599,136.913733,22016.57465481617,5336276331,False
保田小学校,千葉県,鋸南町,大帷子,35.1430213,139.8439449,22030.532743731663,5239567721,False
とみうら,千葉県,南房総市,富浦町青木,35.0376773,139.8371306,22059.691676891947,5239464642,False
とうじょう,兵庫県,加東市,南山１丁目,34.8940786,135.0756464,22069.22007571841,5235207613,False
米沢,山形県,米沢市,大字川井,37.922055,140.137017,22476.41534142408,5640710042,False
国見 あつかしの郷,福島県,国見町,大字塚野目字北寺田,37.872681,140.545612,22515.205084885965,5640644341,False
八幡浜みなっと,愛媛県,八幡浜市,,33.45816264,132.418138,22585.809862813323,5032134334,False
源平の里むれ,香川県,高松市,牟礼町大町,34.3337252,134.1574969,22710.029874956832,5134410221,False
にしかた,栃木県,栃木市,西方町金崎,36.4666875,139.7431798,22752.835557773356,5439556912,False
かでな,沖縄県,嘉手納町,字屋良,26.3681116,127.7741485,22923.961492006132,3927464122,False
福良,兵庫県,南あわじ市,福良築地,34.25564,134.719256,22993.93973365148,5134350741,False
かづの,秋田県,鹿角市,花輪字下中島,40.1818401,140.7852155,23047.893641169972,6040261244,False
うつのみや ろまんちっく村,栃木県,宇都宮市,徳次郎町,36.633391,139.8313127,23142.20568685344,5439766621,False
妹子の郷,滋賀県,大津市,和邇中,35.1598017,135.9015502,23204.10105788298,,False
南信州 とよおかマルシェ,長野県,高森町,下市田出砂原,35.544442,137.891347,23218.253471277625,5337275114,False
筆柿の里・幸田,愛知県,幸田町,大字桐山,34.8485237,137.138304,23233.15422729838,,False
アリストぬまくま,広島県,福山市,沼隈町大字草深,34.394684,133.3173083,23237.519252131122,5133427514,False
香南楽湯,香川県,高松市,香南町横井,34.2394188,134.0072876,23282.213389048717,5134208041,False
うすい,福岡県,嘉麻市,大字光代,33.5639493,130.7132593,23347.619219644203,5030257731,False
日本昭和村,岐阜県,美濃加茂市,蜂屋町上蜂屋,35.4736126,137.0306176,23365.759810285876,,False
果樹公園あしがくぼ,埼玉県,横瀬町,大字芦ケ久保,35.9769074,139.1355565,23446.19335459777,,False
おとふけ,北海道,音更町,木野大通西１９丁目,42.976584,143.207419,23493.856827690823,6443317621,False
滝宮,香川県,綾川町,滝宮,34.2497767901761,133.91735948833,23512.21203383892,5133279334,False
つる,山梨県,都留市,小形山大原,35.582917,138.931227,23661.09259596794,,False
ながら,千葉県,長柄町,六地蔵,35.4573078,140.206659899999,23666.036728281255,5340114643,False
織部の里・もとす,岐阜県,本巣市,曽井中島,35.500115,136.667187,23912.2961093671,,False
青洲の里,和歌山県,紀の川市,大字名手市場,34.2807411,135.4417553,24009.92181121007,5135333532,False
和紙の里ひがしちちぶ,埼玉県,東秩父村,大字安戸,36.052482,139.203506,24256.54190055728,5439016614,False
オアシスおぶせ,長野県,小布施町,大字大島,36.689123,138.2948649,24315.060008322715,,False
ふじみ,群馬県,前橋市,富士見町石井,36.4693828,139.0942386,24442.55928062565,5439506723,False
アグリパーク竜王,滋賀県,竜王町,大字山之上,35.0436549,136.1452664,24483.96557169835,,False
富士川,山梨県,富士川町,青柳町,35.557015,138.472064,24787.948494231772,,False
宇陀路大宇陀,奈良県,宇陀市,大字出新,34.4760734,135.9321879,24842.507158810058,5135577421,False
やいた,栃木県,矢板市,矢板,36.805614,139.9216154,24869.818699485,,False
泗水,熊本県,菊池市,豊水,32.92503512,130.7713888,24878.342144486665,,False
月見の里 南濃,岐阜県,海津市,羽沢,35.215087,136.600691,24919.212670201865,5236645833,False
しもつけ,栃木県,下野市,田中,36.3972222,139.8837638,25109.857110186163,,False
木更津うまくたの里,千葉県,木更津市,真里,35.359948,140.052479,25139.301906535704,,False
淡河,兵庫県,北区,淡河町淡河,34.813904,135.097418,25151.328220598993,5235107742,False
池田温泉,岐阜県,池田町,片山,35.419442,136.559813999999,25169.493208484917,5336140424,False
風和里しばやま,千葉県,芝山町,小池,35.6950636,140.410030099999,25488.42252926058,5340433224,False
浅井三姉妹の郷,滋賀県,長浜市,大依町,35.4300512,136.3054291,25588.044356052676,5336121432,False
カモンパーク新湊,富山県,射水市,鏡宮,36.7520114,137.084967799999,25648.082126961017,5537100622,False
しもつま,茨城県,下妻市,数須,36.2158407,139.9865962,25654.215700058343,5439275844,False
よつくら港,福島県,いわき市,四倉町,37.107429,140.992995,25747.04823001689,5540572934,False
しゃり,北海道,斜里町,港町,43.9117709,144.664213799999,25773.708343506216,6544659313,False
関宿,三重県,亀山市,関町木崎,34.849508,136.3926996,25875.169317918502,5236231134,False
かつやま,山梨県,富士河口湖町,大嵐,35.5043462,138.734304899999,26088.50252497374,,False
季楽里あさひ,千葉県,旭市,東足洗,35.71785572,140.675557,26157.73725031634,,False
東浦ターミナルパーク,兵庫県,淡路市,浦,34.5374471,134.9923784,26387.986658696605,5134674914,False
みぶ,栃木県,壬生町,大字国谷,36.4552686,139.8069587,26388.82731292897,,False
ことひき,香川県,観音寺市,有明町,34.1305993,133.6437157,26623.39327698416,5133155132,False
みなの,埼玉県,皆野町,大字皆野字吉丸,36.0769587,139.1096496,26898.516564126006,5439009822,False
井波,富山県,南砺市,井波,36.5615090999999,136.977887,26911.75699352977,5436677813,False
スペース・アップルよいち,北海道,余市町,黒川町６丁目,43.1885383,140.788781299999,26996.930298015926,6440662331,False
にのみや,栃木県,真岡市,久下田西７丁目,36.3673361,139.964996,27016.881031793666,5439474711,False
富士吉田,山梨県,富士吉田市,新屋,35.4591861,138.8019802,27381.864496673792,5338165411,False
可児ッテ「ＣＡＮＩＴＴＥ」,岐阜県,可児市,柿田,35.430055,137.101163,27409.53029255971,5337101831,False
こもち,群馬県,渋川市,大字白井,36.5151403,139.016362699999,27578.569355598604,5439601134,False
びえい「丘のくら」,北海道,美瑛町,北町１丁目,43.5921253,142.463785499999,27656.753489127746,6542331711,False
流氷街道網走,北海道,網走市,南四条東４丁目,44.022034,144.273893,27758.03021158729,6644022142,False
とよとみ,山梨県,中央市,浅利,35.5849397,138.545212099999,27772.613552936953,5338340321,False
竜王かがみの里,滋賀県,竜王町,大字鏡,35.085777,136.079297,27780.55776402673,5236500614,False
みかも,栃木県,栃木市,藤岡町大田和,36.296714,139.625248,27818.834796120387,5439355031,False
思川,栃木県,小山市,大字下国府塚,36.3081818,139.7607461,27980.875464706518,,False
くじ,岩手県,久慈市,十八日町２丁目,40.1898882,141.764638699999,28014.024321275683,6041262133,False
甘楽,群馬県,甘楽町,大字善慶寺,36.2337493,138.9166528,28054.260475229927,5438278312,False
ウェーブパークなめりかわ,富山県,滑川市,中川原,36.7743768,137.3444564,28142.296064358663,5537122743,False
おおき,福岡県,大木町,大字横溝,33.21790626,130.437973,28168.460774599233,,False
内灘サンセットパーク,石川県,内灘町,字大学１丁目,36.6591958,136.648897,28230.789245820448,5436759122,False
むげ川,岐阜県,関市,武芸川町跡部,35.5151834,136.8541224,28480.245906718264,5336261834,False
あいおい白龍城,兵庫県,相生市,那波南本町,34.804286,134.461841,28506.26513833885,5234136642,False
海の京都 宮津,京都府,宮津市,宮津島崎,35.5383355,135.1939786,28613.12957552714,5335214541,False
能登食祭市場,石川県,七尾市,府中町浜通,37.0489849,136.968983999999,28733.925431025007,5536475743,False
都城,宮崎県,都城市,都北町,31.7686702,131.0951485,28876.450955337063,,False
くるめ,福岡県,久留米市,善導寺町与田,33.3190429,130.5942111,28897.86284900343,4930748723,False
柿の郷くどやま,和歌山県,九度山町,大字九度山,34.2932,135.555557,28983.913157460316,5135345412,False
みさき,大阪府,岬町,淡輪,34.325936,135.17379,29270.918207215826,5135319322,False
十文字,秋田県,横手市,十文字町字海道下,39.226174,140.521447,29367.389614144824,5840647121,False
あきた港,秋田県,秋田市,土崎港西１丁目,39.7527085,140.061005,29492.703213712655,,False
恋人の聖地 うたづ臨海公園,香川県,宇多津町,浜一番丁,34.31338818,133.807966,29603.33703061311,,False
能勢（くりの郷）,大阪府,能勢町,平野,34.9566571,135.4009924,29613.290320422137,,False
藤樹の里あどがわ,滋賀県,高島市,安曇川町上小川,35.3261987,136.0300086,29764.431913350694,5236709212,False
めぐみ白山,石川県,白山市,村井南区,36.506041,136.553443,30115.594017897976,5436640432,False
草津,滋賀県,草津市,下物町,35.0700321,135.9392505,30320.799213435395,,False
大社ご縁広場,島根県,出雲市,大社町杵築南,35.3892258,132.686398,30352.212618631664,5332056442,False
いわない,北海道,岩内町,字万代,42.9834347,140.5167801,30446.0808360548,6440348112,False
輪島,石川県,輪島市,河井町栄町上川町,37.388618,136.905971,30523.757449127657,5636076232,False
みはら神明の里,広島県,三原市,糸崎３丁目,34.3968282,133.1038862,30692.634419500853,5133407832,False
あわじ,兵庫県,淡路市,岩屋竜松,34.6013544,135.0094203,31285.255653453925,5135702022,False
ねごろ歴史の丘,和歌山県,岩出市,大字根来,34.286813,135.311361,31326.486501623334,5135324424,False
川のみなと長井,山形県,長井市,ままの上,38.108211,140.043516,31336.90964413925,5740102334,False
半布里の郷 とみか,岐阜県,富加町,羽生,35.4743201,136.980146,31380.070122040044,5336176834,False
ふじおやま,静岡県,小山町,阿多野（吉久保）,35.3444505,138.9500838,31438.09706734885,5338071613,False
赤城の恵,群馬県,前橋市,荻窪町,36.4236952,139.128455499999,31499.173936193183,,False
みやま,福岡県,みやま市,瀬高町小川,33.1482179029797,130.484540285983,31635.463901026396,4930537844,False
燕三条地場産センター,新潟県,三条市,須頃１丁目,37.6492628,138.9334638,32109.752640677663,5638377443,False
土岐美濃焼街道,岐阜県,土岐市,駄知町,35.336059,137.2231904,32284.72532106429,5337010724,False
いながわ,兵庫県,猪名川町,万善,34.9193434,135.3517588,32419.56312732066,5235320813,False
神戸フルーツ・フラワーパーク 大沢,兵庫県,北区,長尾町上津,34.850249,135.190522,32566.466588413867,,False
クレール平田,岐阜県,海津市,野寺,35.2747147,136.671057099999,32635.923653220463,5236752343,False
させぼっくす99,長崎県,佐世保市,愛宕町,33.2015015,129.671634,32829.63594922678,4929654321,False
富有柿の里いとぬき,岐阜県,本巣市,上保,35.4725539,136.6760471,33121.3871306654,5336156431,False
だて歴史の杜,北海道,伊達市,梅本町,42.4717206,140.8771001,33440.256641822714,,False
富士川楽座,静岡県,富士市,木島小山,35.1618278,138.6186186,33460.88003001204,5238549914,False
水の郷さわら,千葉県,香取市,佐原イ,35.896313,140.505908,33463.07557256793,5340647032,False
うき,熊本県,宇城市,久具,32.6511943,130.6977338,33951.843814593565,,False
すいかの里 植木,熊本県,北区,植木町一木,32.907939,130.692874,34017.77997255494,4930258534,False
あずの里いちはら,千葉県,市原市,浅井小向,35.4638588,140.109646,34262.95019204624,,False
きたかわべ,埼玉県,加須市,小野袋,36.2110887,139.662783399999,34496.67553833697,,False
立田ふれあいの里,愛知県,愛西市,立田町松田,35.1442911,136.6949567,34517.676478214875,,False
喜名番所,沖縄県,読谷村,字喜名,26.3993416,127.758204,34623.619155758475,3927467043,False
天童温泉,山形県,天童市,鍬ノ町２丁目,38.354481,140.387127,34759.218295052866,5740432042,False
氷見,富山県,氷見市,北大町,36.864417,136.98721,34896.85701717917,5536273842,False
南相馬,福島県,南相馬市,原町区高見町２丁目,37.635707,140.983582,35188.5073323327,5640376823,False
まくらがの里 こが,茨城県,古河市,大和田大和田上,36.191431,139.789732,35327.0448921523,5439262333,False
しらね,山梨県,南アルプス市,在家塚,35.6380315,138.471158999999,35412.36669051667,5338336741,False
パレットピアおおの,岐阜県,大野町,大字下磯,35.431918,136.628084,35762.09038275374,5336151033,False
みき,兵庫県,三木市,福井,34.7873424932336,134.977205271411,35793.861510322364,,False
日立おさかなセンター,茨城県,日立市,久慈町４丁目,36.4923537,140.6151942,36379.494630847345,5440549911,False
たけはら,広島県,竹原市,本町一丁目,34.3439384,132.9121681,36639.73265320348,5132471224,False
砺波,富山県,砺波市,花園町,36.6414874,136.960092,36686.19619398743,5436776644,False
童謡のふる里おおとね,埼玉県,加須市,佐波,36.170307,139.6451589,36848.6410698544,5439250123,False
大津,熊本県,大津町,美咲野４丁目,32.8811014,130.8908127,37012.877572312136,4930275132,False
おおた,群馬県,太田市,新田下江田町,36.2646406,139.2964207,37176.98173279746,,False
万葉の里 高岡,富山県,高岡市,蜂ケ島,36.7367136,136.9693519,37359.40541628116,5536078723,False
はにゅう,埼玉県,羽生市,大字小須賀,36.1887372,139.5107702,37984.40331407252,,False
豊崎,沖縄県,豊見城市,豊崎,26.1576946,127.6553335,38089.94307174941,,False
よしおか温泉,群馬県,吉岡町,漆原,36.4413405,139.035164,39113.62555362269,5439502244,False
はなぞの,埼玉県,寄居町,大字小園,36.1218906,139.227294,39517.545480241955,5439114831,False
伊豆のへそ,静岡県,伊豆の国市,白山堂,35.0117848999999,138.941064699999,39626.53182675356,5238471514,False
藤川宿,愛知県,岡崎市,藤川町,34.9142483,137.2168536,41340.461483575,5237219732,False
ごか,茨城県,五霞町,大字江川,36.0952767,139.758331699999,41356.95702438144,5439161023,False
めぬま,埼玉県,熊谷市,八木田中口,36.2145575,139.3693257,41463.5708748419,,False
いずみ山愛の里,大阪府,和泉市,下宮町,34.423154,135.4830003,42598.599552374566,5135530843,False
おがわまち,埼玉県,小川町,大字小川,36.0523844,139.2811686,43292.92283767843,5439026214,False
かわもと,埼玉県,深谷市,長在家,36.1515097,139.2890291,43394.4302964011,5439128311,False
ららん藤岡,群馬県,藤岡市,中,36.2721362,139.0716443,44047.24850073719,5439302541,False
おかべ,埼玉県,深谷市,岡,36.2185243,139.241279699999,44068.90313835334,,False
にしお岡ノ山,愛知県,西尾市,志篭谷町,34.8767959,137.0831113,44395.36325421949,5237205621,False
瀬戸しなの,愛知県,瀬戸市,品野町１丁目,35.2423483,137.115081799999,45101.73925734271,5237609911,False
田原めっくんはうす,愛知県,田原市,東赤石,34.6613618,137.272428,45424.63815155356,5137729124,False
びんご府中,広島県,府中市,府川町,34.56977,133.235633,45619.858927117246,5133618824,False
ちはやあかさか,大阪府,千早赤阪村,大字川野辺,34.4642761554969,135.625936427755,45835.529320194604,5135555031,False
伊豆ゲートウェイ函南,静岡県,函南町,塚本,35.075604,138.926014,45889.49255812409,,False
日光,栃木県,日光市,今市,36.72453076,139.6878876,45953.993521989396,5539056533,False
那須野が原博物館,栃木県,那須塩原市,三島４丁目,36.899706,139.969139,46507.55572922853,5539277743,False
愛彩ランド,大阪府,岸和田市,三ケ山町,34.4225565,135.42543,46885.39594087131,,False
玉村宿,群馬県,玉村町,大字上新田新田,36.30833423,139.0945846,47081.1014862595,5439307721,False
西山公園,福井県,鯖江市,桜町３丁目,35.9486607158321,136.180677318771,47194.993535685,5336713434,False
清川,神奈川県,清川村,煤ケ谷,35.4825222,139.2771732,48323.505087159785,5339127233,False
パティオにいがた,新潟県,長岡市,中之島,37.546709,138.883471,48395.24306837261,5638275041,False
みのりの郷東金,千葉県,東金市,道庭,35.5772141,140.3836754,49139.522808948874,,False
デンパーク安城,愛知県,安城市,赤松町,34.9305143344235,137.058186449845,49147.658185696,,False
どまんなか たぬま,栃木県,佐野市,吉水駅前３丁目,36.3438044,139.5720735,50662.64727030138,5439441524,False
うわじま きさいや広場,愛媛県,宇和島市,弁天町,33.22242256,132.5582355,51471.2689473059,4932646441,False
新潟ふるさと村,新潟県,江南区,俵柳,37.866345,139.020212,52102.18292602352,5639603143,False
いちごの里 よしみ,埼玉県,吉見町,大字谷口,36.0363563,139.457688299999,52489.062588002336,5439034623,False
かつらぎ,奈良県,葛城市,中戸,34.495401,135.704788,52895.86751071228,5135559614,False
飛鳥,奈良県,明日香村,大字越,34.464724444000055,135.79861138900003,54932.610186933576,5135565344,False
クロス10十日町,新潟県,十日町市,本町,37.1384419,138.761379,54990.78737163395,5538566042,False
びわ湖大橋米プラザ,滋賀県,大津市,今堅田３丁目,35.1246283,135.9281834,55433.6128838623,,False
いとまん,沖縄県,糸満市,西崎１丁目,26.1384965,127.661156,55502.11042830053,3927156242,False
さかい,茨城県,境町,大字境新吉町,36.102676,139.795303,55670.87422251673,5439162323,False
ちちぶ,埼玉県,秩父市,上野町,35.9974408,139.0893968,55949.95719081121,5339709731,False
アグリパークゆめすぎと,埼玉県,杉戸町,大字才羽,36.0246324,139.769259599999,56641.26961920053,5439062143,False
レスティ 唐古・鍵,奈良県,田原本町,大字唐古,34.571407,135.797418,57118.20878220033,5135668342,False
かなん,大阪府,河南町,大字神山,34.478438,135.617062,58028.11749307776,5135547914,False
近つ飛鳥の里太子,大阪府,太子町,大字山田,34.5167874,135.6584047,60310.462385431965,5135652221,False
ガレリアかめおか,京都府,亀岡市,余部町余部町,35.0145442,135.566682,62150.830627870084,5235441532,False
アグリの郷栗東,滋賀県,栗東市,大橋３丁目,35.0387341,136.0015367,63435.37258535574,5236404031,False
花ロードえにわ,北海道,恵庭市,中島町３丁目,42.8972354,141.5856753,64160.07014363303,,False
ふたかみパーク當麻,奈良県,葛城市,新在家,34.5265079,135.6932765,65100.32182489832,5135653512,False
あさひかわ,北海道,旭川市,神楽四条６丁目,43.7600001,142.3484462,68730.23766549984,6542521722,False
庄和,埼玉県,春日部市,上柳,35.9967914,139.7947804,69459.69845339068,5339769341,False
菰野,三重県,菰野町,大字菰野,35.013663,136.5030552,70663.62149700259,5236441031,False
奥河内くろまろの郷,大阪府,河内長野市,高向,34.435966,135.551096,71927.5805904532,5135542413,False
富士,静岡県,富士市,宮島,35.1334097,138.6470417,72614.22462415783,5238556122,False
柳津,岐阜県,岐阜市,柳津町北塚４丁目,35.3700936,136.7313569,81854.47593795715,5336054823,False
サーモンパーク千歳,北海道,千歳市,花園３丁目,42.833788,141.65933,83803.96592452287,6441250221,False
大和路へぐり,奈良県,平群町,大字下垣内,34.6235384,135.7062481,86056.7497115527,5135754634,False
やちよ,千葉県,八千代市,米本団地,35.7584154,140.106748599999,86144.1338172036,,False
しょうなん,千葉県,柏市,箕輪,35.8577705,140.0232539,94187.87243419106,,False
八王子滝山,東京都,八王子市,滝山町１丁目,35.6866238,139.341474899999,137333.32698828247,5339422714,False
しらとりの郷・羽曳野,大阪府,羽曳野市,羽曳が丘１０丁目,34.533043,135.587747,140222.586612994,5135643733,False
いちかわ,千葉県,市川市,国分６丁目,35.7488419,139.9194133,230553.70044236898,5339479343,False
川口・あんぎょう,埼玉県,川口市,安行出羽５丁目,35.848019,139.765768999999,243139.84447451337,5339661134,False
