name,pref,city,district,latitude,longitude,urban_point,in_mesh_point,is_island
西仙台ハイランド,宮城県,仙台市青葉区,新川,38.290172,140.628905,5848.3115895500205,,False
石山,北海道,白老町,字萩野,42.536433,141.300037,6794.091338842619,6341624413,False
みどり野,北海道,当別町,字茂平沢（みどり野）,43.256682,141.53826,6976.77502949034,6441740333,False
吉備高原都市,岡山県,吉備中央町,吉川日の上Ⅰ,34.8352512,133.760726,9046.731715375543,,False
高島三ツ石,徳島県,鳴門市,,34.2129306,134.608185,9350.252645238492,5134245841,False
アナトリア鴨川リゾート,千葉県,鴨川市,天面,35.07658,140.071735,10244.665138815506,,False
光都21,兵庫県,上郡町,光都二丁目,34.9317769,134.441315,10640.228597034391,5234331534,False
名泉郷ニュータウン,福井県,あわら市,下金屋,36.244257,136.280139,11212.650937252318,5436229214,False
南房総千倉開発計画,千葉県,南房総市,千倉町忽戸,34.951594,139.951229,11318.038159618975,,False
南部,北海道,紋別市,南が丘町七丁目,44.3329907,143.363327,11694.347402256071,6643329933,False
コリーナ矢板,栃木県,矢板市,玉田,36.756318,139.908657,11984.92341741134,5539170243,False
有年,兵庫県,赤穂市,有年原,34.8295023,134.395603,12391.324488631933,5234139141,False
大金台,栃木県,那須烏山市,月次,36.667644,140.115831,12478.384555738314,5540000912,False
大楽毛,北海道,釧路市,大楽毛南三丁目,43.00744,144.284992,12632.662343980275,6444420244,False
美奈宜の杜,福岡県,朝倉市,美奈宜の杜四丁目,33.431495,130.712282,12974.361122537617,,False
夷隅レクリエーション,千葉県,いすみ市,大原台,35.209003,140.367733,13133.324093282105,5240625912,False
みどり野団地,北海道,南幌町,美園二丁目,43.054402,141.653638,13208.158224717612,6441456232,False
下野郷,宮城県,岩沼市,空港南,38.120445,140.917461,13781.968488336286,,False
八合原,鹿児島県,曽於市,大隅町下窪町,31.582429,131.002604,14357.982251579317,4731209033,False
吉備高原団地,岡山県,吉備中央町,上野,34.839027,133.767379,15230.883177291194,5233260132,False
ｸﾞﾘｭｰﾈﾝ入野住宅団地,広島県,東広島市,入野中山台三丁目,34.4547661,132.860194,15388.69115217143,5132564842,False
フィオーレ喜連川,栃木県,さくら市,フィオーレ喜連川三丁目,36.7383544,140.028034,17076.508542884112,5540008231,False
錦西ニュータウン,北海道,苫小牧市,北星町一丁目,42.602757,141.469316,17995.885960389387,6341732723,False
北部,北海道,士別市,東六条北八丁目,44.188574,142.398949,18151.17302623431,6642232142,False
浜松市船明,静岡県,浜松市天竜区,船明,34.8876894,137.818666,18556.58297956136,5237266532,False
美祢ニュータウン来福台,山口県,美祢市,大嶺町東分,34.18456,131.196177,18850.69845990119,5131212521,False
明野,北海道,苫小牧市,新開町三丁目,42.661863,141.64414,19452.224967241506,6341759123,False
グリーンニュータウン,北海道,釧路町,緑五丁目,43.037717,144.470147,21322.54563953368,6444434741,False
ロングヒルニュータウン,大分県,大分市,梅が丘二丁目,33.1232016,131.684112,21815.686511278698,4931554443,False
北会津村真宮,福島県,会津若松市,真宮新町南四丁目,37.522116,139.873281,22094.928843828635,5639262942,False
御庄,山口県,岩国市,御庄二丁目,34.1673314,132.152311,22536.54519041258,5132210211,False
山畑,三重県,伊賀市,希望ヶ丘西四丁目,34.785587,136.230098,22722.473372471002,5236114814,False
ひょうご情報公園都市,兵庫県,三木市,志染町戸田,34.7999779,135.071377,22739.189865488097,,False
ひたち野文化村,茨城県,水戸市,鯉淵町,36.3343144,140.377399,22914.561760992543,5440430011,False
対雁,北海道,江別市,工栄町,43.126327,141.515408,23112.99005724211,,False
桜台,岩手県,盛岡市,桜台二丁目,39.751248,141.197319,23818.635926261857,5941510522,False
桜台ニュータウン,岩手県,盛岡市,桜台二丁目,39.7503,141.198939,23818.635926261857,5941510522,False
北部,長野県,辰野町,中央宮所,35.988112,137.983429,23882.779168371257,5337778841,False
阿字ヶ浦,茨城県,ひたちなか市,阿字ケ浦町,36.3876528,140.607014,23965.17391410937,5440446841,False
梅ヶ丘,大分県,大分市,梅が丘一丁目,33.1211754,131.680075,24658.440567457747,4931554432,False
芦別第三,北海道,芦別市,北五条西一丁目,43.527331,142.183636,25219.251152789504,6542213423,False
沼田町伴,広島県,広島市安佐南区,伴西一丁目,34.4673551,132.389288,25434.630512644508,,False
梅ノ木,宮城県,登米市,佐沼字梅ノ木一丁目,38.696564,141.20616,25474.230059186262,5841013632,False
南大和田園都市牧野Ａ南地区,奈良県,五條市,なつみ台一丁目,34.3479731,135.668859,25750.966551056626,5135451343,False
萩洗,宮城県,登米市,佐沼字南佐沼二丁目,38.682863,141.184959,26258.823763214645,5841011444,False
落合,秋田県,能代市,落合字下大野,40.2252677032112,140.03593505407807,26451.25093159521,6040207222,False
野中・砂子,兵庫県,赤穂市,北野中,34.762196,134.412176,26537.58509232564,5234131224,False
学園,北海道,紋別市,渚滑町元新一丁目,44.3650344,143.333284,26631.39077884825,6643423643,False
上町,鹿児島県,曽於市,末吉町上町五丁目,31.6509931,131.023463,26880.95186775206,4731308122,False
小松ヶ丘,青森県,六戸町,小松ケ丘四丁目,40.662386265761,141.3365028417799,26940.157747340218,6041729624,False
稲田川西,北海道,帯広市,清流西二丁目,42.872379,143.194213,27190.228302006675,6443214541,False
阿見吉原,茨城県,阿見町,よしわら四丁目,35.9860859,140.235973,27459.99072023787,5340718824,False
花吉野ガーデンヒルズ,奈良県,大淀町,大字福神,34.3957764,135.745265,27462.087366124026,5135457923,False
ぬな川,新潟県,糸魚川市,大字今村新田,37.029443,137.822145,28621.302260449072,5537463542,False
本町,北海道,南幌町,栄町一丁目,43.063746,141.650411,28655.838624893517,6441457231,False
池の台,三重県,名張市,美旗町池の台東,34.6515757,136.134549,28712.327816881356,5136718022,False
白帆台ニュータウン,石川県,内灘町,白帆台二丁目,36.6730242,136.657873,28813.003664190663,5536050243,False
つのいニュータウン,鳥取県,鳥取市,若葉台南六丁目,35.445708,134.262365,28818.15850605438,5334123024,False
福井,長野県,飯綱町,大字豊野福井団地,36.7424722,138.252887,28878.50242674109,5538029011,False
あすとぴあ,山口県,宇部市,あすとぴあ五丁目,33.980698,131.297221,28914.880199160078,5031727342,False
西ヶ丘,岩手県,宮古市,西ケ丘四丁目,39.642049,141.914456,28948.233825046766,5941377311,False
小峰台,和歌山県,橋本市,小峰台二丁目,34.3526719,135.630456,28987.120022679457,5135452014,False
湖南サンライズ,滋賀県,日野町,大字石原,35.0360205,136.232218,29042.268088918907,5236414823,False
高屋駅周辺,岡山県,井原市,下出部町二丁目,34.582212,133.438193,29291.009430023623,5133639533,False
新城沖,宮城県,気仙沼市,新田,38.907732,141.550334,29951.71332529906,5841248433,False
新城沖,宮城県,気仙沼市,新田,38.907732,141.550334,29951.71332529906,5841248433,False
みずきが丘ﾆｭｰﾀｳﾝ,福島県,本宮市,関下,37.48848,140.358232,29986.612783736447,5640128841,False
河北,鳥取県,倉吉市,福庭町二丁目,35.4666961,133.846971,30054.216755845493,5333166722,False
南山台東、南山台西,岐阜県,御嵩町,御嵩,35.421755,137.138009,30139.406032811974,5337110131,False
星和豊里ニュータウン,千葉県,銚子市,豊里台三丁目,35.788106,140.707548,30145.85446002348,5340554641,False
シ－アイタウン利府葉山,宮城県,利府町,葉山一丁目,38.364474,141.023254,30187.337121968863,5741403142,False
蔵王みはらしの丘,山形県,山形市,みはらしの丘二丁目,38.189018,140.291591,30282.138684308295,5740222332,False
草川,宮崎県,門川町,須賀崎一丁目,32.486597,131.668046,30407.896452078716,4831558314,False
輪内,鹿児島県,奄美市,名瀬有屋町,28.394213,129.530221,30424.376515252658,4229447214,True
臨海工業,福島県,いわき市,小名浜字芳浜,36.944747,140.876041,30516.655311849878,5540373013,False
鉄北第一,北海道,当別町,西町,43.225724,141.511882,30682.918661113203,6441647022,False
白鳥台,北海道,室蘭市,白鳥台五丁目,42.379502,140.938861,31198.746617034365,6340475531,False
星ヶ浦北部,北海道,釧路市,星が浦北四丁目,43.015442,144.308639,31214.800509154775,6444421443,False
ひょうご東条ニュータウン インターパーク 南山の里,兵庫県,加東市,南山三丁目,34.8923879,135.069886,31320.264547164774,5235207521,False
上灘,鳥取県,倉吉市,下田中町,35.4302508,133.843902,31484.459044407664,5333161741,False
相馬駅東,福島県,相馬市,北飯渕一丁目,37.804088,140.931709,31497.72446677921,5640576423,False
足見川エコシティ,三重県,四日市市,高花平四丁目,34.948358,136.546025,31512.87512614208,5236343343,False
十市パークタウン,高知県,南国市,緑ケ丘二丁目,33.5333019,133.608093,31653.73836406351,5033243843,False
上郡ネオポリス,兵庫県,上郡町,高田台三丁目,34.8633877,134.382889,31784.771251485843,5234233041,False
泉沢向陽台,北海道,千歳市,白樺二丁目,42.787527,141.597412,31903.219757080355,6441144742,False
戸高,宮崎県,日南市,戸高二丁目,31.596156,131.37567,31999.121235801686,4731331031,False
湯沢,岩手県,盛岡市,湯沢西二丁目,39.640562,141.096468,32218.272797796755,5941306743,False
多気ニュータウン,三重県,多気町,相可台,34.5004455,136.548263,32242.153131253915,5136640322,False
八島台,福島県,三春町,八島台五丁目,37.446533,140.479689,32271.989134596875,5640133832,False
平井東部,茨城県,鹿嶋市,大字平井,35.957548,140.668127,32450.007296789216,5340754334,False
光が丘,山口県,山口市,小郡光が丘,34.123902,131.397225,32774.02775576081,5131134144,False
望洋パークタウン,北海道,小樽市,望洋台三丁目,43.162587,141.029252,32788.41480593642,6441509232,False
中郷ニュータウン,茨城県,北茨城市,中郷町汐見ケ丘五丁目,36.7648079,140.731418,32821.60217602818,5540151843,False
瑞穂ニュータウン,千葉県,香取市,みずほ台三丁目,35.885147,140.432133,32883.5735265643,5340636421,False
那須塩原駅西,栃木県,那須塩原市,方京三丁目,36.9305276,140.015031,33082.70713902133,5540301131,False
長岡ニュータウン,新潟県,長岡市,青葉台四丁目,37.4376473,138.751412,33146.0466109862,5638162031,False
クリエイティブヒルズ／しまなみヒルズ,愛媛県,今治市,しまなみヒルズ,34.0672124,132.972877,33351.81325699646,5132078722,False
スカイタウンつつじが丘,和歌山県,和歌山市,つつじが丘,34.268761,135.100957,33551.40187512062,5135302813,False
指宿駅西部,鹿児島県,指宿市,湯の浜一丁目,31.234344,130.642118,33932.42681237698,4630658112,False
白河西郷西,福島県,西郷村,,37.12438,140.184345,34090.00693497758,5540514443,False
豊洋台団地,長崎県,長崎市,豊洋台一丁目,32.83036,129.791404,34405.95784925234,4929169332,False
自由ヶ丘,山口県,防府市,自由ヶ丘四丁目,34.071422,131.536623,34424.62430023832,5131048242,False
駅西,秋田県,横手市,駅西一丁目,39.30864498634099,140.55880749540248,34683.92644163372,5840747421,False
泉沢向陽台,北海道,千歳市,文京一丁目,42.779212,141.60003,34719.35645422723,6441143831,False
是川,青森県,八戸市,是川二丁目,40.467794683559745,141.4998329307736,34970.52222184379,6041536922,False
善當寺住宅地区,広島県,広島市安佐南区,沼田町大字伴,34.4682175,132.402843,34977.4971368694,,False
土岐プラズマリサーチパーク,岐阜県,土岐市,土岐ヶ丘一丁目,35.3399102,137.166619,34999.715771651376,,False
船引東部,福島県,田村市,船引町東部台四丁目,37.4401956,140.584483,35006.040932634285,5640142644,False
旭岡,北海道,函館市,西旭岡町二丁目,41.799643,140.827925,35028.22390473797,6240565633,False
田園都市 島名,茨城県,つくば市,高山,36.06825,140.039885,35328.002117455944,5440008311,False
八戸駅西,青森県,八戸市,大字尻内町字メドツ河原,40.51128789245912,141.42733568355976,35348.62249105926,6041631413,False
関原東部,新潟県,長岡市,関原西町,37.458747,138.777016,35353.03602955447,5638165211,False
グリーンポート愛島,宮城県,名取市,愛島台六丁目,38.145256,140.819449,35366.005848993795,5740167523,False
野田定内,岩手県,釜石市,野田町四丁目,39.258609,141.827917,35489.07119135415,5841761611,False
松川羽山,福島県,福島市,松川町美郷二丁目,37.664102,140.469775,35637.341786138066,5640339741,False
赤塚駅前,新潟県,新潟市西区,みずき野三丁目,37.8177495,138.902797,35645.51140765948,5638578211,False
三井ニュータウン,鹿児島県,鹿児島市,牟礼岡二丁目,31.6738,130.584887,35721.17374318776,4730440644,False
パストラルびゅう桂台,山梨県,大月市,猿橋町桂台一丁目,35.6097779,138.971821,35849.247819981036,5338373721,False
宮ノ口,宮崎県,門川町,宮ケ原一丁目,32.482723,131.648483,35869.28624453611,4831557144,False
大井,岡山県,笠岡市,大井南,34.5307118,133.502265,35946.07563271172,5133643031,False
釧路町東陽,北海道,釧路町,東陽西二丁目,42.999775,144.428769,35978.5518351189,6444339434,False
すずらん台,三重県,名張市,すずらん台西四番町,34.6380994,136.159852,36265.507986469864,5136716242,False
高野ニュータウン,北海道,岩見沢市,幌向南三条二丁目,43.1461512,141.662149,36517.94959373013,6441557242,False
赤坂ニュータウン,宮城県,仙台市青葉区,赤坂三丁目,38.292968,140.747137,36592.50042507183,5740355922,False
インターパーク宇都宮南,栃木県,宇都宮市,インターパーク四丁目,36.492729,139.907458,36609.32845413428,,False
貴志川長山団地,和歌山県,紀の川市,大字長山,34.2106396,135.287416,36834.06877711989,5135225224,False
千福ニュータウン,静岡県,裾野市,千福が丘二丁目,35.1978344,138.880795,36848.86360325342,5238673032,False
鷹巣,宮城県,白石市,鷹巣東一丁目,37.99711,140.635471,36861.47827655028,5640759042,False
あおば台ニュータウン,福島県,須賀川市,あおば町,37.3169717,140.384557,36916.46705820266,5540738022,False
岩瀬駅前,茨城県,桜川市,明日香二丁目,36.365336,140.109478,36975.116945875874,5440403844,False
リフレ岬望海坂,大阪府,岬町,望海坂一丁目,34.3275502,135.189305,37141.34702257691,5135319513,False
気仙沼西,宮城県,気仙沼市,田中前三丁目,38.890498,141.55994,37198.20947677494,5841246444,False
芳賀佐山,岡山県,岡山市北区,佐山,34.7056544,133.87702,37253.2255024449,5233074031,False
春日丘住宅地,三重県,名張市,春日丘三番町,34.613679,136.118138,37307.576010303776,5136703932,False
天辰第一,鹿児島県,薩摩川内市,東大小路町,31.8270594,130.321527,37338.860795858076,4730529521,False
南部第二,福井県,大野市,若杉町,35.9754761,136.501772,37368.49513583938,5336747011,False
中大塩,長野県,茅野市,大字中大塩,36.0259295,138.186415,37418.75044011652,5438013422,False
植田第一,福島県,いわき市,植田町南町一丁目,36.915862,140.79953,37503.93666920153,5540269344,False
サンタウン松園,岩手県,盛岡市,北松園四丁目,39.761897,141.177353,37523.87780707917,5941511413,False
石原,京都府,福知山市,遷喬石原,35.2992132,135.177367,37684.6874982925,5235715433,False
金池第二,山形県,米沢市,金池七丁目,37.9273022,140.117842,37869.56445726829,5640701914,False
片田,三重県,津市,片田新町,34.7020465,136.438834,37958.223596639036,5236034511,False
欅台,大分県,大分市,けやき台三丁目,33.1546569,131.673228,37998.33720582575,4931558342,False
山代北部,石川県,加賀市,山代温泉,36.296406,136.358786,38010.78671158024,5436325841,False
滝沢あすみ野,岩手県,滝沢市,湯舟沢,39.778793,141.101529,38024.57693526105,5941503813,False
紫香楽ハイランド,滋賀県,甲賀市,宮の前,34.966121,136.167045,38137.00940910143,5236315334,False
希望ヶ丘ニュータウン,滋賀県,甲賀市,宮の前,34.966121,136.167045,38137.00940910143,5236315334,False
東宝ランド,滋賀県,甲賀市,宮の前,34.966121,136.167045,38137.00940910143,5236315334,False
東宝ランド,滋賀県,甲賀市,宮の前,34.966121,136.167045,38137.00940910143,5236315334,False
東宝ランド,滋賀県,甲賀市,宮の前,34.966121,136.167045,38137.00940910143,5236315334,False
東宝ランド,滋賀県,甲賀市,宮の前,34.966121,136.167045,38137.00940910143,5236315334,False
桐陽台,広島県,広島市安佐北区,三入東一丁目,34.53472,132.545668,38162.249361547736,5132644321,False
富岡,佐賀県,武雄市,武雄町大字昭和天神,33.1951388,130.028393,38188.893656047956,4930603214,False
滑川駅南,富山県,滑川市,柳原,36.7658485,137.355362,38335.29487326143,5537121834,False
阪南カレッジタウン,大阪府,阪南市,箱作,34.332238,135.203483,38393.4881039951,5135319634,False
松川,山形県,米沢市,通町四丁目,37.8914111,140.125996,38794.50310229497,5640616033,False
御所野ニュータウン第五,秋田県,秋田市,御所野地蔵田四丁目,39.658959215683495,140.1532807897602,38953.6756242991,5940319212,False
小野,鹿児島県,鹿児島市,伊敷六丁目,31.624188,130.515819,39167.879233077234,4730344134,False
松長,福島県,会津若松市,一箕町松長四丁目,37.5285103,139.957016,39192.98591619352,5639273623,False
板倉ニュータウン,群馬県,板倉町,泉野三丁目,36.226035281672665,139.6391441161137,39255.74538307774,5439257111,False
鹿島神宮駅周辺北,茨城県,鹿嶋市,緑ヶ丘四丁目,35.9750969,140.624851,39419.494245727365,5340747922,False
本渡北,熊本県,天草市,北原町,32.4681852,130.186548,39616.45253326572,4830516422,False
蓬莱第２,福島県,福島市,蓬莱町三丁目,37.702591,140.477917,39625.014250249114,5640434813,False
都田,静岡県,浜松市北区,新都田三丁目,34.8194097,137.73448,39633.81863164075,5237158824,False
天満台,奈良県,宇陀市,榛原天満台東二丁目,34.5460744,135.973491,39670.26246603856,5135675742,False
ガーデンタウン高の原,宮城県,仙台市青葉区,高野原二丁目,38.288421,140.766728,39676.59197565805,5740364132,False
東長崎平間・東,長崎県,長崎市,鶴の尾町,32.7864474,129.948072,39779.77200211716,4929174524,False
しらさぎ台,徳島県,徳島市,上八万町西山,34.0322646,134.49156,39865.651975591805,5134033934,False
佐竹南台,茨城県,常陸太田市,天神林町佐竹南台ニュータウン,36.5226395,140.509764,39877.53592024104,5440642042,False
笠岡,岡山県,笠岡市,七番町,34.49584,133.517057,39905.2998121058,5133549132,False
はたそめ,茨城県,常陸太田市,幡町四季の丘・はたそめ西,36.5455859,140.545768,40044.13944614448,5440645323,False
西川,福島県,須賀川市,卸町,37.292406,140.35875,40136.52676205513,,False
御所野ニュータウン,秋田県,秋田市,御所野元町一丁目,39.66202154271968,140.16508440110502,40158.601240091346,5940319313,False
車坂・山下,宮崎県,宮崎市,学園木花台桜一丁目,31.8255982,131.418314,40409.377588837735,4731539312,False
飯倉台,千葉県,匝瑳市,飯倉台,35.689387,140.519643,40433.08739085885,5340442141,False
勿来錦第一,福島県,いわき市,錦町中央三丁目,36.90121,140.791318,40461.92852513915,5540268312,False
常澄,茨城県,水戸市,東前一丁目,36.33988,140.531524,40480.12061794653,5440440243,False
気仙沼,宮城県,気仙沼市,本郷,38.894507,141.568598,40495.51069726569,5841247514,False
兵庫ニュータウン（住吉台）,兵庫県,丹波篠山市,住吉台,35.0670567,135.171413,40638.69880624567,5235418321,False
姫城,鹿児島県,霧島市,隼人町姫城二丁目,31.766887,130.758115,40728.14510863502,4730562021,False
桔梗が丘,三重県,名張市,桔梗が丘南三番町,34.6348267,136.122753,40990.28074334383,5136706922,False
中部平成台,三重県,松阪市,平成町,34.5560424,136.491885,41119.03258171487,5136636932,False
児島元浜,岡山県,倉敷市,児島駅前一丁目,34.4634261,133.804587,41256.42953445988,5133565432,False
南部,青森県,五所川原市,中央四丁目,40.79722066698905,140.4502216246373,41426.53104066099,6140135631,False
東一宮,岡山県,津山市,東一宮,35.0984025,134.003653,41524.47088958004,5234501034,False
あやの台,和歌山県,橋本市,あやの台一丁目,34.3381755,135.651957,41708.782027951,5135450231,False
南ニュータウン,栃木県,宇都宮市,清原台六丁目,36.5411069,140.002857,41831.076153524096,5440604033,False
茂原緑ヶ丘,千葉県,茂原市,緑ヶ丘一丁目,35.439729,140.259935,42047.640786040836,5340122044,False
磯原駅西,茨城県,北茨城市,磯原町磯原三丁目,36.793117,140.739926,42075.30626520627,5540155911,False
桐ヶ丘住宅地,三重県,伊賀市,桐ケ丘,34.6613477,136.193892,42188.58085986853,5136719523,False
名鉄辰口ハイタウン,石川県,能美市,緑が丘七丁目,36.4375965,136.538981,42195.30715346498,5436542331,False
南帯広,北海道,帯広市,大空町,42.877159,143.14996,42354.86931978584,6443215124,False
永山,北海道,旭川市,流通団地三条四丁目,43.802261,142.405429,42466.20757575602,6542536214,False
ウトナイ,北海道,苫小牧市,ウトナイ北三丁目,42.68312,141.693764,42476.82092341567,6441051543,False
久保,山口県,下松市,東陽四丁目,34.0353247,131.914413,42593.46433181579,5131074311,False
関ヶ丘,岩手県,一関市,関が丘,38.918251,141.145992,42612.708599825644,5841310121,False
湯ノ山団地,愛媛県,松山市,湯の山五丁目,33.8699183,132.817398,42833.49037178304,5032664514,False
広陵台,福岡県,宗像市,広陵台四丁目,33.7915053,130.5975,42931.946170992735,5030544744,False
富貴ヶ丘,三重県,名張市,富貴ケ丘六番町,34.6205253,136.119934,43011.514990108015,5136704923,False
松ヶ丘,石川県,加賀市,松が丘四丁目,36.3235932,136.338828,43023.05318790571,5436328733,False
前田・長岡,茨城県,茨城町,大字長岡矢頭,36.3136945,140.443565,43046.755754195,5440337532,False
北野台団地,奈良県,大淀町,大字北野,34.397385,135.8217,43115.15180527554,5135467541,False
泉団地,岡山県,総社市,泉,34.6915352,133.751547,43392.43198348947,5233062033,False
西大浜,香川県,坂出市,西大浜北一丁目,34.322208,133.843772,43434.72606701538,5133368741,False
太夫浜,新潟県,新潟市北区,太夫浜新町一丁目,37.9618049,139.158071,43510.94497197432,5639715223,False
かずさアクアシティ,千葉県,木更津市,瓜倉,35.4296568,139.919613,43580.983319374245,5339171341,False
須頃郷,新潟県,燕市,井土巻三丁目,37.651548,138.936968,43783.56108580426,5638378422,False
富貴ヶ丘,三重県,名張市,富貴ケ丘三番町,34.6269527,136.122767,43789.38342289377,5136705922,False
久住駅前,千葉県,成田市,久住中央一丁目,35.835372,140.33942,43820.752077653015,5340620711,False
田村・沖宿,茨城県,土浦市,おおつ野五丁目,36.083919,140.25525,43981.185785879345,5440120012,False
パークコミュニティ桜の里,長崎県,長崎市,さくらの里二丁目,32.831896,129.767296,44039.22936664934,4929169134,False
下々条地区,新潟県,長岡市,高見一丁目,37.4965249,138.866328,44239.67252501228,5638169932,False
植田東部,福島県,いわき市,佐糠町東一丁目,36.920426,140.804601,44290.40274729839,5540360414,False
幸ニュータウン,北海道,小樽市,幸二丁目,43.216096,140.970694,44474.766278553325,6440675743,False
門・東安庭,岩手県,盛岡市,門一丁目,39.6716394,141.16977,44534.08004128787,5941410341,False
鷹ノ巣,北海道,旭川市,春光台三条八丁目,43.825193,142.365689,44537.822540064364,6542529912,False
中郷,鹿児島県,薩摩川内市,中郷二丁目,31.833615,130.312228,44710.68174542593,4730620422,False
北上南部,岩手県,北上市,大堤北二丁目,39.262746,141.104674,44755.906292489366,5841701832,False
草川,栃木県,さくら市,草川,36.6816916,139.954225,44797.43137903404,5539071634,False
パトリアル京ヶ丘,大分県,大分市,京が丘南一丁目,33.1750781,131.649534,44812.18609002206,4931651122,False
判田台,大分県,大分市,判田台北四丁目,33.1625695,131.630678,44956.32785017422,4931559032,False
東部丘陵地,石川県,能美市,泉台町,36.431434,136.521024,45094.6312686627,5436541143,False
東部丘陵,石川県,能美市,泉台町,36.431434,136.521024,45094.6312686627,5436541143,False
島松北,北海道,恵庭市,島松本町四丁目,42.92532,141.580633,45133.18236462021,6441341612,False
ｺﾓﾝｼﾃｨ十王・城の丘,茨城県,日立市,城の丘三丁目,36.668606,140.676862,45225.526967733465,5540050411,False
小山,三重県,桑名市,多度町多度二丁目,35.127666,136.632929,45272.187999339,5236555023,False
緑ヶ丘,大分県,大分市,緑が丘四丁目,33.1840912,131.529406,45594.47649266354,4931642212,False
姶良ニュータウン,鹿児島県,姶良市,西姶良二丁目,31.7314694,130.602012,45625.37770350837,4730447833,False
東聖,北海道,東神楽町,ひじり野南一条四丁目,43.7220144,142.410825,45631.41355678588,6542436242,False
イトーピア亀山(２期),三重県,亀山市,みずきが丘,34.877244,136.468504,45715.43921714177,5236235714,False
東部工業団地,福井県,鯖江市,御幸町二丁目,35.9766827,136.192244,45847.38782100401,5336717512,False
高栄第二,北海道,北見市,若葉二丁目,43.81019,143.848017,45970.05703298721,6543567722,False
中部,宮城県,大河原町,字町,38.053904,140.732374,46056.4448245715,5740056823,False
グリーンタウン上合,茨城県,日立市,かみあい町二丁目,36.628461,140.661174,46094.61703202444,5440755224,False
天王ニュータウン,高知県,いの町,天王南四丁目,33.5304037,133.447989,46156.86933073548,5033233542,False
サザンクロス佐野,栃木県,佐野市,高萩町,36.296588,139.603851,46159.65919366632,5439345832,False
（仮称）プロパスト三浦計画,神奈川県,三浦市,初声町入江,35.1869243,139.624061,46342.398077464146,5239642924,False
西部,福井県,鯖江市,有定町一丁目,35.943999,136.176904,46356.57946288121,5336713413,False
宇都宮グリーンタウン,栃木県,宇都宮市,立伏町,36.6358132,139.878135,46541.865238862716,5439776014,False
松木,熊本県,玉名市,松木,32.923978,130.554206,46594.25862984286,4930340434,False
いわきニュータウン,福島県,いわき市,鹿島町下矢田,37.007042,140.917168,46595.27391645893,5540470334,False
大曲市東部,秋田県,大仙市,大曲田町,39.451461113358796,140.48419966727968,46603.10946623946,5940134821,False
潮見台ニュータウン,高知県,高知市,潮見台一丁目,33.5600985,133.620488,46605.412156005485,5033247921,False
宮下,千葉県,君津市,宮下二丁目,35.300088,139.929018,46655.56177095961,5239776412,False
船迫,宮城県,柴田町,西船迫一丁目,38.066744,140.766835,46927.29104283441,5740068112,False
神前,島根県,出雲市,塩冶神前五丁目,35.349506,132.756937,46963.11403897354,5332061043,False
ひより台,宮城県,富谷市,ひより台一丁目,38.404656,140.886354,46964.51673128331,5740478042,False
勝木,広島県,広島市安佐北区,亀山西二丁目,34.533005,132.474496,46987.51599035523,5132633744,False
土合ヶ原,茨城県,神栖市,土合本町三丁目,35.792058,140.777822,47038.19328325945,5340565211,False
リバーサイドきぬの里,栃木県,さくら市,上阿久津,36.6590334,139.962399,47167.95173820505,5439779622,False
関原,新潟県,長岡市,関原南二丁目,37.44931,138.774576,47192.14821047984,5638163144,False
ヒルタウンさつき野,栃木県,鹿沼市,松原三丁目,36.5511032,139.815194,47341.56924779458,5439666511,False
八丁平,北海道,室蘭市,八丁平二丁目,42.366828,141.009039,47379.60634220402,6341404021,False
亀山北,栃木県,真岡市,亀山二丁目,36.458224,139.991312,47451.152341334666,5439574934,False
比津ケ丘団地,島根県,松江市,比津が丘一丁目,35.4931159,133.039549,47460.83218292743,5333109311,False
坂田山,栃木県,鹿沼市,坂田山三丁目,36.5731844,139.739359,47509.22869155294,5439658933,False
本郷台団地,栃木県,上三川町,大字西汗,36.4825535,139.91876,47552.56662096952,5439577343,False
ガーデンシティ湖南,茨城県,阿見町,南平台一丁目,36.0249374,140.2524,47556.48124572885,5440022033,False
季美の森,千葉県,大網白里市,季美の森南二丁目,35.555308,140.300946,47856.530091920686,5340226431,False
高栄,北海道,北見市,高栄西町八丁目,43.814378,143.85777,47893.47658152,6543567841,False
南陽台,群馬県,高崎市,吉井町南陽台二丁目,36.27555088499068,139.00294665165902,48088.42794225878,5439303011,False
戸山団地,青森県,青森市,大字駒込字蛍沢,40.79831105480084,140.8047353671195,48404.005986408025,6140165434,False
緑ヶ丘団地,長崎県,長与町,三根郷緑ヶ丘,32.8251423,129.890361,48441.29734846822,4929179111,False
一ヶ岡,宮崎県,延岡市,南一ケ岡二丁目,32.5223148,131.677308,48478.20182732323,4831652431,False
湖南（住宅）,滋賀県,湖南市,中央一丁目,35.004128,136.084728,48686.17995948472,5236400624,False
赤石,愛知県,田原市,東赤石,34.663164,137.269835,48718.4934724681,5137729141,False
山王,千葉県,富津市,上飯野,35.319572,139.856,48728.72884675337,5239768814,False
芳賀,山形県,天童市,芳賀タウン南三丁目,38.343272,140.362186,48855.870943483154,5740421822,False
錦岡鉄北第一,北海道,苫小牧市,青雲町一丁目,42.611791,141.496267,48886.81504734729,6341733923,False
舟岡,北海道,伊達市,舟岡町,42.458721,140.879442,49085.75362005394,6340575012,False
光風台団地,長崎県,長崎市,鳴見台二丁目,32.8214209,129.805791,49087.26601210914,4929168432,False
妙円寺団地,鹿児島県,日置市,伊集院町妙円寺一丁目,31.6446147,130.394549,49190.70106778366,4730337123,False
東部ニュータウン,福島県,郡山市,緑ケ丘東六丁目,37.3841274,140.435711,49291.603719188315,5640036422,False
北前,沖縄県,北谷町,北谷二丁目,26.3029243,127.759753,49345.98118548338,3927366024,False
百合が丘ニュータウン,茨城県,水戸市,百合が丘町,36.3454538,140.506878,49558.79921758739,5440441023,False
中水尾川,徳島県,鳴門市,撫養町大桑島,34.186814,134.601338,49587.19158352593,5134242813,False
稲葉団地,岐阜県,大垣市,稲葉北一丁目,35.3759482,136.553139,49598.17951220896,5336045412,False
みどり台ニュータウン,北海道,千歳市,みどり台北一丁目,42.860505,141.618184,49672.98810321763,6441243914,False
山陽団地,岡山県,赤磐市,山陽四丁目,34.7487722,134.005179,49785.72886484624,5234009034,False
杜の街,三重県,津市,河芸町杜の街,34.806686,136.530698,49790.386892874485,,False
八戸ニュータウン,青森県,八戸市,東白山台三丁目,40.48289546847799,141.46257979110064,49831.48352749616,6041537733,False
レイクサイドヒル,千葉県,東金市,日吉台五丁目,35.571532,140.347413,50044.700749298776,5340228742,False
佐野見晴台,静岡県,三島市,佐野見晴台一丁目,35.1640744,138.946152,50129.033978256644,5238579541,False
三島ビューティータウン,静岡県,三島市,佐野見晴台一丁目,35.16381,138.944453,50129.033978256644,5238579541,False
コモアしおつ,山梨県,上野原市,コモアしおつ三丁目,35.6185469,139.074634,50194.84051096639,5339304522,False
高間木伊勢崎台地,栃木県,真岡市,高勢町二丁目,36.432229,139.977572,50338.53583905662,5439571833,False
天童南部,山形県,天童市,南町二丁目,38.3445943,140.370652,50342.770478163045,5740421923,False
横尾,大分県,大分市,横尾東町二丁目,33.2080419,131.675425,50421.20244297915,4931654433,False
氏家駅西部,栃木県,さくら市,卯の里一丁目,36.6824431,139.959375,50465.514107537245,5539071643,False
小川パークヒル,埼玉県,小川町,東小川四丁目,36.0578884,139.294272,50511.18463381235,5439026343,False
蓬莱第１,福島県,福島市,蓬莱町五丁目,37.696114,140.477285,50517.058607823776,5640433831,False
南向台ハイタウン,福島県,福島市,南向台二丁目,37.7236691,140.479935,50576.984861361925,5640436834,False
みやぎ台ニュータウン,宮城県,仙台市青葉区,みやぎ台二丁目,38.309673,140.769747,50613.69014225034,5740367121,False
北見市第３,北海道,北見市,緑町三丁目,43.806125,143.844938,50720.5957868088,6543566741,False
沼,岡山県,津山市,沼,35.0783072,134.010785,51007.034213420775,5234409024,False
瑞穂野,栃木県,宇都宮市,下桑島町,36.506773,139.916875,51024.47996360167,5439670334,False
長島,大分県,佐伯市,長島町三丁目,32.9599223,131.908084,51054.691168123914,4931375221,False
小羽山ニュータウン,山口県,宇部市,北小羽山町二丁目,33.978741,131.258941,51097.81530311322,5031727023,False
豊里ネオポリス,三重県,津市,高野尾町,34.806333,136.468685,51105.691606351145,5236136734,False
祝吉郡元,宮崎県,都城市,郡元三丁目,31.7439708,131.085744,51128.60193912588,4731409624,False
長田,栃木県,真岡市,長田五丁目,36.4372695,139.959908,51273.154867186706,5439572624,False
東名掛川ＩＣ周辺,静岡県,掛川市,杉谷南一丁目,34.7628626,138.028905,51334.01211359791,5238101232,False
ライフタウン名取・相互台、ライフタウン名取・桜坂,宮城県,名取市,相互台一丁目,38.208292,140.811596,51349.258741736885,5740264444,False
児玉南,埼玉県,本庄市,児玉町児玉南二丁目,36.183472,139.133348,51422.288333379896,5439212021,False
駒場,北海道,恵庭市,駒場町三丁目,42.869737,141.580982,51442.20382879042,6441244614,False
新大平下駅東部,栃木県,栃木市,大平町蔵井,36.347498,139.711377,51795.26914636962,5439451642,False
湘南アミ,茨城県,阿見町,南平台三丁目,36.025527,140.251828,51824.37277921814,5440023011,False
並木山王,栃木県,上三川町,しらさぎ一丁目,36.436683,139.912004,51911.660910271974,5439572224,False
菊陽第二,熊本県,菊陽町,大字津久礼,32.8631302,130.810926,51927.006182969264,4930263442,False
学園木花台,宮崎県,宮崎市,学園木花台南二丁目,31.829149,131.423907,51935.1902696217,4731539324,False
中央,山形県,東根市,中央四丁目,38.433802,140.390939,52006.89737066795,5740532112,False
紀見ケ丘,和歌山県,橋本市,紀見ケ丘二丁目,34.3656801,135.610325,52118.147372325155,5135443844,False
長谷,静岡県,掛川市,長谷一丁目,34.7669758,137.994451,52208.630585335755,5237172921,False
玉川,福島県,いわき市,小名浜玉川町,36.9845387,140.884004,52333.22285731162,5540378021,False
中部台地,岐阜県,美濃加茂市,中部台三丁目,35.4624504,137.020272,52340.0472870352,5337105123,False
境,神奈川県,中井町,境境原,35.3464649,139.22362,52545.080556841414,,False
花巻駅西第五,岩手県,花巻市,星が丘一丁目,39.4036691,141.106017,52785.99480682788,5941008814,False
育ヶ丘団地,兵庫県,小野市,育ケ丘町,34.8216489,134.955212,52810.16198215765,5234178632,False
幸畑,青森県,青森市,幸畑五丁目,40.78092339056609,140.78361504798215,52869.739653453995,6140163241,False
嘉島西部,熊本県,嘉島町,大字鯰滝河原,32.7453827,130.740588,52887.171457068514,4930059913,False
宿西,茨城県,つくば市,筑穂二丁目,36.1339359,140.080404,52935.65747440879,5440106612,False
桑江伊平,沖縄県,北谷町,字桑江,26.3202794,127.759761,52974.037218804304,3927368024,False
吉水駅前第一地区,栃木県,佐野市,吉水町,36.345308,139.577694,53096.69150235468,5439441613,False
古田刈,福井県,敦賀市,古田刈,35.629535,136.066339,53156.33567186477,5336305532,False
花ひらくガーデンシティ美咲野,熊本県,大津町,美咲野三丁目,32.8865698,130.884668,53177.858279063315,4930276024,False
太陽ヶ丘,石川県,金沢市,太陽が丘三丁目,36.5319607,136.706521,53492.379946347944,5436653643,False
今古賀,福岡県,遠賀町,大字今古賀,33.84857,130.666173,53618.54148581254,5030651334,False
瀬戸塩草,愛知県,瀬戸市,塩草町,35.2097658,137.115236,53624.03361057263,5237605911,False
筑波研究学園都市,茨城県,つくば市,観音台一丁目,36.025154,140.096795,53729.93066980205,5440003721,False
下館ニュータウン,茨城県,筑西市,幸町二丁目,36.2847639,139.94331,53984.89886857453,5439374512,False
下館ニュータウン,茨城県,筑西市,幸町二丁目,36.2847639,139.94331,53984.89886857453,5439374512,False
喜々津シーサイドタウン,長崎県,諫早市,多良見町シーサイドシーサイド一,32.8388325,129.989724,54046.76410461097,4929270931,False
朝倉台,奈良県,桜井市,朝倉台西五丁目,34.515486,135.874547,54150.19987965608,5135661944,False
東岡山レイクタウン,岡山県,岡山市東区,城東台東一丁目,34.6943553,134.026073,54160.9143609435,5234003213,False
ポートウエストみなと坂,長崎県,長崎市,みなと坂二丁目,32.7326766,129.836285,54310.406237269235,4929067644,False
ニュータウン御野場,秋田県,秋田市,御野場新町四丁目,39.67076111111112,140.12263305555555,54382.744142698044,5940400924,False
太陽の街,三重県,鈴鹿市,郡山町,34.8132981,136.538579,54494.55084917791,5236147331,False
南大和田園都市岡,奈良県,五條市,田園四丁目,34.368378,135.685952,54580.65329482015,5135454422,False
利府しらかし台,宮城県,利府町,しらかし台一丁目,38.347917,140.964503,54761.34328270181,5740471733,False
シーアイタウン利府青山,宮城県,利府町,青山二丁目,38.343693,140.968494,54774.915370822084,5740471712,False
ビックヒルズ飯能大河原,埼玉県,飯能市,茜台二丁目,35.8512961,139.291326,54909.27317933814,,False
七ヶ浜NT汐見台,宮城県,七ヶ浜町,汐見台二丁目,38.299047,141.054282,54930.53197912188,5741305434,False
別所,兵庫県,姫路市,別所町別所二丁目,34.807285,134.750941,54947.608665030144,5234166033,False
かずさアクアシティ,千葉県,木更津市,金田東三丁目,35.433896,139.932507,55022.388730432576,5339172421,False
平原,広島県,尾道市,平原二丁目,34.411442,133.177035,55066.60128880116,5133419413,False
ながた野,千葉県,大網白里市,ながた野一丁目,35.505297,140.312423,55070.23678965363,5340220442,False
富士見ヶ丘団地,大分県,大分市,富士見が丘東五丁目,33.1813833,131.544417,55138.02922023487,4931641343,False
焼山第３団地,広島県,呉市,焼山東二丁目,34.2949004,132.567088,55229.66847114529,5132345514,False
松園ニュータウン,岩手県,盛岡市,東松園二丁目,39.757055,141.164231,55233.81679843635,5941510333,False
東山形,山形県,山形市,東山形一丁目,38.240885,140.371778,55526.09360846954,5740228943,False
南部第二,静岡県,菊川市,加茂白岩下,34.7464535,138.084217,55602.19738525591,5238009641,False
北袖ヶ浦住宅団地（けやき台）,千葉県,袖ケ浦市,代宿,35.45956,140.0222,55612.20065075993,5340105122,False
つくばエクスプレスタウン,茨城県,つくば市,柴崎,36.1090002,140.121513,55616.13006477775,5440103921,False
東鯖江,福井県,鯖江市,柳町三丁目,35.9457092,136.193747,55720.56817139366,5336713514,False
城北第二,岡山県,津山市,上河原,35.0840932,134.001545,55778.20393164972,5234500011,False
平北部,福島県,いわき市,平字梅香町,37.063533,140.895707,55797.88174622421,5540477141,False
ﾊﾟｰｸﾌﾟﾚｲｽ大分公園通り,大分県,大分市,公園通り三丁目,33.1889583,131.658627,55834.33793177862,4931652241,False
北広島,北海道,北広島市,松葉町四丁目,42.970523,141.551392,55912.873579938125,6441346413,False
北部第一,福井県,鯖江市,丸山町四丁目,35.9823405,136.180079,55914.59083102854,5336717434,False
高知南ニュータウン,高知県,高知市,春野町南ヶ丘六丁目,33.5180597,133.519029,55960.43615804679,5033242121,False
東広島ニュータウン,広島県,東広島市,高屋高美が丘五丁目,34.4619587,132.791167,55985.20451312483,5132565314,False
札内北,北海道,幕別町,札内新北町,42.9184276,143.247222,56041.777280142276,6443310922,False
亀崎,宮崎県,日向市,日知屋枝郷亀崎三丁目,32.4343312,131.631828,56117.102612321054,4831552021,False
湯野,広島県,福山市,神辺町大字新湯野,34.5576038,133.389354,56135.73714647347,5133636133,False
長与ニュータウン,長崎県,長与町,三根郷ニュータウン東,32.8162036,129.8913,56177.42748237175,4929177134,False
清里住宅団地,静岡県,藤枝市,清里二丁目,34.8969225,138.26238,56187.60332615834,5238227042,False
高江,大分県,大分市,高江中央二丁目,33.1647013,131.616468,56203.82562907595,4931549934,False
緑が丘,三重県,名張市,緑が丘中,34.641965,136.102238,56270.601970069925,5136707811,False
北真岡,栃木県,真岡市,荒町二丁目,36.447612,140.014949,56319.17734181072,5440503131,False
原町東部第三,宮城県,仙台市若林区,六丁の目北町,38.253954,140.951916,56440.41430692124,5740370613,False
百合ヶ丘,三重県,名張市,百合が丘東三番町,34.606239,136.101336,56524.23076209628,5136702831,False
和地,静岡県,浜松市西区,桜台三丁目,34.7710587,137.670714,56587.509205819624,5237152341,False
城山台,和歌山県,橋本市,城山台三丁目,34.3494876,135.612729,56595.28040894329,5135441933,False
もみじが丘,長崎県,佐世保市,もみじが丘町,33.1600348,129.77837,56784.82011370056,4929569212,False
瀬野川,広島県,広島市安芸区,瀬野西四丁目,34.4291222,132.591783,56838.94750944854,5132541714,False
高附住宅地区,広島県,広島市安佐南区,伴北,34.4842757,132.406432,56860.496347194836,5132538221,False
松原,長野県,松本市,大字松原,36.1772323,137.989209,56862.75730834868,5437271913,False
穂波の郷,宮城県,大崎市,古川穂波六丁目,38.56518,140.942699,56899.582209409935,5740677534,False
南宝来,北海道,音更町,ひびき野仲町二丁目,42.941608,143.21816,56973.649045653125,6443312734,False
徳田,広島県,福山市,神辺町字徳田,34.551776,133.369768,57029.31285004472,5133626921,False
広島中央,北海道,北広島市,共栄町四丁目,42.992563,141.560276,57057.65982568866,6441349422,False
瑞樹団地,石川県,金沢市,みずき三丁目,36.6231886,136.669507,57064.17558813505,5436754343,False
大在,大分県,大分市,大在浜二丁目,33.2423249,131.734733,57109.69928093144,4931659822,False
雄琴駅周辺,滋賀県,大津市,雄琴二丁目,35.0965994,135.893619,57137.39785022728,5235571132,False
杜せきのした・美田園,宮城県,名取市,美田園八丁目,38.160611,140.90704,57288.8035359933,5740179223,False
東海駅西,茨城県,東海村,大山台一丁目,36.4692345,140.559324,57452.00393944536,5440546423,False
のぞみ野,千葉県,袖ケ浦市,のぞみ野,35.41979,140.025628,57470.16234622075,5340100213,False
駅南,京都府,福知山市,惇明西岡町,35.2922894,135.117551,57517.13959449597,5235705912,False
北大阪ネオポリス,大阪府,豊能町,希望ケ丘三丁目,34.9151376,135.51112,57597.89172140779,5235249044,False
茂庭団地,宮城県,仙台市太白区,茂庭台二丁目,38.234826,140.784559,57675.13872971011,5740268222,False
南部,北海道,帯広市,南の森西一丁目,42.882725,143.176611,57681.40501601645,6443215433,False
南部第六,福井県,福井市,下馬二丁目,36.040129,136.236003,57807.08624690735,5436014844,False
江別太,北海道,江別市,朝日町,43.106717,141.575661,57824.16421042978,6441542633,False
中央西,三重県,名張市,希央台四番町,34.624574,136.102066,57849.25131798964,5136704833,False
竜角寺台,千葉県,栄町,竜角寺台四丁目,35.827946,140.280706,57932.61692413636,5340529214,False
坂ノ市,大分県,大分市,坂ノ市中央四丁目,33.2326058,131.751568,58120.14455412251,4931667033,False
三石台,和歌山県,橋本市,三石台一丁目,34.355233,135.600596,58124.60188450394,5135442831,False
山寺,福島県,須賀川市,山寺町,37.30386,140.362787,58127.67725323054,5540726913,False
花高,長崎県,佐世保市,花高三丁目,33.1418827,129.811308,58152.952496960614,4929567422,False
岡山ネオポリス,岡山県,赤磐市,桜が丘東二丁目,34.780571,134.046636,58563.71651630078,5234103341,False
ゆめぽりす伊賀,三重県,伊賀市,ゆめが丘二丁目,34.7347365,136.161351,58698.720030497905,5236018222,False
泉地区第一,福島県,いわき市,泉玉露二丁目,36.953253,140.855026,58720.23046592259,5540364814,False
つつじが丘,兵庫県,三田市,つつじが丘北四丁目,34.9464572,135.130172,58785.79310686251,5235313032,False
宗像ネオポリス,福岡県,宗像市,城西ケ丘三丁目,33.8148885,130.552893,58815.80548165256,5030547433,False
宮内西部,新潟県,長岡市,西宮内一丁目,37.425389,138.831984,58938.74686626028,5638161621,False
あさひが丘コープタウン,広島県,広島市安佐北区,あさひが丘三丁目,34.505849,132.435679,59011.17032715927,5132630442,False
名鉄東ヶ丘,愛知県,阿久比町,大字阿久比,34.932608,136.915547,59019.925104780596,5236371333,False
上野町北部,岩手県,北上市,上野町四丁目,39.302325,141.126631,59485.143139074455,5841716013,False
筑波研究学園都市,茨城県,つくば市,中内,36.04922,140.11199,59673.79547716785,5440005844,False
鳥取,北海道,釧路市,鳥取大通五丁目,43.014775,144.346061,59830.4658697862,6444421743,False
いちはら緑園都市,千葉県,市原市,泉台三丁目,35.453847,140.071548,59941.462039628364,5340104523,False
岩出紀泉台,和歌山県,岩出市,大字西安上,34.2826289,135.291087,59998.2406972985,5135323334,False
中城湾港西原与那原地区,沖縄県,西原町,字東崎,26.2113425,127.767192,60027.41833129635,3927265114,False
宝泉南部,群馬県,太田市,泉町,36.268770310238,139.3151640839098,60034.16007990143,5439322513,False
光陽台,福岡県,福津市,光陽台四丁目,33.771175,130.500047,60104.33862881833,5030542031,False
豊橋富士見台,愛知県,豊橋市,富士見台四丁目,34.677829,137.369306,60104.849627268064,5237021923,False
上鷲別東部,北海道,登別市,若草町四丁目,42.3713497,141.058071,60112.07883742127,6341404441,False
采女地区,三重県,四日市市,釆女が丘二丁目,34.9150976,136.581899,60145.62538898727,5236249643,False
諫早西部団地,長崎県,諫早市,堀の内町,32.854346,130.023889,60233.471260743005,4930202142,False
森田北東部,福井県,福井市,栗森一丁目,36.116436,136.242335,60240.36689631221,5436113934,False
木田余,茨城県,土浦市,木田余東台三丁目,36.1044877,140.218005,60299.03359167033,5440112732,False
新西帯広地区,北海道,帯広市,西二三条南五丁目,42.913786,143.121922,60300.10016167068,6443209942,False
Ｓｕｎビレッジカムイ,北海道,旭川市,神居三条二十丁目,43.7465506,142.342508,60370.076240841256,6542429732,False
生目台団地,宮崎県,宮崎市,生目台東四丁目,31.9039309,131.376805,60496.579652668246,4731638013,False
宮崎学園都市住宅,宮崎県,宮崎市,学園木花台南三丁目,31.8294268,131.424323,60497.14876312982,4731539342,False
千葉東角栄団地,千葉県,千葉市緑区,越智町,35.534776,140.239298,60568.280321748294,5340214911,False
ゆうまいニュータウン,北海道,千歳市,勇舞六丁目,42.854233,141.632899,60585.35607697615,6441252041,False
緑の街,三重県,津市,河辺町,34.744152,136.485254,60705.71710962125,5236039824,False
小江原ニュータウン,長崎県,長崎市,小江原四丁目,32.781863,129.830512,60790.19859648661,4929163634,False
豊崎タウン,沖縄県,豊見城市,豊崎,26.1572193,127.657908,60867.35261766459,3927158243,False
田向,青森県,八戸市,田向三丁目,40.492673943138364,141.51084710754088,60876.913112524824,6041549022,False
潤井戸,千葉県,市原市,うるいど南三丁目,35.506219,140.170985,60930.85639040785,5340210343,False
西都,静岡県,浜松市西区,志都呂二丁目,34.6984068,137.656152,60997.30963457868,5237053234,False
祝梅,北海道,千歳市,弥生二丁目,42.8329606,141.68012,61341.80439163097,6441159434,False
明王台,広島県,福山市,明王台三丁目,34.4760336,133.339915,61447.981362408515,5133527711,False
筑波研究学園都市,茨城県,つくば市,高野台三丁目,36.023523,140.12362,61457.98896795285,5440002944,False
瑞浪中央,岐阜県,瑞浪市,北小田町三丁目,35.358567,137.242722,61516.56400362428,5337013912,False
東長崎矢上,長崎県,長崎市,矢上町,32.7755841,129.951555,61572.11530752938,4929173611,False
妻沼東,埼玉県,熊谷市,妻沼東四丁目,36.2201421,139.385968,61760.213492040835,5439236024,False
松島,福井県,敦賀市,中央町二丁目,35.645196,136.055717,61779.03334688079,5336307414,False
海上,島根県,出雲市,塩冶有原町二丁目,35.361336,132.744593,61797.39331527557,5332053923,False
新発田駅東,新潟県,新発田市,豊町二丁目,37.941964,139.338213,61802.34908868079,5639723711,False
みどりが丘,埼玉県,小川町,みどりが丘四丁目,36.070886,139.260289,61849.327458768574,5439028042,False
沼ノ端鉄南第一,北海道,苫小牧市,東開町四丁目,42.667354,141.691948,61858.78705305543,6441050512,False
桔梗が丘,三重県,名張市,桔梗が丘六番町,34.6449896,136.123618,61891.44126453235,5136707924,False
日和田,福島県,郡山市,日和田町字千峯坦,37.441439,140.385035,61930.34956452472,5640132044,False
松浜地区,新潟県,新潟市北区,松浜二丁目,37.953639,139.142958,61945.259281446975,5639714114,False
犬伏第一,栃木県,佐野市,富岡町,36.316266,139.597392,62012.167080382445,5439347744,False
春光台,北海道,旭川市,春光台三条三丁目,43.817854,142.354403,62030.66577208404,6542528812,False
城東第四,青森県,弘前市,大字田園一丁目,40.60421956145175,140.5042272209513,62039.93531434976,6040742032,False
松が丘,岐阜県,各務原市,松が丘二丁目,35.408867,136.92387,62105.75274918584,5336079322,False
扇町,福島県,会津若松市,扇町,37.513556,139.93672,62255.56273438186,5639271442,False
彩りのまち　響きの,福岡県,北九州市若松区,ひびきの北,33.892111,130.711747,62258.15344026284,5030657622,False
つつじが丘,三重県,名張市,つつじが丘北五番町,34.6064878,136.133408,62462.759068302454,5136712043,False
神辺町川南,広島県,福山市,神辺町大字川南,34.5370755,133.373441,62476.635914681276,5133624924,False
泉ビレッジ,宮城県,仙台市泉区,館四丁目,38.322703,140.799254,62580.86291853411,5740368342,False
梅が丘,三重県,名張市,梅が丘北二番町,34.6381768,136.089126,62615.10356143765,5136706731,False
青木,千葉県,富津市,青木三丁目,35.327066,139.846714,62636.767920698134,5239769721,False
緑ヶ岡北部,北海道,釧路市,貝塚一丁目,42.99239,144.408245,62662.80126349096,6444339221,False
岡三沢第一,青森県,三沢市,美野原一丁目,40.68310415822013,141.37681984177985,62807.91511150889,6141031033,False
美穂ヶ丘,兵庫県,神戸市西区,美穂が丘二丁目,34.75889,135.044696,62937.708155014865,5235101321,False
岡山ネオポリス,岡山県,赤磐市,桜が丘西六丁目,34.7786073,134.035779,62940.64970626726,5234103224,False
豊郷台,栃木県,宇都宮市,豊郷台三丁目,36.6045875,139.885961,62952.54981751706,5439772042,False
長岡ニュータウン,栃木県,宇都宮市,豊郷台三丁目,36.6045875,139.885961,62952.54981751706,5439772042,False
木下,千葉県,印西市,木下東二丁目,35.840638,140.165484,63001.24756102566,5340610333,False
みやこ野,千葉県,大網白里市,みやこ野二丁目,35.518648,140.317233,63047.95030249578,5340222512,False
辺見,茨城県,古河市,下辺見,36.1732484,139.73341,63195.6687437727,5439250843,False
三国が丘,福岡県,小郡市,三国が丘四丁目,33.438067,130.566391,63237.848581377584,5030142532,False
台原団地,茨城県,日立市,台原町一丁目,36.532916,140.610105,63259.22083371434,5440643844,False
ふじと台,和歌山県,和歌山市,中,34.2713905,135.153053,63272.3005465959,5135312231,False
泉第三,福島県,いわき市,泉玉露一丁目,36.954419,140.862143,63283.54504784551,5540364842,False
阪南スカイタウン,大阪府,阪南市,桃の木台四丁目,34.3275452,135.220235,63441.6419883486,5135319723,False
蔵上,佐賀県,鳥栖市,蔵上三丁目,33.375158,130.492508,63446.34161294234,5030035912,False
スカイタウン高舘,宮城県,名取市,那智が丘二丁目,38.195258,140.841079,63483.60388916701,5740263714,False
フローラルヒルズ住吉台,宮城県,仙台市泉区,住吉台西四丁目,38.329807,140.78413,63524.45346309519,5740369241,False
安芸,広島県,広島市安芸区,船越町,34.384742,132.527733,63580.18604329299,,False
春日山ハートタウン,新潟県,上越市,春日野一丁目,37.148978,138.228221,63581.3212679834,5538517834,False
ダイヤランド,長崎県,長崎市,ダイヤランド二丁目,32.702468,129.858095,63581.90646015954,4929064823,False
桜台,和歌山県,岩出市,大字桜台,34.2807489,135.316115,63674.12988179052,5135323532,False
水呑三新田,広島県,福山市,水呑町,34.446839,133.385139,63683.811375389225,5133533042,False
金沢団地,茨城県,日立市,金沢町五丁目,36.5393656,140.609585,63779.32348897349,5440644842,False
筑波研究学園都市,茨城県,つくば市,花畑一丁目,36.129834,140.088902,63807.93799927412,5440105731,False
嶋,山形県,山形市,嶋北二丁目,38.284665,140.321242,63812.495450635004,5740324521,False
泉ビレッジ,宮城県,仙台市泉区,館六丁目,38.318377,140.801143,63848.364102758766,5740368411,False
東部,千葉県,茂原市,東部台三丁目,35.422061,140.322463,63849.9769962245,5340120542,False
桜花台,三重県,四日市市,桜花台二丁目,34.9881691,136.527295,63966.46947651381,5236348231,False
宇茂佐第二,沖縄県,名護市,宇茂佐の森四丁目,26.6011529,127.961251,63982.61789498804,3927772622,False
愛の杜・愛の郷,宮城県,名取市,愛の杜二丁目,38.157844,140.859661,64132.56478514296,5740168844,False
駅東,岐阜県,羽島市,舟橋町,35.3138555,136.689593,64135.37586093366,5236757531,False
ふじえだ駿河台,静岡県,藤枝市,駿河台三丁目,34.862962,138.232366,64160.43905318891,5238213841,False
恵庭ニュータウン恵み野,北海道,恵庭市,恵み野北三丁目,42.906777,141.587205,64303.52021642844,6441248644,False
泉ビレッジ,宮城県,仙台市泉区,館二丁目,38.312535,140.795585,64344.361142593705,5740367341,False
川原第三,群馬県,前橋市,川原町二丁目,36.42755389066603,139.04037702002861,64351.74073414809,5439501313,False
菅谷,宮城県,利府町,菅谷台三丁目,38.32979,140.953989,64396.272455014834,5740379632,False
亀ケ崎,山形県,酒田市,みずほ二丁目,38.902756,139.850421,64479.51002491686,5839268813,False
太閤山,富山県,射水市,太閤山一丁目,36.7093522,137.096031,64504.74408855788,5537005721,False
滝呂,岐阜県,多治見市,滝呂町十七丁目,35.3167406,137.153739,64525.74108524837,5237718212,False
昭和中央,北海道,釧路市,昭和中央四丁目,43.025953,144.36121,64584.85264221103,6444423822,False
長峰,滋賀県,東近江市,宮川町,35.0371525,136.161516,64655.64251588415,5236414224,False
東部第２,茨城県,ひたちなか市,大字馬渡,36.4032952,140.564036,64736.164937137444,5440448513,False
東海駅東,茨城県,東海村,舟石川駅東四丁目,36.4641218,140.567435,64762.4397633906,5440545532,False
錦ヶ丘ニュ－タウン,宮城県,仙台市青葉区,錦ケ丘二丁目,38.255184,140.764475,64777.839820398316,5740360131,False
五郎台,茨城県,神栖市,深芝南二丁目,35.9084725,140.645653,64796.161119899625,5340659121,False
リバーサイド,山梨県,中央市,山之神,35.6137069,138.512816,64822.21128726491,,False
舞ヶ丘,福岡県,北九州市小倉南区,舞ケ丘四丁目,33.8257285,130.904539,64843.16583711649,5030579212,False
桔梗が丘,三重県,名張市,桔梗が丘西三番町,34.645195,136.1111,64847.484417653475,5136707824,False
菊川,栃木県,佐野市,堀米町,36.3300757,139.569802,64866.283340178365,5439349541,False
出北,宮崎県,延岡市,出北一丁目,32.5753469,131.68085,64973.44598798781,4831659412,False
千代野ニュータウン,石川県,白山市,千代野西四丁目,36.524019,136.53976,65025.23708312781,5436642333,False
千代野ニュータウン,石川県,白山市,千代野西四丁目,36.524019,136.53976,65025.23708312781,5436642333,False
千代野ニュータウン,石川県,白山市,千代野西四丁目,36.524019,136.53976,65025.23708312781,5436642333,False
千代野ニュータウン,石川県,白山市,千代野西四丁目,36.524019,136.53976,65025.23708312781,5436642333,False
泉玉露,福島県,いわき市,泉玉露五丁目,36.958431,140.851636,65083.9582425909,5540365811,False
伊覇,沖縄県,八重瀬町,字上田原,26.158818,127.718627,65109.97682580616,3927159712,False
大藪町,滋賀県,彦根市,旭町,35.274465,136.259624,65135.349743119164,5236722044,False
日夏町,滋賀県,彦根市,旭町,35.274465,136.259624,65135.349743119164,5236722044,False
原町,滋賀県,彦根市,旭町,35.274465,136.259624,65135.349743119164,5236722044,False
中川駅周辺地区,三重県,松阪市,嬉野中川新町四丁目,34.6331048,136.479388,65189.6098524846,5136735834,False
久留米東部,福岡県,久留米市,東合川五丁目,33.319914,130.555859,65316.21399424819,4930748414,False
泉パークタウン,宮城県,仙台市泉区,寺岡六丁目,38.340057,140.831637,65383.41685082932,5740460643,False
東金駅東口,千葉県,東金市,東上宿,35.5565293,140.364586,65396.759437941735,5340226933,False
桜ヶ丘ハイツ,岐阜県,可児市,桜ケ丘六丁目,35.3778735,137.113753,65415.629941598476,5337005913,False
垢田,山口県,下関市,新垢田西町一丁目,33.987637,130.914459,65498.63224005074,5030778331,False
天童駅西,山形県,天童市,田鶴町四丁目,38.3582521,140.365902,65612.10479755267,5740422934,False
駒羽根,茨城県,古河市,駒羽根,36.1606696,139.761083,65676.90963524797,5439169024,False
（仮称）NISステラヒルズ川西,兵庫県,川西市,長尾町,34.875405,135.427909,65677.72301883205,,False
早尾台,茨城県,利根町,大字早尾,35.8773972,140.146924,65739.15266545744,5340615124,False
イトーピア藤の木,広島県,広島市佐伯区,藤の木三丁目,34.421567,132.363582,65739.29851631397,5132520931,False
西部第三,群馬県,伊勢崎市,宮子町,36.331465311267976,139.15664358525444,65839.59263119331,5439319243,False
花畔市街,北海道,石狩市,花川北七条二丁目,43.169348,141.320354,65987.75488206012,6441620523,False
神戸リサーチパーク 赤松台・上津台,兵庫県,神戸市北区,上津台八丁目,34.8624714,135.194847,66105.6688263264,5235213523,False
びわ湖ロ－ズタウン,滋賀県,大津市,花園町,35.1400265,135.912996,66116.46805829697,5235576333,False
田園都市 島名,茨城県,つくば市,諏訪Ｃ,36.0584737,140.059706,66173.11896681273,5440007422,False
新宇多津都市,香川県,宇多津町,浜四番丁,34.3103079,133.813915,66184.46115875576,5133367511,False
みどりが丘,千葉県,大網白里市,みどりが丘三丁目,35.541869,140.31635,66213.80209446349,5340225512,False
桜台,千葉県,市原市,桜台三丁目,35.441477,140.04799,66228.71927797943,5340102344,False
西帯広,北海道,帯広市,西二二条南四丁目,42.912246,143.13647,66314.31601291207,6443219024,False
宝来,北海道,音更町,宝来仲町南二丁目,42.944863,143.218524,66346.23797661957,6443313714,False
宗像森林都市,福岡県,宗像市,自由ケ丘四丁目,33.7919329,130.575531,66348.20230216722,5030545611,False
西真岡,栃木県,真岡市,上高間木二丁目,36.4400025,139.987288,66378.22183698877,5439572844,False
塩屋,兵庫県,赤穂市,加里屋上町,34.754945,134.390307,66401.58446294781,5234130131,False
光風台,千葉県,市原市,光風台三丁目,35.447677,140.106282,66465.87541870777,5340103841,False
五霞原宿台,茨城県,五霞町,原宿台三丁目,36.0969218,139.738323,66539.05576802375,5439151931,False
青柳海岸,千葉県,市原市,青柳二丁目,35.501909,140.054199,66574.08389554222,5340200412,False
泉ヶ丘ハイタウン,福島県,いわき市,泉ケ丘一丁目,36.965821,140.857855,66729.3168206202,5540365843,False
内ノ目,宮城県,利府町,皆の丘,38.339115,140.972614,66752.15263447235,5740470742,False
ポートアイランド,兵庫県,神戸市中央区,港島南町一丁目,34.6644942,135.218557,66836.5754313975,5135719732,False
さくら坂,大阪府,河南町,さくら坂三丁目,34.4775957,135.646179,66838.45776043144,5135557123,False
さくら坂,大阪府,河南町,さくら坂三丁目,34.4775957,135.646179,66838.45776043144,5135557123,False
大塚業務・伴南住宅地区,広島県,広島市安佐南区,大塚西六丁目,34.4475712,132.390991,67032.4137772884,5132533132,False
つくばテクノパーク桜,茨城県,つくば市,桜一丁目,36.1122094,140.113136,67197.39504027608,5440103913,False
昭和,北海道,釧路市,昭和南四丁目,43.023082,144.35414,67203.57414187751,6444422834,False
イトーピア名取,宮城県,名取市,ゆりが丘五丁目,38.203588,140.83035,67273.03336860861,5740264614,False
泉パークタウン,宮城県,仙台市泉区,紫山二丁目,38.34795,140.825887,67300.31653488576,5740461633,False
野中,埼玉県,加須市,琴寄,36.130977,139.67979,67344.83194477696,5439155432,False
泉台,千葉県,八街市,泉台二丁目,35.681427,140.295593,67346.42021001576,5340421343,False
グリーンタウン小山南,栃木県,小山市,美しが丘一丁目,36.267321,139.771879,67479.58756680123,5439362122,False
大洞緑,岐阜県,岐阜市,大洞桐が丘三丁目,35.4605423,136.868087,67482.67677077626,5336165914,False
吉岡南,宮城県,大和町,吉岡南二丁目,38.442783,140.879703,67588.21277904634,5740573012,False
小森野,福岡県,久留米市,小森野二丁目,33.3384926,130.51224,67630.05673830466,5030040042,False
葉鹿熊野,栃木県,足利市,葉鹿町二丁目,36.3651503,139.389156,67883.50175926182,5439433133,False
北部（第１、第２）,島根県,出雲市,大津朝倉二丁目,35.374599,132.7613,67926.02903223605,5332064044,False
Pal Town城西の社,群馬県,太田市,城西町,36.31074694612733,139.33683481279567,67944.34763626088,5439327624,False
宮川,青森県,弘前市,大字宮川二丁目,40.6130793754193,140.4851246561452,67962.65435594504,6040733842,False
黒沢尻西部,岩手県,北上市,さくら通り一丁目,39.29658,141.1149,67984.14809232313,5841705931,False
下古山,栃木県,下野市,文教,36.4443333,139.861861,68091.94591506898,5439563824,False
布佐平和台,千葉県,我孫子市,布佐平和台四丁目,35.857942,140.123475,68176.30919671521,5340602944,False
'フローラルシティ南台,茨城県,石岡市,南台二丁目,36.1819534,140.294838,68178.4895641358,5440221343,False
馬見ケ崎,山形県,山形市,馬見ヶ崎二丁目,38.281599,140.330107,68313.12358242125,5740323634,False
小金井駅東,栃木県,下野市,駅東二丁目,36.37325,139.844906,68322.03699265796,5439464743,False
労住加茂ニュータウン,京都府,木津川市,南加茂台五丁目,34.737733,135.871389,68361.29417022155,5235068941,False
南部,埼玉県,熊谷市,船木台三丁目,36.078656,139.418521,68435.55769524467,5439039314,False
下長（石堂）,青森県,八戸市,石堂一丁目,40.528921316440254,141.47539620889935,68546.61867580576,6041633813,False
桜台,三重県,四日市市,桜台二丁目,34.985211,136.533957,68580.88591738624,5236348221,False
上勢頭,沖縄県,北谷町,字上勢頭,26.3295336,127.773004,68589.86898162476,3927369142,False
宝積寺,栃木県,高根沢町,光陽台三丁目,36.6192323,139.990086,68621.35378265005,5439774913,False
緑苑台ニュータウン,北海道,石狩市,緑苑台東二条二丁目,43.162024,141.341922,68642.40468989236,6441529714,False
道場八多,兵庫県,神戸市北区,八多町中,34.8522836,135.219007,68653.50331230064,5235212723,False
緑苑,岐阜県,各務原市,緑苑西二丁目,35.4129684,136.946724,68716.49243036061,5336079541,False
黒沢尻東部,岩手県,北上市,黒沢尻二丁目,39.293923,141.128519,68937.33393322433,5841715014,False
南部第三社北,福井県,福井市,加茂緑苑町,36.055232,136.190695,68949.55696148334,5436016532,False
矢上団地,長崎県,長崎市,かき道五丁目,32.770398,129.961022,68960.33987523064,4929172624,False
第二西桑名ネオポリス,三重県,東員町,城山三丁目,35.094192,136.603811,68998.57594247602,5236541814,False
境駅北,群馬県,伊勢崎市,境美原,36.278515678354665,139.262167348341,69036.37771231576,5439323024,False
奈良渕,栃木県,佐野市,奈良渕町,36.33409,139.583917,69069.32674837326,5439440621,False
双葉台,茨城県,水戸市,双葉台二丁目,36.3940024,140.395113,69100.87839811735,5440437123,False
姉崎住宅団地（有秋台）,千葉県,市原市,有秋台東二丁目,35.450878,140.053408,69135.72141417403,5340104412,False
四季が丘,広島県,廿日市市,四季が丘七丁目,34.34786,132.293231,69145.98479138533,5132421332,False
観月坂,高知県,高知市,みづき二丁目,33.5822962,133.518874,69178.21018750637,5033249143,False
鳩山ＮＴ３,埼玉県,鳩山町,松ヶ丘三丁目,35.9929386,139.354389,69228.60790079433,5339729812,False
糸井団地,北海道,苫小牧市,日新町二丁目,42.627439,141.540746,69330.21629569562,6341745314,False
けやき台,佐賀県,基山町,けやき台三丁目,33.4354827,130.529657,69350.43479213165,5030142214,False
イトーピア彩都　室見が丘,福岡県,福岡市西区,室見が丘三丁目,33.518714,130.31755,69400.62118281904,5030222512,False
周南,山口県,周南市,周陽一丁目,34.0458689,131.829846,69422.12720194554,5131065632,False
蒲郡中部,愛知県,蒲郡市,水竹町下青山,34.8355914,137.23506,69478.07602609099,5237210824,False
名鉄多治見緑台,岐阜県,多治見市,西坂町二丁目,35.3545203,137.110737,69492.87163161357,5337002842,False
小波瀬,福岡県,苅田町,小波瀬二丁目,33.7558024,130.976916,69601.65669274084,5030570831,False
グリーンタウン小山南,栃木県,小山市,美しが丘三丁目,36.2639342,139.773584,69612.17468772459,5439361142,False
福島,福島県,福島市,松浪町,37.76488,140.478226,69713.28836151291,5640531834,False
藤ヶ丘パークタウン,北海道,札幌市南区,藤野四条六丁目,42.958386,141.294862,69827.08509922819,6441325321,False
能部赤尾,三重県,桑名市,東正和台二丁目,35.049357,136.63432,69928.30478379913,5236455043,False
上江別南,北海道,江別市,ゆめみ野南町,43.100858,141.56534,69943.61019896506,6441542511,False
松陵ニュータウン,宮城県,仙台市泉区,松森,38.312973,140.917584,69976.84806427754,,False
平東部,福島県,いわき市,平字作町三丁目,37.049526,140.905788,70065.5576754249,5540475234,False
南部第三社南,福井県,福井市,渕二丁目,36.040233,136.188927,70299.51504722465,5436014533,False
グリーンヒルパーク名取,宮城県,名取市,みどり台二丁目,38.19976,140.836809,70319.74625895915,5740263644,False
錦岡,北海道,苫小牧市,澄川町二丁目,42.622276,141.513935,70349.10148532581,6341744131,False
いずみ中山,宮城県,仙台市泉区,北中山二丁目,38.31703,140.816767,70449.65403502026,5740368512,False
福島北,福島県,福島市,笹谷字中屋敷,37.7907196,140.451799,70594.96281573898,5640534633,False
大善寺宮本,福岡県,久留米市,大善寺南一丁目,33.270807,130.476587,70625.820812263,4930732813,False
中央第二,群馬県,高崎市,棟高町,36.39210155276334,139.00442125829503,70656.72211987172,5439407012,False
つばさが丘,大阪府,熊取町,つばさが丘北二丁目,34.3840635,135.371205,70675.28113506953,5135426921,False
グリーンタウン月が丘,兵庫県,神戸市西区,月が丘五丁目,34.7611516,135.052562,70685.14225890122,5235101413,False
茂呂第二,群馬県,伊勢崎市,南千木町,36.29476418209938,139.2136829075722,70702.58291110343,5439315713,False
南羽生,埼玉県,羽生市,南羽生,36.1500511,139.558555,70892.61754350537,5439148421,False
宮園第２団地,青森県,弘前市,大字青山三丁目,40.621497891070085,140.48077064603524,70898.34442425962,6040734832,False
東部第二,宮崎県,宮崎市,稗原町,31.9103698,131.452261,70958.31588876642,4731639611,False
若木台,福岡県,福津市,若木台四丁目,33.7738074,130.517558,71161.40414401436,5030542134,False
屋島,香川県,高松市,屋島西町,34.3526661,134.08993,71183.70606605179,5134402713,False
乃木,島根県,松江市,浜乃木七丁目,35.440568,133.060355,71317.47280020705,5333102444,False
グリーンタウンしもつけ,栃木県,下野市,緑三丁目,36.3871256,139.855902,71412.58123677329,5439466814,False
安原第二,青森県,弘前市,大字泉野二丁目,40.574294,140.49352220889938,71519.24410053469,6040638934,False
犬伏新町（佐野）,栃木県,佐野市,米山南町,36.322559,139.607731,71529.64532686105,5439348841,False
一万城,宮崎県,都城市,一万城町,31.7227062,131.093815,71535.7507723706,4731406741,False
岩瀬,埼玉県,羽生市,西三丁目,36.1675482,139.528513,71590.43332328659,5439240212,False
灘南部,兵庫県,姫路市,白浜町宇佐崎中二丁目,34.7813216,134.71554,71592.07112709004,5234153733,False
小林団地,千葉県,印西市,小林浅間二丁目,35.8266373,140.192523,71621.88048080893,5340519512,False
富士中部,静岡県,富士市,青葉町,35.1613894,138.660684,71704.00514677398,5238559224,False
江陽,新潟県,長岡市,江陽一丁目,37.4767908,138.835949,71731.49823728458,5638167622,False
稲里中央,長野県,長野市,稲里町中央二丁目,36.603179,138.169083,71862.36163963997,5438712323,False
旭川駅周辺,北海道,旭川市,宮前一条一丁目,43.761145,142.363286,71913.37530123904,6542521913,False
緑が丘,北海道,旭川市,緑が丘四条二丁目,43.735116,142.377496,71947.12527185075,6542438011,False
城沼,埼玉県,羽生市,東九丁目,36.172924,139.553039,71949.91480885631,5439240433,False
二島畠田,福岡県,北九州市若松区,鴨生田四丁目,33.8998136,130.739408,71955.98944606805,5030657933,False
成田,宮城県,富谷市,成田一丁目,38.361412,140.892792,72046.04401836816,5740473114,False
八千代カルチャータウン地区,千葉県,八千代市,保品,35.759973,140.128788,72152.08167518374,,False
青山（松が丘ネオポリス）,兵庫県,三木市,志染町青山三丁目,34.7794524,135.035208,72156.35468116871,5235103242,False
茂呂第一,群馬県,伊勢崎市,北千木町,36.3018945139,139.21532288388633,72184.18761771344,5439316711,False
八山田,福島県,郡山市,八山田五丁目,37.4274374,140.378335,72213.10119807656,5640131014,False
安食台,千葉県,栄町,安食台三丁目,35.844013,140.242388,72228.07182611372,5340611914,False
糸井鉄北第一,北海道,苫小牧市,桜木町三丁目,42.630801,141.552731,72453.3905277045,6341745431,False
神楽岡,北海道,旭川市,緑が丘二条三丁目,43.733647,142.379036,72475.0512851101,6542438012,False
大矢船町,大阪府,河内長野市,大矢船中町,34.4192543,135.560222,72485.15654910076,5135540424,False
山手,北海道,苫小牧市,花園町四丁目,42.636358,141.569138,72492.72067648818,6341746523,False
野木駅周辺,栃木県,野木町,大字丸林,36.231639,139.74103,72543.32284517396,5439257934,False
多治見ホワイトタウン,岐阜県,多治見市,脇之島町四丁目,35.3170475,137.113959,72554.5247250359,5237708911,False
西茂呂,栃木県,鹿沼市,西茂呂三丁目,36.5507935,139.769677,72647.68068245173,5439666121,False
横浜ニュータウン,高知県,高知市,横浜新町四丁目,33.5172849,133.535827,72662.08335751093,5033242222,False
小浜,千葉県,木更津市,小浜,35.353181,139.911447,72882.25215375356,5339072224,False
愛国,北海道,釧路市,美原四丁目,43.022659,144.406185,72890.19689841203,6444432232,False
元野幌,北海道,江別市,野幌屯田町,43.098351,141.510932,72902.90929537223,6441541044,False
糸井鉄北第二,北海道,苫小牧市,川沿町五丁目,42.622907,141.526724,73006.13723402521,6341744231,False
郷ケ丘団地,福島県,いわき市,郷ケ丘二丁目,37.0265678,140.907464,73217.19535355698,5540473221,False
竜ヶ崎ニュータウン龍ヶ岡,茨城県,龍ケ崎市,城ノ内四丁目,35.92527,140.201769,73243.8122458379,5340711611,False
鍋島,佐賀県,佐賀市,鍋島三丁目,33.2809456,130.267124,73261.22349333123,4930723132,False
早岐東部,長崎県,佐世保市,権常寺,33.132268,129.800438,73304.86065061914,4929565433,False
有野第２住宅団地,兵庫県,神戸市北区,東有野台二丁目,34.808571,135.236331,73377.53233747008,5235117822,False
大町,山形県,酒田市,末広町,38.9093834,139.850882,73492.85841302725,5839269811,False
神立第二,茨城県,土浦市,中神立町,36.11823,140.235887,73640.51493515942,5440114822,False
シーアイタウン,千葉県,木更津市,大久保二丁目,35.342993,139.934232,73698.32763112878,5339071421,False
若松,三重県,鈴鹿市,神戸一丁目,34.88183,136.584203,73885.29040535429,5236245643,False
天願,沖縄県,うるま市,みどり町一丁目,26.3792374,127.857675,73902.92292481074,3927465841,False
千鳥パークタウン,福岡県,古賀市,舞の里四丁目,33.7442522,130.493382,73959.65541713838,5030439914,False
北部第七,福井県,福井市,灯明寺三丁目,36.0965034,136.213061,73994.26035231988,5436111731,False
大堀,千葉県,富津市,大堀二丁目,35.333228,139.855919,74003.8839582075,5239769834,False
唐櫃台,兵庫県,神戸市北区,唐櫃台三丁目,34.786686,135.213997,74092.79026343851,5235114713,False
宮園,広島県,廿日市市,宮園四丁目,34.3523055,132.302108,74161.01267360307,5132422413,False
西真岡第二,栃木県,真岡市,上高間木一丁目,36.4475371,139.990592,74186.70438420822,5439573931,False
五日市町倉重,広島県,広島市佐伯区,観音台四丁目,34.388638,132.341309,74188.27773790288,5132426732,False
北子安,千葉県,君津市,北子安,35.33563,139.918361,74207.20751532423,5339070314,False
利根フレッシュタウン,茨城県,利根町,大字布川,35.8603171,140.142123,74306.8328726053,5340613112,False
上烏田団地（八幡台ニュータウン）,千葉県,木更津市,八幡台四丁目,35.34128,139.950821,74352.648708957,5339070633,False
中島,愛知県,岡崎市,中島東町,34.88961,137.122911,74466.02739553666,5237206944,False
隈西小田,福岡県,筑紫野市,光が丘四丁目,33.4504648,130.558385,74543.37340802237,5030144421,False
鞍月,石川県,金沢市,鞍月五丁目,36.6007867,136.621998,74563.48190298234,5436742922,False
あけの平,宮城県,富谷市,あけの平二丁目,38.377949,140.877103,74610.62922889662,5740475013,False
堀越,静岡県,袋井市,堀越二丁目,34.753249,137.911842,74666.79738575622,5237170224,False
みずほ台,千葉県,大網白里市,みずほ台一丁目,35.5149,140.304339,74694.8297889122,5340221434,False
東郊,北海道,千歳市,住吉二丁目,42.8311327,141.664633,74813.84751345185,6441159331,False
五ヶ丘,愛知県,豊田市,五ケ丘三丁目,35.0636122,137.195846,74882.827369332,5237417541,False
東部第１,茨城県,ひたちなか市,大字中根,36.3917819,140.554554,74891.76134732855,5440447412,False
星ヶ丘,福岡県,北九州市八幡西区,星ヶ丘二丁目,33.7731739,130.751856,74948.0668334623,5030562033,False
平新川北第二（一）,福島県,いわき市,平字五色町,37.05367,140.901497,74967.86343612538,5540476213,False
依田原新田,静岡県,富士市,永田町,35.1623096,138.672512,74987.77561219818,5238559324,False
桜井,千葉県,木更津市,桜井新町一丁目,35.364709,139.92269,75031.82722944728,5339073344,False
青葉台,福岡県,北九州市若松区,青葉台西一丁目,33.9004869,130.687923,75099.06891456507,5030658511,False
北部第三,群馬県,前橋市,荒牧町四丁目,36.429469534438994,139.05300994865252,75233.56946563385,5439501431,False
さくら学園ニュータウン山王,千葉県,佐倉市,太田,35.685176,140.210092,75312.7581054008,5340412622,False
日の里,福岡県,宗像市,日の里二丁目,33.7941629,130.536998,75397.17555649392,5030545224,False
岩国駅前,山口県,岩国市,麻里布町六丁目,34.170198,132.218914,75456.73165402893,5132210723,False
乙戸,茨城県,土浦市,乙戸南二丁目,36.0312311,140.147886,75515.07455282538,5440013142,False
西部第二,群馬県,館林市,富士原町,36.2386477139,139.516471651659,75667.51843036142,5439248132,False
グリーンフィールド桜が丘,茨城県,取手市,桜が丘三丁目,35.9020018,140.125605,75724.13843914919,5340618011,False
小名浜第二,福島県,いわき市,小名浜花畑町,36.955345,140.898235,75752.36547063015,5540374142,False
向栗崎第五,石川県,内灘町,字向陽台二丁目,36.638397,136.634038,75769.35554875855,5436756041,False
ゆいの杜,栃木県,宇都宮市,ゆいの杜三丁目,36.5711682,139.993312,75779.43823139375,5439678932,False
浜田,青森県,青森市,浜田一丁目,40.801223777992696,140.747305,75844.42521710748,6140156922,False
北青葉台,大阪府,河内長野市,北青葉台,34.4227605,135.568989,75949.88540873589,5135540541,False
郡,千葉県,君津市,郡一丁目,35.306466,139.916567,76099.55770526966,5239776334,False
阿品台,広島県,廿日市市,阿品台五丁目,34.3293437,132.309174,76100.56252546681,5132329441,False
道明,岩手県,盛岡市,向中野字幅,39.672363,141.144018,76148.30332924722,5941410141,False
金沢西部,石川県,金沢市,鞍月一丁目,36.5941037,136.624574,76242.00907107341,,False
敷戸団地,大分県,大分市,敷戸北町,33.1879255,131.62243,76282.85492161266,4931642942,False
朝霧台,石川県,金沢市,朝霧台二丁目,36.5362595,136.695749,76298.2806926327,5436654523,False
筑波研究学園都市,茨城県,つくば市,並木三丁目,36.064156,140.149234,76392.44682391325,5440017142,False
伊敷,鹿児島県,鹿児島市,西伊敷三丁目,31.640302,130.530367,76415.0434968898,4730346234,False
中央,宮城県,石巻市,中里五丁目,38.442531,141.296024,76429.63577319328,5741523321,False
南海団地,大阪府,阪南市,尾崎町,34.359586,135.239668,76440.19585758093,5135413911,False
結城南部第一,茨城県,結城市,新福寺四丁目,36.291512,139.867555,76591.15315672955,5439364934,False
竜内,群馬県,太田市,龍舞町,36.27921090503806,139.40782952721548,76698.69289157567,5439333241,False
富塚,群馬県,伊勢崎市,富塚町,36.27624972276194,139.1939154727845,76740.13600969104,5439313521,False
尾崎団地,岐阜県,各務原市,尾崎南町三丁目,35.424169,136.831023,76741.41378755994,5336160634,False
朝里北,北海道,小樽市,新光二丁目,43.172869,141.055655,76768.52252087058,6441600432,False
黄金,北海道,恵庭市,黄金中央三丁目,42.886687,141.592692,76906.53359715689,6441246714,False
竹鼻西,岐阜県,羽島市,竹鼻町丸の内十丁目,35.328431,136.69683,76961.64223275412,5236759523,False
梶毛東住宅地区,広島県,広島市安佐南区,伴南四丁目,34.448635,132.379888,77110.18488085804,5132533034,False
目白台,埼玉県,毛呂山町,目白台二丁目,35.9607418,139.32446,77192.80973834779,5339725524,False
宮田,埼玉県,羽生市,南七丁目,36.165755,139.543284,77254.00221624106,5439149334,False
大学町,千葉県,八千代市,大学町四丁目,35.773867,140.103718,77339.16418694296,5340502834,False
西武飯能日高ニュータウン,埼玉県,日高市,横手一丁目,35.872228,139.287608,77408.88052625724,5339624331,False
常代,千葉県,君津市,常代三丁目,35.309139,139.922226,77446.51539334569,5239777322,False
長与東部,長崎県,長与町,丸田郷皆前,32.825185,129.874939,77457.39432710712,4929169922,False
飛香台,愛知県,常滑市,飛香台七丁目,34.8954997,136.853137,77586.13111773909,5236267814,False
光風台山の手,大阪府,豊能町,新光風台二丁目,34.9073999,135.430702,77591.7775738155,5235238434,False
新光風台,大阪府,豊能町,新光風台二丁目,34.907208,135.430548,77591.7775738155,5235238434,False
東部,群馬県,館林市,松原三丁目,36.23410347049025,139.54206956433651,77691.0785437232,5439248312,False
二重池団地,三重県,津市,半田,34.694838,136.495661,77762.34731911874,5236033923,False
美加の台,大阪府,河内長野市,美加の台七丁目,34.4251014,135.583821,77791.23579982744,5135541621,False
栗東新都心,滋賀県,栗東市,上鈎,35.029153,135.993619,77801.766693141,5235473914,False
古河駅東部,茨城県,古河市,下辺見,36.194435,139.733246,77806.15515709852,5439253823,False
安久路第二,静岡県,磐田市,安久路,34.7240529,137.870906,77831.67821712431,5237066943,False
下長（河原木）,青森県,八戸市,高州一丁目,40.536260316440256,141.47947394313837,77853.21947912444,6041634814,False
南部,栃木県,佐野市,若宮上町,36.296173,139.589189,77893.5833096267,5439345731,False
東新涯,広島県,福山市,高西町川尻,34.433532,133.237117,78075.29854046594,5133512822,False
利根ニュータウン,茨城県,利根町,大字布川,35.855927,140.145933,78177.58703516424,5340612141,False
青葉台（６・７丁目）,千葉県,市原市,青葉台六丁目,35.467289,140.0498,78314.74996401521,5340106322,False
鳥取,大阪府,阪南市,舞三丁目,34.342905,135.233288,78346.79753270678,5135411821,False
花崎,埼玉県,加須市,花崎二丁目,36.111861,139.623259,78370.59073064421,5439143924,False
ふじが丘ニュータウン,大分県,大分市,大字田尻ふじが丘南,33.1785082,131.597351,78450.98920314053,4931641724,False
弥生が丘,佐賀県,鳥栖市,弥生が丘五丁目,33.405239,130.520957,78645.0777837807,5030048141,False
阪南ネオポリス,大阪府,河南町,大宝四丁目,34.500438,135.638216,78657.88657407062,5135650111,False
高岡南部,富山県,高岡市,東上関南田町,36.7339302,137.017403,78755.39014431895,5537008112,False
箕輪,千葉県,君津市,外箕輪四丁目,35.316141,139.923736,78797.2993182018,5239777344,False
啓西,北海道,帯広市,西一九条南三丁目,42.915326,143.15432,78809.05665621354,6443219234,False
うらら花高坂,埼玉県,東松山市,あずま町二丁目,36.0052161,139.408284,78824.67546824341,5439030241,False
田間,千葉県,東金市,田間二丁目,35.564839,140.369718,78880.40196411597,5340227943,False
泉パークタウン,宮城県,仙台市泉区,高森一丁目,38.338694,140.8464,78893.60281857513,5740460741,False
希みが丘,福岡県,小郡市,希みが丘一丁目,33.4374885,130.545656,78910.66398573517,5030142323,False
竜ヶ崎ニュータウン北竜台,茨城県,龍ケ崎市,中根台一丁目,35.930761,140.166128,78928.29710905072,5340711332,False
長門石,福岡県,久留米市,長門石二丁目,33.3297455,130.487836,79003.14094132818,4930739931,False
佐和駅中央,茨城県,ひたちなか市,高場一丁目,36.4282357,140.53664,79020.0061660228,5440541224,False
文苑,北海道,釧路市,文苑四丁目,43.022682,144.390628,79077.3724258821,6444432132,False
新下関駅周辺,山口県,下関市,秋根南町一丁目,34.007411,130.950346,79196.07048339145,5130070633,False
吉原,山形県,山形市,若宮一丁目,38.228084,140.310001,79196.15149683584,5740227424,False
菊陽第一,熊本県,菊陽町,大字津久礼,32.863277,130.822705,79219.33518388352,4930263542,False
柏木中島,北海道,恵庭市,中島町五丁目,42.896623,141.579002,79284.20030910542,6441247632,False
沼ノ端鉄北,北海道,苫小牧市,拓勇東町三丁目,42.672844,141.677872,79361.26976377105,6441050431,False
東部,群馬県,大泉町,朝日二丁目,36.25513185493771,139.425249130005,79406.1045665586,5439330431,False
奈良阪,奈良県,奈良市,青山五丁目,34.706199,135.838802,79497.72961899347,5235064731,False
佐倉てらさき,千葉県,佐倉市,寺崎北四丁目,35.713207,140.218117,79602.63227301167,5340415732,False
類家南,青森県,八戸市,南類家三丁目,40.5025854863126,141.50787341674726,79677.29137752728,6041640023,False
高坂ニュータウン,埼玉県,東松山市,松風台,35.9931417,139.382944,79726.5280438757,5339739021,False
下条西,山形県,山形市,西田二丁目,38.265874,140.314602,79729.2719257341,5740321533,False
北方柱本,岐阜県,北方町,柱本一丁目,35.427228,136.68981,79756.90787039268,5336151513,False
三重,三重県,四日市市,三重二丁目,34.9898457,136.587215,79760.04091869337,5236348644,False
第一西桑名ネオポリス,三重県,東員町,笹尾東二丁目,35.099915,136.597867,79760.9028550728,5236541744,False
豊橋牛川西部,愛知県,豊橋市,牛川通二丁目,34.7806866,137.416528,79838.32618767672,5237133332,False
名取ヶ丘ニュータウン,宮城県,名取市,名取が丘四丁目,38.156629,140.875475,79900.6087006799,5740178033,False
グリーンタウン栗生,宮城県,仙台市青葉区,栗生五丁目,38.26723,140.790567,80018.73081041903,5740362311,False
大塚台団地,宮崎県,宮崎市,大塚台西二丁目,31.9149244,131.382501,80160.20405913185,4731639043,False
つつじが丘,岐阜県,各務原市,つつじが丘五丁目,35.4099216,136.932654,80203.22715633722,5336079421,False
東部第二,群馬県,伊勢崎市,下植木町,36.31598287835466,139.21059911611368,80209.19847960699,5439317644,False
西十三奉行,茨城県,ひたちなか市,東石川二丁目,36.396678,140.534679,80210.2771119096,5440447242,False
飯能美杉台めぐみの丘,埼玉県,飯能市,美杉台六丁目,35.8462434,139.299537,80256.45029816541,5339621342,False
つつじが丘住宅地,兵庫県,猪名川町,つつじが丘二丁目,34.88557,135.367216,80424.77248483348,5235226914,False
西諫早,長崎県,諫早市,白岩町,32.846946,130.021581,80568.66887563914,4930201141,False
南部第四,福井県,福井市,板垣四丁目,36.045213,136.228102,80589.79565096645,5436015813,False
宮浦,広島県,三原市,宮浦四丁目,34.397101,133.063917,80626.72970332857,5133407531,False
神戸リサーチパーク 鹿の子台,兵庫県,神戸市北区,鹿の子台北町八丁目,34.8592652,135.216432,80639.82902438291,5235213712,False
野木ローズタウン,栃木県,野木町,大字丸林,36.2286689,139.735832,80671.07182222462,5439257824,False
城東、東部第二,栃木県,小山市,犬塚四丁目,36.31018,139.831967,80713.35904353605,5439367621,False
新富,北海道,旭川市,新富二条一丁目,43.788442,142.382475,80769.53374660373,6542534041,False
富士見台,静岡県,富士市,富士見台六丁目,35.18256,138.713998,80813.07390577102,5238651733,False
安積第一、第二、第三,福島県,郡山市,安積町長久保一丁目,37.359345,140.361708,80840.52889811339,5640023822,False
佐鳴湖西岸,静岡県,浜松市西区,大平台二丁目,34.71332,137.682147,81002.05420482786,5237055441,False
パルタウン大富,宮城県,富谷市,日吉台二丁目,38.37874,140.862751,81015.5580037347,5740465913,False
人見,千葉県,君津市,人見一丁目,35.334525,139.869896,81107.04014051626,5339060921,False
赤尾,三重県,桑名市,赤尾台七丁目,35.0490786,136.625793,81165.32897176132,5236455033,False
大谷（真岡）,栃木県,真岡市,大谷台町,36.435647,139.991956,81233.16184310123,5439572914,False
陽光台,広島県,廿日市市,陽光台三丁目,34.3548089,132.310493,81258.75683357024,5132422442,False
小山東部第二,栃木県,小山市,犬塚八丁目,36.3013273,139.833512,81323.76733098217,5439366621,False
寺本台,愛知県,知多市,寺本台二丁目,34.991877,136.883662,81354.01091264319,5236379021,False
常総ニュータウンきぬの里,茨城県,常総市,内守谷町きぬの里一丁目,35.9818866,139.96483,81369.86990072775,5339777733,False
東方,埼玉県,深谷市,東方町三丁目,36.1879066,139.316292,81437.40978692882,5439222532,False
五月ヶ丘,広島県,広島市佐伯区,五月が丘五丁目,34.424611,132.402849,81482.12159605518,5132530233,False
小比内,青森県,弘前市,大字川先一丁目,40.588138,140.49075157601888,81573.89703693315,6040730932,False
グリーンヒルズ二日市天拝坂,福岡県,筑紫野市,天拝坂六丁目,33.4949448,130.499839,81663.63821522202,5030139924,False
総社中央,岡山県,総社市,中央三丁目,34.6721625,133.748421,81767.74263722516,5233050942,False
湊高台第一,青森県,八戸市,湊高台四丁目,40.50755331644025,141.53935451915726,81786.14567940158,6041640333,False
日吉台,宮城県,富谷市,日吉台二丁目,38.376957,140.865276,81868.54213879569,5740465911,False
御前南,福島県,郡山市,御前南五丁目,37.383594,140.330812,81878.83347852704,5640026612,False
八山田第二,福島県,郡山市,富田町字下堰,37.422526,140.338862,82118.61171445769,5640120731,False
富田第二,福島県,郡山市,富田町字下堰,37.4228781,140.339169,82118.61171445769,5640120731,False
兵庫北,佐賀県,佐賀市,兵庫北二丁目,33.2721332,130.308621,82267.57857766519,4930722441,False
新鵜沼台,岐阜県,各務原市,新鵜沼台五丁目,35.4047795,136.952032,82359.80431691714,5336078631,False
中尾・伊豆島,千葉県,木更津市,東太田三丁目,35.378446,139.965171,82369.14752392682,5339075713,False
戸磯,北海道,恵庭市,住吉町三丁目,42.875775,141.587407,82371.92337394952,6441245622,False
北六甲台,兵庫県,西宮市,北六甲台二丁目,34.8339438,135.248074,82402.14925916548,5235210922,False
秋葉台,兵庫県,神戸市西区,秋葉台三丁目,34.7448934,135.066922,82423.06649381155,5235009514,False
野田梅郷団地,千葉県,野田市,二ツ塚,35.940355,139.912315,82474.90706027311,5339772244,False
千代ニュータウン,福岡県,北九州市八幡西区,千代三丁目,33.808499,130.742901,82539.1640920439,5030557912,False
学研都市　ひびきの,福岡県,北九州市若松区,ひびきの,33.889869,130.713304,82651.7339585322,,False
大谷台,広島県,福山市,大谷台三丁目,34.5145213,133.443501,82860.79248616518,5133631532,False
美鈴が丘,福岡県,小郡市,美鈴が丘一丁目,33.433907,130.550986,83063.85559980015,5030142411,False
研究学園葛城,茨城県,つくば市,研究学園五丁目,36.0866091,140.083813,83246.82262304633,5440100623,False
新県庁南,新潟県,新潟市中央区,新光町,37.899375,139.018929,83300.31044267143,,False
ガーデニングタウン西中山,宮城県,仙台市泉区,西中山一丁目,38.306709,140.807126,83407.81122725832,5740366443,False
星ヶ峯ニュータウン,鹿児島県,鹿児島市,星ヶ峯六丁目,31.5769579,130.493228,83449.51535094647,4730239912,False
白銀ニュータウン,千葉県,佐倉市,白銀三丁目,35.712129,140.248222,83519.83167507144,5340415924,False
佐保山,奈良県,奈良市,佐保台三丁目,34.7082026,135.816117,83626.6079125041,5235064534,False
ハーモニータウン富吉台,宮城県,大和町,杜の丘二丁目,38.386292,140.869124,83842.28338787361,5740466923,False
東平第一特定,埼玉県,東松山市,殿山町,36.0585152,139.413384,83896.84770965815,5439037311,False
久下東部,埼玉県,熊谷市,久下三丁目,36.117216,139.429979,83988.36910073065,5439134412,False
あいタウンたけくま,宮城県,岩沼市,たけくま一丁目,38.10959,140.856718,84007.55741495146,5740163821,False
泉パークタウン,宮城県,仙台市泉区,高森八丁目,38.339334,140.853996,84065.27891800061,5740460832,False
蒲田,兵庫県,姫路市,広畑区蒲田三丁目,34.8266972,134.642902,84122.90588147445,5234159112,False
みそらニュータウン,千葉県,四街道市,みそら二丁目,35.670336,140.199642,84216.25798273581,5340410524,False
緑ヶ丘,大阪府,河内長野市,緑ケ丘中町,34.447052,135.541806,84216.5225907194,5135543332,False
近江八幡中央,滋賀県,近江八幡市,中村町,35.126335,136.095794,84222.65841647872,5236505721,False
奈良青山,奈良県,奈良市,青山五丁目,34.707716,135.837615,84294.62341234963,5235064733,False
皇徳寺,鹿児島県,鹿児島市,皇徳寺台四丁目,31.562484,130.486672,84299.77568097715,4730237824,False
堀川西,富山県,富山市,根塚町一丁目,36.6751334,137.205682,84340.43271732,5537011612,False
鳩山ＮＴ２,埼玉県,鳩山町,楓ヶ丘一丁目,35.985924,139.356974,84518.99422129896,5339728823,False
パークシティ南吉成,宮城県,仙台市青葉区,南吉成三丁目,38.286383,140.815995,84592.37561571396,5740364514,False
豊岡第三,北海道,旭川市,豊岡十四条四丁目,43.771915,142.40515,84712.26814306376,6542532232,False
城東、小山駅東,栃木県,小山市,城北五丁目,36.323424,139.817327,84738.1943040536,5439368534,False
小江原団地,長崎県,長崎市,小江原二丁目,32.779887,129.841252,84816.43349087154,4929163732,False
箕面森町,大阪府,箕面市,森町中一丁目,34.8909353,135.460786,84948.55201419057,5235236644,False
つくばみどりの里,茨城県,つくば市,みどりの一丁目,36.0306596,140.054355,85030.05186805109,5440003432,False
西部第二,群馬県,伊勢崎市,田中島町,36.32130062715663,139.16461239125755,85058.66820949403,5439318331,False
南あいの里,北海道,札幌市北区,南あいの里五丁目,43.153704,141.398807,85131.07751856558,6441538124,False
坂田,千葉県,君津市,西坂田三丁目,35.337965,139.885772,85368.92654722415,5339070042,False
新西方,三重県,桑名市,新西方四丁目,35.0719075,136.658474,85373.8070813069,5236458241,False
中里町,兵庫県,神戸市北区,中里町一丁目,34.715495,135.155783,85431.30609522075,5235015234,False
第一あけぼの,栃木県,小山市,神鳥谷二丁目,36.2986568,139.791868,85490.1665515838,5439365334,False
富田東,福島県,郡山市,富田東二丁目,37.422236,140.36871,85564.65332868783,5640120932,False
北部（川津）,島根県,松江市,学園一丁目,35.477691,133.067129,85745.45485505281,5333107514,False
東部,愛知県,半田市,瑞穂町九丁目,34.8881599,136.943086,85795.3354959581,5236276532,False
阿保,兵庫県,姫路市,阿保,34.8218543,134.704459,85953.6708637061,5234158632,False
兵庫,佐賀県,佐賀市,兵庫南三丁目,33.2631647,130.317061,86097.89528619974,4930721532,False
請西第一,千葉県,木更津市,真舟二丁目,35.360557,139.933632,86120.78115031113,5339073423,False
石津,静岡県,焼津市,石津中町,34.841369,138.324155,86151.65828998633,5238220544,False
こま武蔵台,埼玉県,日高市,武蔵台三丁目,35.876204,139.301404,86157.07743134355,5339625411,False
蔵王桜田,山形県,山形市,桜田西二丁目,38.220583,140.318584,86180.55384956002,5740226514,False
中山台,宮城県,仙台市青葉区,中山台二丁目,38.301119,140.813692,86200.98778186759,5740366511,False
西部第一,群馬県,伊勢崎市,連取本町,36.322909408269155,139.17504842410685,86239.21874862585,5439318431,False
筑波研究学園都市,茨城県,つくば市,東二丁目,36.054963,140.136881,86259.21028128662,5440016042,False
焼津市南部,静岡県,焼津市,石津,34.8431928,138.311833,86381.94429973935,5238221422,False
ハートタウン前原 南風台,福岡県,糸島市,南風台四丁目,33.5507151,130.196896,86426.94558540032,5030216522,False
加茂団地,宮城県,仙台市泉区,加茂二丁目,38.31607,140.854069,86509.16549253596,5740367834,False
南部,群馬県,高崎市,福島町,36.367069716923545,139.0011247862824,86737.97748176435,5439404011,False
寒田,大分県,大分市,大字寒田寒田北町,33.1861118,131.60697,86917.3073949405,4931642823,False
東ときわ台,大阪府,豊能町,東ときわ台六丁目,34.9016664,135.449102,86986.90503408771,5235238522,False
猪名川パークタウン,兵庫県,猪名川町,白金三丁目,34.898005,135.36551,87034.10615253882,5235227933,False
レークピア大津 仰木の里,滋賀県,大津市,仰木の里東三丁目,35.1049645,135.893758,87076.97321918939,5235572141,False
女堀,埼玉県,本庄市,緑一丁目,36.228073,139.178152,87115.90216974782,5439217414,False
馬場・生津,岐阜県,瑞穂市,馬場小城町一丁目,35.4095282,136.687952,87189.42847101198,5336059511,False
新涯西部,広島県,福山市,新涯町三丁目,34.459579,133.395983,87239.87601177565,5133535121,False
鶴ヶ丘ニュータウン,宮城県,仙台市泉区,鶴が丘一丁目,38.320363,140.923176,87265.01126892326,5740378324,False
豊田,埼玉県,久喜市,南栗橋八丁目,36.1111806,139.708272,87298.99604132549,5439153623,False
花山東,兵庫県,神戸市北区,花山東町,34.764814,135.187089,87335.98842939433,5235111444,False
花山東,兵庫県,神戸市北区,花山東町,34.7652321,135.185668,87335.98842939433,5235111444,False
上山口丸山,兵庫県,西宮市,山口町上山口三丁目,34.8272483,135.24704,87352.6036210146,5235119924,False
明日花,福岡県,福津市,福間南一丁目,33.7570042,130.491521,87512.16439125835,5030530934,False
原田駅前,福岡県,筑紫野市,原田七丁目,33.4527566,130.5423,87532.75944698263,5030144314,False
東山,奈良県,平群町,菊美台二丁目,34.6468738,135.711252,87576.71916890975,5135757642,False
安城桜井駅周辺,愛知県,安城市,桜井町,34.9178699,137.086111,87628.31429416384,5237300622,False
原郷,埼玉県,深谷市,常盤町,36.19743,139.299946,87710.13642564061,5439223342,False
ウィンズタウン西神戸,兵庫県,神戸市西区,宮下二丁目,34.6901401,134.976796,87777.25701768375,5234072833,False
白石花尻,岡山県,岡山市北区,白石東新町,34.657039,133.872365,87811.14477245565,5133768944,False
阪急日生ニュータウン,兵庫県,川西市,美山台一丁目,34.908106,135.396874,87928.72422836852,5235238143,False
北新宿第二,埼玉県,鴻巣市,北新宿,36.109831,139.441867,88038.00652921728,5439133512,False
西藤,群馬県,太田市,西本町,36.293454019414625,139.3611011925317,88074.91639680727,5439325822,False
久保,千葉県,君津市,南久保一丁目,35.328799,139.901941,88170.3079413222,5239779213,False
ハーモニーシティ木津,京都府,木津川市,市坂高座,34.7164575,135.829486,88191.64285129662,5235065634,False
浜町新井,群馬県,太田市,新井町,36.28933592276194,139.36775874493938,88255.85802129468,5439324932,False
ゆいとぴあ盛南,岩手県,盛岡市,向中野二丁目,39.682734,141.135693,88298.26232469355,5941411044,False
千鳥パークタウン,福岡県,古賀市,舞の里二丁目,33.747323,130.483135,88387.8993946701,5030439841,False
桜が丘,兵庫県,神戸市西区,桜が丘東町四丁目,34.7452637,135.059444,88617.16839089188,5235009424,False
住崎,愛知県,西尾市,住崎一丁目,34.8585326,137.044562,88678.63173349213,5237203321,False
栗橋駅西（栗橋地区）,埼玉県,久喜市,伊坂,36.1339783,139.689204,88685.23690900192,5439156511,False
高須,福岡県,北九州市若松区,高須東四丁目,33.890439,130.691507,88696.60379901521,5030656534,False
猪名川パークタウン,兵庫県,猪名川町,白金二丁目,34.901595,135.360396,88735.38759705889,5235228822,False
明野,大分県,大分市,明野南三丁目,33.220393,131.651332,88795.09003775031,4931656213,False
中野,千葉県,君津市,中野四丁目,35.331993,139.8903,88878.20257900002,5239779133,False
常総ニュータウン絹の台,茨城県,つくばみらい市,絹の台二丁目,35.976409,139.978609,88935.28130485913,5339777812,False
花崎さつき野,埼玉県,加須市,花崎北二丁目,36.1134862,139.631778,89009.72424742076,5439153041,False
烏田,千葉県,木更津市,羽鳥野六丁目,35.345334,139.943695,89033.08444225774,5339071514,False
青柳,千葉県,市原市,千種六丁目,35.495373,140.057552,89073.96635605251,5340109423,False
大野,青森県,青森市,西大野三丁目,40.80188515783746,140.7257211111111,89080.17467976277,6140156811,False
稲田徳間,長野県,長野市,稲田二丁目,36.6751919,138.227556,89241.6703088683,5538011811,False
安原中央,石川県,金沢市,上安原二丁目,36.5674863,136.587862,89271.84976918346,5436648711,False
真伝特定,愛知県,岡崎市,真伝町,34.9754063,137.191663,89322.86845685798,5237317512,False
西部,群馬県,伊勢崎市,連取本町,36.316815346127335,139.18041388388633,89345.51178170476,5439318412,False
高屋南部,岐阜県,北方町,高屋条里二丁目,35.414874,136.690069,89359.83339144042,5336059533,False
阿久比宮津板山,愛知県,阿久比町,陽なたの丘三丁目,34.9362077,136.933162,89405.05010445534,5236372423,False
藤原台,兵庫県,神戸市北区,藤原台中町一丁目,34.822086,135.21853,89410.0629401371,,False
大山田ニュータウン蓮花寺,三重県,桑名市,藤が丘六丁目,35.074508,136.649709,89437.79101762528,5236458144,False
二宮団地,神奈川県,二宮町,百合が丘二丁目,35.3115362,139.241238,89452.38441417828,5239717914,False
月輪,埼玉県,滑川町,月の輪六丁目,36.0448173,139.342064,89575.07761720306,5439025714,False
城東,青森県,弘前市,大字城東四丁目,40.594941,140.49002768770967,89595.84709517853,6040731913,False
緑ヶ丘ネオポリス,兵庫県,三木市,緑が丘町中一丁目,34.770666,135.030807,89728.04792962452,5235102214,False
生松台,福岡県,福岡市西区,生松台三丁目,33.5550864,130.299403,89813.83767908723,5030226342,False
弥右衛門,高知県,高知市,南御座,33.5687375,133.561326,89880.80324517103,5033248422,False
ときわ台,大阪府,豊能町,ときわ台六丁目,34.904076,135.439839,89912.78073487358,5235238513,False
みどりが丘,福岡県,福岡市東区,みどりが丘一丁目,33.6479962,130.471773,90088.82824589984,5030337743,False
栗橋駅西（大利根地区）,埼玉県,加須市,旗井二丁目,36.141375,139.688201,90094.65458061433,5439156533,False
グリーンタウン新栄台,北海道,江別市,新栄台,43.108749,141.5139,90126.07471563431,6441543111,False
狭山台,埼玉県,入間市,狭山台三丁目,35.808763,139.363193,90135.66600354401,,False
大麻,北海道,江別市,大麻ひかり町,43.069687,141.479713,90180.00833176308,6441438814,False
西地区第二,北海道,帯広市,西一六条南四丁目,42.909889,143.176353,90300.31779756123,6443219411,False
高陽,広島県,広島市安佐北区,真亀一丁目,34.4828858,132.51908,90362.55891414257,5132547143,False
江原台,千葉県,佐倉市,江原台一丁目,35.735131,140.202852,90461.40246261857,5340418611,False
きらりタウン浜北,静岡県,浜松市浜北区,染地台四丁目,34.7906123,137.745081,90620.30946960275,5237154943,False
福島西,福島県,福島市,野田町字上高野,37.769493,140.437821,90638.39328611856,5640532513,False
中野若松東,大阪府,富田林市,若松町東三丁目,34.510641,135.613965,90729.72772764353,,False
成田第一,千葉県,成田市,美郷台一丁目,35.792886,140.309682,90782.49090885572,5340525422,False
本郷第一,茨城県,阿見町,本郷三丁目,36.0245625,140.177346,90806.55350991913,5440012433,False
鵜沼台,岐阜県,各務原市,鵜沼台四丁目,35.4059611,136.945732,90952.08496484286,5336078541,False
東西野幌,北海道,江別市,緑ヶ丘,43.082587,141.531694,90974.86992490519,6441449243,False
三好ケ丘第三,愛知県,みよし市,黒笹いずみ三丁目,35.1296089,137.098753,91050.22013716926,5237505742,False
英賀保駅周辺,兵庫県,姫路市,苫編,34.816895,134.650379,91147.95522689601,5234158211,False
野々市町北西部,石川県,野々市市,二日市五丁目,36.5377029,136.59387,91153.81434132761,5436644741,False
同志社山手,京都府,京田辺市,同志社山手一丁目,34.7921342,135.773186,91162.03050696648,5235165122,False
大宝,大阪府,河南町,大宝三丁目,34.503851,135.634761,91392.82734931677,5135650024,False
半田,静岡県,浜松市東区,半田山四丁目,34.776429,137.741647,91439.70949225409,5237153912,False
北神星和台第一次,兵庫県,神戸市北区,西山一丁目,34.836702,135.216315,91633.51911308932,5235210714,False
五所・君塚,千葉県,市原市,白金町四丁目,35.527834,140.102549,91678.31417287525,5340203813,False
貝渕,千葉県,木更津市,幸町一丁目,35.371896,139.926818,91719.37136704463,5339074431,False
元江別,北海道,江別市,見晴台,43.112188,141.52266,91750.80986689245,6441543124,False
泉ヶ丘ニュータウン,宮城県,富谷市,富ケ丘二丁目,38.363397,140.867594,91764.1897629467,5740463932,False
福王台,千葉県,袖ケ浦市,奈良輪二丁目,35.429484,139.961615,91988.7250853108,5339171642,False
豊岡第二,北海道,旭川市,十条通二十三丁目,43.769544,142.389432,92060.83961632811,6542532113,False
五色園ハイランド,愛知県,日進市,五色園三丁目,35.1553952,137.061127,92115.06007727719,5237508442,False
逗子グリーンヒル,神奈川県,逗子市,沼間五丁目,35.292378,139.616563,92128.51932158484,5239745912,False
都南中央第一,岩手県,盛岡市,津志田中央一丁目,39.6636214,141.155067,92273.5893306913,5941319232,False
山の田,山口県,下関市,山の田中央町,33.988056,130.927109,92359.70867984155,5030778431,False
東山丘陵,大阪府,貝塚市,東山四丁目,34.4135482,135.390249,92366.74325356718,5135439131,False
筑波研究学園都市,茨城県,つくば市,天久保二丁目,36.092459,140.103321,92395.09028140371,5440101812,False
黒埼北部,新潟県,新潟市西区,ときめき西二丁目,37.8786346,139.010691,92466.53153939213,5639605024,False
阪神花山,兵庫県,神戸市北区,花山中尾台一丁目,34.76781,135.192883,92523.67217326527,5235112512,False
大宮団地,千葉県,千葉市若葉区,大宮台四丁目,35.593176,140.181878,92572.51347003512,5340311421,False
新保・日高,群馬県,高崎市,東貝沢町三丁目,36.35030061058199,139.037310651659,92585.7844368253,5439402222,False
松が枝町,兵庫県,神戸市北区,松が枝町二丁目,34.7592232,135.151262,92619.70852313777,5235111211,False
近江八幡駅南部,滋賀県,近江八幡市,鷹飼町東二丁目,35.124568,136.105905,92667.82405961455,5236504834,False
樽川中央,北海道,石狩市,樽川六条二丁目,43.15091,141.281691,92712.89554140571,6441528221,False
西の台団地,大分県,大分市,にじが丘三丁目,33.2279699,131.583065,92717.3540409211,4931647623,False
幕山台,広島県,福山市,幕山台七丁目,34.5128466,133.435414,92735.42745362686,5133631442,False
柏田,茨城県,牛久市,上柏田二丁目,35.989709,140.156873,92747.53569844659,5340718243,False
長浦駅前,千葉県,袖ケ浦市,長浦駅前六丁目,35.448083,140.004914,92756.51228294971,5340103034,False
筑波研究学園都市,茨城県,つくば市,春日一丁目,36.090031,140.104737,92821.6542429802,5440100834,False
三本柳,長野県,長野市,三本柳西二丁目,36.6172168,138.165614,92865.02785703949,5438714311,False
新木駅南側,千葉県,我孫子市,南新木二丁目,35.860583,140.104265,93088.82759319799,5340603814,False
飛島グリーンヒル大津,滋賀県,大津市,青山六丁目,34.9786825,135.971481,93222.78236219987,5235377723,False
豊橋牟呂,愛知県,豊橋市,牟呂公文町,34.753458,137.357324,93277.96655796187,5237120823,False
南山手,福岡県,大野城市,つつじケ丘四丁目,33.492556,130.480585,93319.3840871038,5030139812,False
東矢島,群馬県,太田市,南矢島町,36.26359993162388,139.38262258164644,93542.13268938195,5439331041,False
畑沢第二,千葉県,木更津市,畑沢南二丁目,35.343369,139.905205,93655.79029761288,5339071212,False
笹川,三重県,四日市市,笹川五丁目,34.9467051,136.574154,93660.93708771335,5236343542,False
新野幌第二,北海道,江別市,文京台東町,43.06587,141.498435,93752.20546725058,6441437944,False
島,岐阜県,岐阜市,西中島七丁目,35.4300526,136.724665,93773.82447457021,5336151742,False
阪急日生ニュータウン,兵庫県,川西市,美山台三丁目,34.9090277,135.402933,93849.20426328196,5235239211,False
刈谷,茨城県,牛久市,刈谷町五丁目,35.9717367,140.127463,93932.53276819231,5340716031,False
筑紫駅西口,福岡県,筑紫野市,大字筑紫,33.4606312,130.552291,94180.41731001517,5030145413,False
三ツ井,愛知県,一宮市,三ツ井五丁目,35.2760926,136.83483,94219.25192223207,5236763622,False
第三,北海道,江別市,向ヶ丘,43.102299,141.534054,94272.53449448332,6441542223,False
取手ゆめみ野,茨城県,取手市,ゆめみ野四丁目,35.924001,140.040976,94481.43213123806,5340700334,False
西坂戸団地,埼玉県,坂戸市,西坂戸五丁目,35.930405,139.33198,94558.60418328177,5339721641,False
加茂地区,静岡県,三島市,加茂,35.134988,138.931848,94581.64607233275,5238576421,False
青葉台,千葉県,市原市,青葉台五丁目,35.468921,140.055036,94608.16983587274,5340106414,False
南上原,沖縄県,中城村,字南上原,26.2500607,127.773161,94642.23200801437,3927360122,False
文苑第二,北海道,釧路市,文苑一丁目,43.018847,144.38623,94682.88559402409,6444432024,False
山内,沖縄県,沖縄市,山内三丁目,26.327518,127.781639,94736.23992067024,3927369223,False
請西第三,千葉県,木更津市,請西南二丁目,35.359941,139.942877,94794.7359335034,5339073512,False
ハーモニーシティ木津（木津中央）,京都府,木津川市,城山台七丁目,34.7324774,135.836746,94798.66802312563,5235067644,False
西方,三重県,桑名市,松並町二丁目,35.065095,136.673656,94815.54884527535,5236457344,False
光風台,大阪府,豊能町,光風台二丁目,34.898234,135.436513,94833.10508820326,5235237444,False
西尾平坂東部,愛知県,西尾市,富山二丁目,34.8507236,137.02177,94846.40040110645,5237202121,False
清見台,大阪府,河内長野市,清見台二丁目,34.4363774,135.581323,94887.7123089069,5135542623,False
永犬丸・則松,福岡県,北九州市八幡西区,八枝四丁目,33.846407,130.729506,94933.13017628825,5030651832,False
日東町,大阪府,河内長野市,日東町,34.440469,135.577469,95130.01252648394,5135542633,False
杢師,千葉県,君津市,杢師三丁目,35.3218,139.913096,95265.88969601954,5239778331,False
上柴,埼玉県,深谷市,上柴町西四丁目,36.1802706,139.298888,95409.9805232154,5439221342,False
中山ニュータウン,宮城県,仙台市泉区,南中山二丁目,38.308629,140.826738,95413.9300268468,5740367611,False
佐貫駅東,茨城県,龍ケ崎市,佐貫三丁目,35.9313165,140.140387,95547.23840509445,5340711133,False
南海くまとりニュータウン,大阪府,熊取町,希望が丘二丁目,34.4041114,135.362807,95901.72899204685,5135428913,False
原田,福岡県,筑紫野市,美しが丘南二丁目,33.4447981,130.545038,96394.87124979474,5030143323,False
大坪,宮崎県,宮崎市,花山手東二丁目,31.9028823,131.401823,96412.67920118057,4731638213,False
岡場,兵庫県,神戸市北区,藤原台北町一丁目,34.8252331,135.224643,96425.70521485338,5235119722,False
豊橋南部,愛知県,豊橋市,八町通二丁目,34.769226,137.391516,96646.1039164964,,False
平野台,福岡県,大野城市,平野台三丁目,33.4950492,130.466943,96659.74267971197,5030139714,False
札幌ニュータウンあいの里,北海道,札幌市北区,あいの里三条五丁目,43.163057,141.399944,96756.61044516279,6441539142,False
請西第二,千葉県,木更津市,請西東五丁目,35.366898,139.948426,96953.95071534746,5339074522,False
花鶴ケ丘,福岡県,古賀市,花鶴丘一丁目,33.726548,130.468574,96983.4661035826,5030437712,False
藤松,福岡県,北九州市門司区,藤松三丁目,33.887075,130.924276,97109.56868035854,5030676324,False
愛国西,北海道,釧路市,愛国西一丁目,43.011508,144.38675,97220.02863010485,6444431024,False
市川西,兵庫県,姫路市,北条梅原町,34.8132355,134.695184,97268.33455663844,5234157541,False
伊勢吉成,宮城県,仙台市青葉区,吉成三丁目,38.290947,140.820737,97408.73096033212,5740364543,False
高坂駅東口第一,埼玉県,東松山市,大字高坂,36.0027037,139.40137,97433.4884361293,5439030213,False
内浜,愛媛県,松山市,内浜町,33.865516,132.72735,97450.3572475174,5032653833,False
アートヒル三好ヶ丘,愛知県,みよし市,三好丘旭一丁目,35.1237933,137.115741,97509.50610592897,5237504934,False
大山田ニュータウン,三重県,桑名市,筒尾八丁目,35.079548,136.642478,97557.01664964568,5236459132,False
上津藤光,福岡県,久留米市,藤光,33.287059,130.514732,97778.70552618573,4930744113,False
南花台,大阪府,河内長野市,南花台三丁目,34.4291477,135.55625,97791.96179734287,5135541414,False
手倉田,宮城県,名取市,大手町四丁目,38.168574,140.878669,97828.0274476442,5740270012,False
南子安,千葉県,君津市,南子安五丁目,35.327068,139.91993,97913.84987443723,5239779321,False
鶴田第二,栃木県,宇都宮市,鶴田町,36.5549967,139.854187,98208.07502452703,5439666832,False
矢野,広島県,広島市安芸区,矢野南二丁目,34.3400264,132.530552,98370.51586131696,5132440234,False
岩岡,兵庫県,神戸市西区,竜が岡三丁目,34.7111728,134.936975,98406.40678973499,5234075424,False
武蔵ケ丘東ニュータウン,熊本県,菊陽町,光の森三丁目,32.8606516,130.781416,98464.51125058765,4930263223,False
伊敷,鹿児島県,鹿児島市,伊敷台五丁目,31.628391,130.537821,98566.24374919116,4730345313,False
西山,大阪府,太子町,聖和台二丁目,34.525758,135.638579,98619.46722520026,5135653111,False
人人ニュータウンひたち野中央,茨城県,牛久市,ひたち野東一丁目,36.0079379,140.159849,98700.69600954458,5440010244,False
蔵波台,千葉県,袖ケ浦市,蔵波台二丁目,35.442281,139.993629,98905.1007449295,5339173912,False
愛国北部,北海道,釧路市,芦野二丁目,43.013591,144.395625,98998.48798975008,6444431141,False
二色の浜パークタウン,大阪府,貝塚市,二色二丁目,34.446485,135.34255,99082.05266995539,5135523732,False
野々市町中南部,石川県,野々市市,粟田四丁目,36.5166259,136.609949,99218.97528213907,5436641844,False
取手中央タウン,茨城県,取手市,西二丁目,35.902668,140.04734,99331.96855939849,5340608324,False
篠路地区住宅団地,北海道,札幌市北区,篠路三条十丁目,43.143489,141.374259,99358.39530192091,6441527922,False
八木山南団地,宮城県,仙台市太白区,八木山南四丁目,38.235332,140.835929,99401.87911032174,5740268622,False
野々市町御経塚第二,石川県,野々市市,御経塚二丁目,36.5480906,136.598139,99424.1018158108,5436645744,False
日吉台ニュータウン,千葉県,富里市,日吉台四丁目,35.767647,140.320419,99646.3567677179,5340522521,False
筑波研究学園都市,茨城県,つくば市,松代三丁目,36.066897,140.103149,99980.79493107022,5440008812,False
星川（２）,三重県,桑名市,星見ヶ丘九丁目,35.0731671,136.632523,100021.77177958112,5236458043,False
戸ヶ崎,愛知県,西尾市,戸ケ崎三丁目,34.8815218,137.065525,100057.45639984468,5237205533,False
六供,群馬県,前橋市,六供町,36.36884449336101,139.07771015404245,100375.09713193758,5439404613,False
西武狭山ニュータウン柏原,埼玉県,狭山市,柏原,35.884426,139.412599,100520.82422182278,5339636311,False
小山東部第一,栃木県,小山市,大字土塔,36.301949,139.824328,100704.04181604557,5439366522,False
陽だまりの丘,三重県,桑名市,陽だまりの丘七丁目,35.0889825,136.640122,100928.83821082104,5236550131,False
酒々井中央台,千葉県,酒々井町,中央台二丁目,35.730419,140.272426,101061.63428597928,5340427142,False
武蔵高萩駅北,埼玉県,日高市,大字女影新田,35.9044134,139.370648,101151.40639023887,5339628941,False
西谷,愛知県,知多市,にしの台二丁目,34.97885,136.875762,101430.52439727138,5236377013,False
白浜東,兵庫県,姫路市,白浜町宇佐崎北二丁目,34.788766,134.718064,101516.199743285,5234154732,False
西部第一,福島県,郡山市,鳴神一丁目,37.3972802,140.3401,101577.37704388749,5640027731,False
みらい平,茨城県,つくばみらい市,紫峰ヶ丘一丁目,35.99927,140.038404,101580.93693172742,5340709333,False
亀岡,京都府,亀岡市,西つつじヶ丘大山台二丁目,35.000771,135.587413,101854.43281570141,5235440622,False
勝田,青森県,青森市,勝田二丁目,40.81829401854715,140.75860831025787,101963.94018621526,6140168021,False
門井,埼玉県,行田市,門井町一丁目,36.120533,139.439521,101968.4654436977,5439134513,False
人人ニュータウンひたち野中央,茨城県,牛久市,ひたち野東四丁目,36.0025828,140.167659,101977.64325485763,5440010314,False
千代田,千葉県,四街道市,千代田四丁目,35.69394,140.184292,102063.05286263379,5340413423,False
小川第二,静岡県,焼津市,西小川三丁目,34.856408,138.307697,102078.47092849381,5238222443,False
辰巳団地　辰巳台,千葉県,市原市,辰巳台東一丁目,35.519757,140.153253,102085.56867233758,5340212214,False
太田第二,香川県,高松市,伏石町,34.3110018,134.061007,102101.12499586074,5134307424,False
高陽第一,広島県,広島市安佐北区,落合三丁目,34.47635,132.511382,102193.2989037376,5132547022,False
清見台第三,千葉県,木更津市,太田四丁目,35.375444,139.946455,102229.59168955317,5339075521,False
鷹尾山けやき坂,兵庫県,川西市,けやき坂五丁目,34.86132,135.38263,102258.36975532705,5235233023,False
パークシティ守谷,茨城県,守谷市,みずき野四丁目,35.937154,140.013192,102331.71598597296,5340702113,False
平島,愛知県,一宮市,平島二丁目,35.2843372,136.832055,102384.7633894104,5236764621,False
清見台第二,千葉県,木更津市,清見台南四丁目,35.383041,139.956137,102667.32248636056,5339075634,False
ラフィーナ幸手イトーピア,埼玉県,幸手市,香日向一丁目,36.086407,139.698007,102671.18030175993,5439150524,False
筑波研究学園都市,茨城県,つくば市,二の宮三丁目,36.065804,140.118792,102737.65254054387,5440007943,False
若葉台レークタウン,神奈川県,相模原市緑区,若葉台四丁目,35.5959344,139.291745,102779.15570380865,5339321332,False
金沢駅西第二,石川県,金沢市,西念三丁目,36.5894142,136.634454,102837.59142215781,5436750042,False
戸板第二,石川県,金沢市,戸板二丁目,36.5792017,136.623305,102850.94959685089,5436649942,False
厚木ニューシティ森の里,神奈川県,厚木市,森の里一丁目,35.4454632,139.310486,102874.23388588856,,False
北摂三田ウッディタウン,兵庫県,三田市,けやき台一丁目,34.9092992,135.185314,102887.58522601172,5235219422,False
長命ヶ丘ニュータウン,宮城県,仙台市泉区,長命ケ丘四丁目,38.312905,140.83786,102892.5496855891,5740367731,False
坂戸ニューシティにっさい,埼玉県,坂戸市,にっさい花みず木四丁目,35.9706506,139.368212,102915.14795215838,5339726914,False
城北、小山駅東、犬塚、東部第一,栃木県,小山市,城東二丁目,36.311114,139.818442,102979.83682575545,5439367514,False
浅川学園台,福岡県,北九州市八幡西区,浅川学園台三丁目,33.8840157,130.707412,103133.00698397859,5030656621,False
秦野南が丘,神奈川県,秦野市,南が丘四丁目,35.3556792,139.228561,103199.21814448891,5339012832,False
ライブヒルズ,北海道,札幌市清田区,平岡公園東十丁目,43.002513,141.472915,103579.5814667516,6441430724,False
上地第二特定,愛知県,岡崎市,上地五丁目,34.90844,137.171685,103757.05794314717,5237219321,False
志段味ヒューマンサイエンスタウン,愛知県,名古屋市守山区,大字中志段味字曲畷,35.2463932,137.028989,103774.48116387475,5237609232,False
創造の丘　ナシオン,兵庫県,西宮市,東山台二丁目,34.8307726,135.312514,103915.68649969832,5235129531,False
城南、神鳥谷、雨ヶ谷,栃木県,小山市,西城南四丁目,36.294115,139.805614,103967.11109311815,5439365414,False
アートヒル三好ヶ丘,愛知県,みよし市,三好丘緑一丁目,35.112498,137.113224,104211.99805754714,5237503913,False
五井西,千葉県,市原市,五井西五丁目,35.514703,140.071494,104409.2758564683,5340201543,False
東雁来第２,北海道,札幌市東区,東雁来十条三丁目,43.096,141.431208,104436.62329443463,6441531432,False
乙子高野,茨城県,守谷市,美園四丁目,35.9246705,140.000612,104785.98261177246,5340700033,False
奥野第一,青森県,青森市,緑三丁目,40.80676991411771,140.75030008594553,104803.5815482188,6140166033,False
鶴舞団地,埼玉県,坂戸市,鶴舞四丁目,35.9485059,139.369738,104966.41786366559,5339723943,False
将監ニュータウン,宮城県,仙台市泉区,将監殿三丁目,38.342531,140.876134,104974.9930049343,5740471011,False
富田第一,福島県,郡山市,新屋敷二丁目,37.4192909,140.355242,105101.79923221277,5640120814,False
西部,愛知県,半田市,南二ツ坂町一丁目,34.8877591,136.911824,105152.2914125774,5236276242,False
美鈴ヶ丘,広島県,広島市佐伯区,美鈴が丘西二丁目,34.3941816,132.383011,105337.8466414219,5132437023,False
けいはんな学研都市［精華・西木津地区］,京都府,精華町,精華台三丁目,34.7499301,135.779395,105339.44347908843,5235069234,False
ひよどり台,兵庫県,神戸市北区,ひよどり台三丁目,34.697978,135.122459,105371.97183135124,5235003944,False
座生,千葉県,野田市,桜の里二丁目,35.954695,139.845808,105462.61128373188,5339764741,False
泉パークタウン,宮城県,仙台市泉区,桂三丁目,38.337768,140.862601,105499.1809562439,5740460931,False
志段味ヒューマンサイエンスタウン,愛知県,名古屋市守山区,大字上志段味字前山,35.25282,137.038222,105576.30833436533,5237700313,False
清見台,千葉県,木更津市,清見台東一丁目,35.383959,139.947698,105668.1991958819,5339076522,False
東坂戸団地,埼玉県,坂戸市,東坂戸二丁目,35.953672,139.444889,105741.25831112576,5339734523,False
武岡,鹿児島県,鹿児島市,武岡二丁目,31.5925948,130.514722,106023.44695022675,4730341111,False
自由ヶ丘,兵庫県,三木市,志染町中自由が丘一丁目,34.7830212,135.013332,106068.05904577061,5235103133,False
牛久駅東,茨城県,牛久市,中央三丁目,35.9807317,140.146276,106127.07877931246,5340717141,False
久下第二特定,埼玉県,加須市,久下一丁目,36.119018,139.610524,106179.08866989966,5439144824,False
簗瀬下栗,栃木県,宇都宮市,東簗瀬,36.540278,139.899001,106339.79971215072,5439674144,False
光明台,大阪府,和泉市,光明台三丁目,34.454979,135.487855,106360.21926312524,5135534931,False
明石台,宮城県,富谷市,明石台六丁目,38.347277,140.894036,106752.27085341515,5740471141,False
二子山,群馬県,前橋市,文京町三丁目,36.37611674612733,139.0862061161137,106975.3762855044,5439405622,False
フラワータウン・カルチャータウン,兵庫県,三田市,弥生が丘六丁目,34.8857764,135.198716,107082.04195790434,5235216524,False
本通中央,北海道,函館市,本通二丁目,41.799471,140.769925,107206.76011431916,6240565143,False
常総ニュータウン北守谷,茨城県,守谷市,松前台二丁目,35.9701776,139.967058,107313.03219387245,5339776714,False
橿原ニュータウン,奈良県,橿原市,白橿町二丁目,34.476668,135.789206,107335.42138095551,5135567311,False
別府,埼玉県,熊谷市,別府五丁目,36.1829289,139.337117,107506.88983962794,5439221644,False
下郡,大分県,大分市,下郡中央二丁目,33.2266206,131.633388,107795.50012638504,4931657021,False
古川,広島県,広島市安佐南区,川内六丁目,34.474333,132.488937,107952.734741532,5132536933,False
勢野北部,奈良県,三郷町,勢野北三丁目,34.6092384,135.691138,107960.21165106633,5135753512,False
泉南一丘,大阪府,泉南市,信達大苗代,34.3689803,135.290252,107962.14681367054,5135424313,False
伝法寺,愛知県,一宮市,伝法寺一丁目,35.2653283,136.843713,108075.69301781202,5236761734,False
旭ヶ丘第１グリーンタウン,千葉県,四街道市,旭ケ丘三丁目,35.663474,140.186435,108091.73747605954,5340319442,False
阪急伏尾台,大阪府,池田市,伏尾台三丁目,34.861778,135.438595,108239.23079176126,5235233513,False
若宮,千葉県,市原市,若宮五丁目,35.527686,140.13525,108270.8526915955,5340213024,False
ビックヒルズ飯能美杉台,埼玉県,飯能市,美杉台四丁目,35.8455825,139.307799,108364.77583642046,5339621423,False
観世音寺,福岡県,太宰府市,観世音寺四丁目,33.512524,130.516756,108457.50666527006,5030241132,False
大額第一,石川県,金沢市,大額三丁目,36.514534,136.624578,108541.87785876413,5436641942,False
ポッタリタウン SETO みずの坂,愛知県,瀬戸市,みずの坂五丁目,35.2449533,137.064583,108967.11372226058,5237609513,False
高美台,福岡県,福岡市東区,高美台三丁目,33.689764,130.444536,109023.82340410378,5030432543,False
公津西,千葉県,成田市,はなのき台二丁目,35.777014,140.28246,109243.23482109113,5340523221,False
御成台研究学園都市開発,千葉県,四街道市,鷹の台二丁目,35.632683,140.19605,109572.37633762961,5340315543,False
花畔,北海道,石狩市,花川南二条二丁目,43.152603,141.298369,109592.41792603901,6441528324,False
もみじ台,北海道,札幌市厚別区,もみじ台東一丁目,43.031694,141.49425,109708.22584657297,6441433943,False
城東、城南、城北,栃木県,小山市,駅東通り二丁目,36.311252,139.809991,109795.6028114477,5439367424,False
高浜東,兵庫県,姫路市,飾磨区上野田六丁目,34.803127,134.688882,109884.58744874927,5234156513,False
上野古ヶ場,埼玉県,さいたま市岩槻区,上野五丁目,35.975158,139.696226,109889.0467332536,5339757521,False
籠原中央第二,埼玉県,熊谷市,籠原南三丁目,36.171054,139.327397,109912.30331546484,5439220631,False
半田乙川中部,愛知県,半田市,小神町,34.9108967,136.949451,110021.59509207666,5236279524,False
西郷（２工区）,鹿児島県,鹿児島市,西陵五丁目,31.581277,130.507615,110190.75727758933,4730249043,False
新田,埼玉県,鶴ヶ島市,新町四丁目,35.9349881,139.37139,110200.7155933244,5339722921,False
浄水特定,愛知県,豊田市,浄水町,35.1217989,137.138292,110357.7966917289,5237514131,False
東酒々井,千葉県,酒々井町,東酒々井三丁目,35.728446,140.276501,110361.93938249012,5340427213,False
泡瀬,沖縄県,沖縄市,泡瀬二丁目,26.316921,127.833844,110385.18680350794,3927368621,False
栄町,茨城県,牛久市,栄町三丁目,35.9855504,140.150741,110439.32752271551,5340718213,False
そめい野・みずきが丘,千葉県,佐倉市,染井野五丁目,35.71978,140.190386,110487.92581355563,5340416513,False
わし宮,埼玉県,久喜市,上内,36.089245,139.661396,110545.73857080928,5439150242,False
君塚,千葉県,市原市,君塚三丁目,35.521478,140.103461,110562.5519051109,5340202832,False
豊橋飯村,愛知県,豊橋市,飯村南二丁目,34.7449641,137.42279,110671.24909318703,5237039324,False
手賀の杜,千葉県,柏市,手賀の杜四丁目,35.846363,140.024719,110709.13556610001,5340601142,False
古江上田方,広島県,広島市西区,古田台二丁目,34.3935834,132.404869,110768.78273485981,5132437212,False
原良,鹿児島県,鹿児島市,明和四丁目,31.603284,130.522893,110863.37652047793,4730342124,False
千葉ニュータウン,千葉県,船橋市,小室町,35.792836,140.071831,110925.01630582544,5340505521,False
比屋根,沖縄県,沖縄市,比屋根一丁目,26.3164468,127.824818,111145.0101426627,3927367544,False
パークヒルズ田原,大阪府,四條畷市,田原台五丁目,34.7230313,135.693157,111184.47435819516,5235056534,False
西賀茂,京都府,京都市北区,柊野西賀茂井ノ口町,35.0693703,135.741658,111439.49974910122,5235458914,False
青山,愛知県,半田市,青山三丁目,34.8789611,136.910471,111503.897992324,5236275224,False
高尾第三,石川県,金沢市,高尾台二丁目,36.5227021,136.632131,111545.27312774929,5436652041,False
国見ヶ丘,宮城県,仙台市青葉区,国見ケ丘三丁目,38.290863,140.828547,111564.64037903408,5740364634,False
ベリータウンもねの里,千葉県,四街道市,もねの里二丁目,35.688575,140.189667,111685.21554529855,5340412531,False
府中ニュータウン,広島県,府中町,瀬戸ハイム二丁目,34.390231,132.520502,111746.59379376583,5132446143,False
城東,群馬県,高崎市,高関町,36.32910432904905,139.0280195691915,111772.24445283749,5439309213,False
米野木駅前,愛知県,日進市,米野木台五丁目,35.1269531,137.065822,112020.2630645295,5237505512,False
国分寺台,千葉県,市原市,国分寺台中央三丁目,35.499354,140.117628,112042.3027878433,5340109934,False
桜丘,福岡県,志免町,桜丘二丁目,33.5697489,130.482174,112472.87159715545,5030238823,False
大井川,兵庫県,姫路市,飾磨区今在家北三丁目,34.811918,134.655122,112479.44932790272,5234157214,False
あすみが丘東,千葉県,千葉市緑区,あすみが丘東二丁目,35.5243056,140.277582,112544.51475207342,5340222233,False
桂坂ニュータウン,京都府,京都市西京区,桂坂御陵大枝山町六丁目,34.9840672,135.661605,112726.59788653524,5235358222,False
物見山,新潟県,新潟市東区,幸栄一丁目,37.94347,139.101613,112985.45920603609,5639703811,False
あすみが丘,千葉県,千葉市緑区,あすみが丘三丁目,35.5276018,140.265347,113219.89114027382,5340223113,False
住友北鈴蘭台第二,兵庫県,神戸市北区,泉台五丁目,34.737769,135.13449,113649.90590917946,5235018042,False
日生鈴蘭台,兵庫県,神戸市北区,星和台三丁目,34.7195208,135.125788,113746.52607567143,5235016013,False
屯田中部,北海道,札幌市北区,屯田九条七丁目,43.142174,141.328425,113782.74310428003,6441527612,False
玉里,鹿児島県,鹿児島市,玉里団地一丁目,31.619474,130.546331,113879.79767856991,4730344323,False
茨木サニータウン,大阪府,茨木市,山手台五丁目,34.8633889,135.552884,114034.56456578501,5235243431,False
東白川台,兵庫県,神戸市須磨区,東白川台三丁目,34.694256,135.106666,114057.54271527292,5235003823,False
加茂川特定,愛知県,豊田市,東山町一丁目,35.0869422,137.184159,114340.84084618578,5237510423,False
長沢グリーンハイツ,神奈川県,横須賀市,グリーンハイツ,35.205303,139.672288,114629.2915623901,5239654342,False
王寺ニュータウン,奈良県,王寺町,太子二丁目,34.580012,135.691341,114631.66660669619,5135659532,False
井野東,千葉県,佐倉市,宮ノ台三丁目,35.740946,140.147387,114688.57380617113,5340418144,False
森,愛知県,あま市,森四丁目,35.212207,136.810797,114743.03618191884,5236665424,False
馬堀シーハイツ,神奈川県,横須賀市,馬堀海岸三丁目,35.2620516,139.706468,114765.31133833138,5239751623,False
馬堀海岸分譲地,神奈川県,横須賀市,馬堀海岸三丁目,35.2620516,139.706468,114765.31133833138,5239751623,False
西武ぶしニュータウン,埼玉県,入間市,大字新光,35.8556594,139.359037,114829.71704365879,5339622841,False
八木山団地,宮城県,仙台市太白区,八木山本町一丁目,38.240186,140.84492,114831.02507276575,5740268743,False
イーストタウン高砂,宮城県,仙台市宮城野区,高砂一丁目,38.270178,140.971091,114887.94346574841,5740372723,False
ニュータウンやなぎう,宮城県,仙台市太白区,柳生一丁目,38.196961,140.870497,114889.87655129605,5740263941,False
岩田第二,愛知県,豊橋市,東岩田四丁目,34.7518993,137.42843,114931.3548399206,5237130412,False
小山駅東、東部第一、城南第二,栃木県,小山市,駅南町三丁目,36.303402,139.810846,114952.292786981,5439366424,False
毘沙門台（１期）,広島県,広島市安佐南区,毘沙門台二丁目,34.4738448,132.464012,115002.09586000082,5132536733,False
高浜中部,愛知県,高浜市,神明町一丁目,34.9383339,136.999562,115304.62665882069,5236372942,False
乙川北部,愛知県,半田市,大伝根町一丁目,34.9212948,136.942299,115336.07427399862,5236370532,False
鳶尾,神奈川県,厚木市,鳶尾四丁目,35.491312,139.326531,115737.66954140026,5339128633,False
太田第一,香川県,高松市,上福岡町,34.3271681,134.064685,115752.15841323853,5134309513,False
公津東,千葉県,成田市,公津の杜四丁目,35.760017,140.294498,115839.87783824772,5340521321,False
東区東部,北海道,札幌市東区,伏古十四条五丁目,43.103364,141.407797,115845.15987031476,6441532223,False
南部第一,熊本県,熊本市南区,江越一丁目,32.776035,130.703033,115859.22178364827,4930153611,False
佐野,福岡県,太宰府市,大佐野二丁目,33.50331,130.494983,116105.54190979866,5030230923,False
桂台,北海道,札幌市清田区,里塚二条二丁目,42.990287,141.463974,116563.4311456908,6441338733,False
羊ヶ丘通,北海道,札幌市清田区,美しが丘三条五丁目,42.982235,141.455712,116571.71536139911,6441337634,False
米本,千葉県,八千代市,米本団地,35.756177,140.11405,116813.10763442345,5340500931,False
五所第二,千葉県,市原市,東五所,35.527393000000004,140.114195,116824.4389629724,5340203913,False
南北田原,奈良県,生駒市,西白庭台二丁目,34.7275649,135.707725,116829.06079719032,5235057623,False
西白庭台ガーデンヒルズ,奈良県,生駒市,西白庭台二丁目,34.7275672,135.707731,116829.06079719032,5235057623,False
西条第一,広島県,東広島市,西条中央六丁目,34.4168315,132.73886,116925.81124962006,5132550911,False
光台,京都府,精華町,光台五丁目,34.7411851,135.757238,116957.54488898434,5235068043,False
南ヶ丘2区,福岡県,大野城市,南ケ丘七丁目,33.498532,130.478518,117031.23939199885,5030139834,False
東部,埼玉県,東松山市,六軒町,36.0330074,139.417849,117048.25390978021,5439033334,False
山の街ニュータウン,兵庫県,神戸市北区,桂木三丁目,34.7537664,135.143932,117064.52893232033,5235110123,False
惣山町,兵庫県,神戸市北区,惣山町三丁目,34.735088,135.154281,117121.4901409313,5235018212,False
茶屋新田,愛知県,名古屋市港区,西茶屋二丁目,35.105237,136.823405,117235.37440702616,,False
阪急北ネオポリス,兵庫県,川西市,大和東三丁目,34.88924,135.421851,117402.79117464257,5235236341,False
屯田東,北海道,札幌市北区,屯田九条三丁目,43.142879,141.342995,117525.59201487931,6441527712,False
祇園山本地区,広島県,広島市安佐南区,山本新町三丁目,34.4441478,132.438543,117699.09185361916,5132533513,False
上重原特定,愛知県,知立市,上重原二丁目,34.9986606,137.02847,117792.53573485317,5237309234,False
生駒イトーピア,奈良県,生駒市,鹿ノ台南二丁目,34.7350289,135.748757,117800.53015574219,5235058922,False
箕田赤見台,埼玉県,鴻巣市,赤見台一丁目,36.085523,139.480362,117975.85583292099,5439130814,False
City&Cityちはら台,千葉県,市原市,ちはら台西六丁目,35.529293,140.184259,118105.74869224102,5340213441,False
田尻,福岡県,福岡市西区,泉二丁目,33.5783864,130.242675,118155.064860066,5030219914,False
武蔵ヶ丘第２,熊本県,熊本市北区,武蔵ケ丘五丁目,32.853346,130.769914,118390.88780319995,4930262123,False
香芝市高山台,奈良県,香芝市,高山台二丁目,34.5481027,135.679015,118583.56050256733,5135655434,False
緑丘,愛知県,岡崎市,緑丘二丁目,34.9169115,137.179956,118780.51846275025,5237310412,False
上地第一特定,愛知県,岡崎市,上地二丁目,34.911361,137.168251,118875.55673492,5237219314,False
洛北第一,京都府,京都市左京区,岩倉南岩倉南桑原町,35.0651617,135.784104,118883.30849639018,5235467243,False
桃花台,愛知県,小牧市,古雅一丁目,35.3024575,136.983706,119037.4760053286,5236776823,False
湘南めぐみが丘,神奈川県,平塚市,めぐみが丘一丁目,35.3491366,139.294307,119057.59234687014,5339021343,False
いずみ向陽台,宮城県,仙台市泉区,向陽台二丁目,38.338795,140.896719,119187.98085263897,5740470141,False
筑波研究学園都市,茨城県,つくば市,竹園二丁目,36.077754,140.118856,119235.00737743489,5440009923,False
若草町,兵庫県,神戸市須磨区,車,34.688028,135.113232,119264.18917616997,5235002931,False
日向岡,神奈川県,平塚市,日向岡二丁目,35.3406148,139.299405,119291.15196012215,5339020344,False
虹の丘,宮城県,仙台市泉区,虹の丘二丁目,38.304655,140.868888,119320.55073245503,5740366941,False
梅の里,大阪府,富田林市,梅の里一丁目,34.526624,135.595726,119485.36080591509,5135643721,False
向洋,広島県,広島市南区,向洋新町二丁目,34.363542,132.509018,119526.02001276785,5132443041,False
柏の葉,千葉県,柏市,柏の葉四丁目,35.8969098,139.939911,119569.74283799075,,False
野々市西部,石川県,野々市市,野代一丁目,36.538554,136.6037,119683.77239812177,5436644832,False
杉戸高野台,埼玉県,杉戸町,高野台西三丁目,36.050799,139.71193,119878.5785482369,5439056622,False
岩崎山前,愛知県,小牧市,大字岩崎,35.3096246,136.935309,119972.13615857965,5236777422,False
大久保東,兵庫県,明石市,大久保町高丘一丁目,34.70245,134.949026,120015.88658825838,5234074524,False
有野,兵庫県,神戸市北区,有野台五丁目,34.813028,135.229812,120113.11578803742,5235117832,False
けいはんな学研都市［精華・西木津地区］,京都府,木津川市,木津川台六丁目,34.743692,135.785919,120295.34645835434,5235069222,False
洛北第二,京都府,京都市左京区,岩倉南岩倉三笠町,35.0698421,135.784973,120327.70314635256,5235468224,False
江南,愛知県,江南市,藤ケ丘四丁目,35.3543909,136.855205,120401.97972947675,5336062832,False
生の松原,福岡県,福岡市西区,西の丘三丁目,33.5659848,130.298867,120450.19371576507,5030227344,False
立野,奈良県,三郷町,立野南二丁目,34.5935283,135.686619,120482.26891836742,5135751422,False
第百野比,神奈川県,横須賀市,粟田一丁目,35.227725,139.679356,120672.77037315482,5239657414,False
広陵町・筑紫が丘・小倉台,兵庫県,神戸市北区,筑紫が丘一丁目,34.747572,135.164452,120688.67082853429,5235019331,False
本城西部,福岡県,北九州市八幡西区,折尾三丁目,33.8678574,130.712277,121067.2563529874,5030654622,False
千葉ニュータウン,千葉県,印西市,中央南一丁目,35.801047,140.118481,121099.5943552686,,False
春田野,愛知県,名古屋市港区,春田野二丁目,35.114977,136.814691,121156.6862174464,5236563533,False
北大和,奈良県,生駒市,北大和一丁目,34.7251832,135.72993,121244.61807276041,5235057812,False
千城台,千葉県,千葉市若葉区,千城台南一丁目,35.619942,140.192971,121337.7288199625,5340314514,False
余野,愛知県,大口町,余野四丁目,35.3408494,136.90798,121355.99801833763,5336070243,False
七光台駅西,千葉県,野田市,光葉町二丁目,35.967279,139.849734,121366.86693566732,5339766722,False
若松鈴見,石川県,金沢市,もりの里二丁目,36.5547693,136.686648,121787.71502149892,5436656442,False
み春野翼の丘,千葉県,千葉市花見川区,み春野二丁目,35.693273,140.138176,121835.92948169187,5340413111,False
幸手,埼玉県,幸手市,栄,36.0570669,139.720915,122067.50620815344,5439056743,False
鈴ヶ峰,広島県,広島市西区,鈴が峰町,34.3809048,132.393746,122092.67187881537,5132435132,False
志段味ヒューマンサイエンスタウン,愛知県,名古屋市守山区,大字下志段味字濁り池,35.2435027,137.017728,122494.7177920083,5237609112,False
西崎地区,沖縄県,糸満市,西崎二丁目,26.143727,127.666533,122586.99188915723,3927157312,False
東部,愛知県,豊田市,美里一丁目,35.0794277,137.18331,122639.40315074565,5237419441,False
伊勢原なるせ 大山ガーデン,神奈川県,伊勢原市,高森二丁目,35.4087723,139.32327,122710.05688535528,5339029522,False
新知,愛知県,知多市,新知東町一丁目,34.982296,136.866324,122806.50685224966,5236367934,False
梅の里,大阪府,富田林市,梅の里三丁目,34.527967,135.591477,122840.09746897449,5135643714,False
舘ヶ丘,東京都,八王子市,館町,35.627094,139.2875,122864.17017711281,5339325224,False
幕張新都心,千葉県,千葉市美浜区,浜田二丁目,35.652903,140.03427,123142.04678945526,,False
紫竹石山,新潟県,新潟市東区,東明二丁目,37.9015038,139.084127,123322.03871990586,5639608621,False
多田グリーンハイツ,兵庫県,川西市,向陽台三丁目,34.873503,135.403404,123322.97828598083,5235234234,False
常総ニュータウン,茨城県,取手市,戸頭三丁目,35.923741,140.012595,123732.60295420053,5340700133,False
将監団地,宮城県,仙台市泉区,将監七丁目,38.335244,140.878179,123742.88841832777,5740470012,False
西大和ニュータウン,奈良県,河合町,中山台一丁目,34.5806304,135.720189,123949.4834212972,5135659741,False
美和台,福岡県,福岡市東区,美和台七丁目,33.701743,130.428357,124326.31913410928,5030434412,False
富士見ヶ丘,栃木県,宇都宮市,旭一丁目,36.555143,139.882609,124476.96443379798,5439676041,False
東急ニュータウン柏ビレッジ,千葉県,柏市,大室,35.904746,139.966357,124477.24730104375,5339678732,False
水野,愛知県,瀬戸市,はぎの台一丁目,35.239556,137.071774,124887.88576027121,5237608541,False
下上津役永犬丸,福岡県,北九州市八幡西区,三ケ森四丁目,33.834909,130.739139,125204.20146552076,5030650911,False
宝町団地,宮城県,仙台市青葉区,川平三丁目,38.304453,140.838547,125243.6080266555,5740366731,False
高塚山地区開発事業,兵庫県,神戸市垂水区,小束山手一丁目,34.674053,135.064455,125299.79322919196,5235000533,False
清和台,兵庫県,川西市,清和台西二丁目,34.8739646,135.387208,125604.63361806782,5235234044,False
尾生久米田,大阪府,岸和田市,尾生町四丁目,34.4495811,135.41216,125989.19171105782,5135533244,False
常総ニュータウン南守谷,茨城県,守谷市,けやき台六丁目,35.939517,139.990705,126016.05998037105,5339772932,False
中山台ニュータウン,兵庫県,宝塚市,中山桜台二丁目,34.8346032,135.365606,126138.8105168093,5235220911,False
青梅東部三ツ原,東京都,青梅市,藤橋三丁目,35.797766,139.308781,127248.24242326933,5339525441,False
湖北台,千葉県,我孫子市,湖北台七丁目,35.863604,140.068954,127376.50077380262,5340603541,False
高良内ニュータウン,福岡県,久留米市,城南町,33.319249,130.508367,127476.98960691711,4930748023,False
豊橋福岡東部,愛知県,豊橋市,佐藤一丁目,34.7460779,137.403058,127884.59547793733,5237039231,False
西大輪,埼玉県,久喜市,西大輪二丁目,36.09168,139.6775,127900.84627890775,5439151411,False
あすか野,奈良県,生駒市,あすか野南一丁目,34.712214,135.718875,127906.13006422734,5235055723,False
瑞穂町西部,東京都,瑞穂町,長岡一丁目,35.775138,139.333162,127918.0374275499,5339523621,False
イーステーション新田東,宮城県,仙台市宮城野区,新田東三丁目,38.277035,140.934613,127944.92633850517,5740373422,False
野田瑞季の街,千葉県,野田市,みずき三丁目,35.921817,139.886287,128087.40854196293,5339770042,False
朝倉,愛知県,知多市,つつじが丘一丁目,34.985583,136.871088,128117.27143333029,5236368923,False
真弓住宅地,奈良県,生駒市,真弓二丁目,34.721906,135.730557,128233.289077319,5235056832,False
押野第一,石川県,野々市市,押野一丁目,36.542437,136.616958,128270.49365691931,5436645912,False
野々市町押野第一,石川県,野々市市,押野一丁目,36.542437,136.616958,128270.49365691931,5436645912,False
阪急宝塚山手台,兵庫県,宝塚市,山手台西三丁目,34.8348,135.377477,128534.68573226206,5235230011,False
宝塚サングリーン,兵庫県,宝塚市,山手台西三丁目,34.8348,135.377477,128534.68573226206,5235230011,False
野牛・高岩,埼玉県,白岡市,新白岡八丁目,36.0361342,139.670985,128605.78295242444,5439054323,False
北・南貴望ヶ丘,大阪府,河内長野市,北貴望ケ丘,34.467876,135.557792,128640.98186601984,5135546421,False
登美ヶ丘10次,奈良県,奈良市,東登美ヶ丘四丁目,34.7201846,135.756414,128659.55407199262,5235066023,False
長町恵通苑,宮城県,仙台市青葉区,貝ケ森一丁目,38.282795,140.840433,128663.37450928621,5740363733,False
南ヶ丘2区,福岡県,大野城市,南ケ丘三丁目,33.501503,130.48007,128882.88352950088,5030230812,False
安城新幹線駅周辺,愛知県,安城市,三河安城南町一丁目,34.9682569,137.062314,129036.92210202834,5237306422,False
乙金第二,福岡県,大野城市,乙金一丁目,33.5452393,130.493116,129133.42908804998,5030235914,False
さつき野,大阪府,堺市美原区,さつき野西三丁目,34.531132,135.581113,129150.1890132778,5135643632,False
美里,沖縄県,沖縄市,美原四丁目,26.3486614,127.819735,129161.76437320057,3927461543,False
住友北鈴蘭台第一,兵庫県,神戸市北区,泉台三丁目,34.739602,135.141363,129202.55583137952,5235018134,False
豊橋柳生川南部,愛知県,豊橋市,柱五番町,34.7479705,137.369218,129297.1343629982,5237029943,False
青葉台,大阪府,和泉市,青葉台一丁目,34.4442001,135.468291,129706.51110561193,5135533714,False
臼井生谷,千葉県,佐倉市,王子台四丁目,35.72457,140.181733,129948.39295502582,5340416443,False
浅羽野,埼玉県,坂戸市,浅羽野一丁目,35.956454,139.383738,129969.33513878238,5339734043,False
夢前川,兵庫県,姫路市,佃町,34.815327,134.685515,130235.62761692471,5234157444,False
湘南テラス,神奈川県,平塚市,北金目一丁目,35.3678867,139.284026,130403.92896198283,5339024221,False
ポッタリタウン SETO やまて坂,愛知県,瀬戸市,やまて坂二丁目,35.2335267,137.069338,130607.61374211387,5237608521,False
-（長浦町1－31）,神奈川県,横須賀市,小川町,35.281358,139.672064,130773.03989608788,5239753344,False
菱野,愛知県,瀬戸市,八幡台三丁目,35.2070971,137.095968,130988.17594115883,5237604743,False
東郷諸輪,愛知県,東郷町,白鳥三丁目,35.1118153,137.057478,131043.56954801237,5237503423,False
本地ヶ原北部,愛知県,尾張旭市,北本地ケ原町三丁目,35.198483,137.038947,131049.95816828901,5237603333,False
青毛特定,埼玉県,久喜市,青毛二丁目,36.0747863,139.701965,131132.08430735613,5439058633,False
安城南部,愛知県,安城市,城南町一丁目,34.9500068,137.078827,131197.0809687893,5237304612,False
中部（第２工区）,兵庫県,姫路市,飾磨区中野田一丁目,34.805752,134.680192,131200.511779387,5234156432,False
真志喜,沖縄県,宜野湾市,真志喜三丁目,26.2745826,127.735911,131315.7053835625,3927352844,False
下市場,愛知県,春日井市,下市場町六丁目,35.2574459561406,137.004228317564,131363.41683417323,5237700034,False
君影町,兵庫県,神戸市北区,君影町三丁目,34.716923,135.138509,131393.81003193694,5235016111,False
大高南,愛知県,名古屋市緑区,南大高二丁目,35.0552614,136.944745,131395.6828124026,5236476541,False
野添,兵庫県,播磨町,西野添三丁目,34.719692,134.877176,131528.6629024708,5234076013,False
徳力,福岡県,北九州市小倉南区,徳力三丁目,33.8260766,130.866351,131538.4542817679,5030569912,False
志段味ヒューマンサイエンスタウン,愛知県,名古屋市守山区,笹ヶ根三丁目,35.2346298,137.002314,131931.1586720906,5237608011,False
北別府,兵庫県,神戸市西区,北別府三丁目,34.6738481,135.01272,131963.7905513153,5235000133,False
労信葉桜団地,神奈川県,逗子市,桜山七丁目,35.2883508,139.588827,131975.01975634973,5239744731,False
西秋留駅北口,東京都,あきる野市,秋川四丁目,35.731965,139.288461,132017.00671471495,5339427333,False
白岡ＮＴ,埼玉県,白岡市,新白岡二丁目,36.0356442,139.67652,132254.8601246679,5439054413,False
富雄,奈良県,奈良市,鳥見町四丁目,34.6948903,135.721473,132530.39421000538,5235053723,False
江端,愛知県,大府市,江端町四丁目,35.0106046,136.954181,132965.55853435444,5236471614,False
しおだ,神奈川県,相模原市中央区,田名塩田二丁目,35.5340236,139.354234,132987.32432669975,5339224812,False
南ヶ丘1区,福岡県,大野城市,緑ケ丘四丁目,33.5040865,130.486003,133125.46956449762,5030230824,False
平城・相楽ニュータウン,京都府,木津川市,相楽台一丁目,34.7263358,135.789364,133178.53951336475,5235067311,False
牛頚,福岡県,大野城市,畑ケ坂二丁目,33.502183,130.462554,133261.09541800868,5030230713,False
多加木,愛知県,一宮市,多加木三丁目,35.2805829,136.814787,133357.4030692391,5236763531,False
池田,静岡県,静岡市駿河区,曲金七丁目,34.9820149,138.421548,133643.5994625149,5238337343,False
藤ヶ丘,兵庫県,川西市,湯山台一丁目,34.8498705,135.401071,133788.66770021906,5235231233,False
半城土,愛知県,刈谷市,半城土中町二丁目,34.9774816,137.019416,133977.7168542264,5237307123,False
桃山台,兵庫県,神戸市垂水区,桃山台三丁目,34.6562144,135.08185,133995.97467289242,5135708641,False
四街道南,千葉県,千葉市若葉区,若松台一丁目,35.651577,140.169582,134110.58366879984,5340318321,False
安城北部,愛知県,安城市,里町一丁目,34.9922131,137.092003,134120.8736821547,5237309712,False
大留,愛知県,春日井市,大留町七丁目,35.2593737,137.023559,134157.58013410924,5237701122,False
高蔵寺ニュータウン,愛知県,春日井市,岩成台四丁目,35.2787678,137.037618,134168.20941730554,5237703313,False
花住坂,京都府,京田辺市,花住坂三丁目,34.831947,135.736549,134328.68815083543,5235159844,False
あかね団地,神奈川県,伊勢原市,高森三丁目,35.4137543,139.327845,134390.31895007187,5339029631,False
こてはし,千葉県,千葉市花見川区,こてはし台三丁目,35.687,140.12156,134417.5964975758,5340402923,False
清洲西部,愛知県,清須市,西市場三丁目,35.219048,136.833858,134571.67279210224,5236666623,False
駅東第三,栃木県,宇都宮市,中今泉三丁目,36.5685718,139.908749,134638.9740571921,5439678221,False
安城東部,愛知県,安城市,法連町,34.9562499,137.09588,134778.28399019944,5237304741,False
西広島,広島県,広島市西区,高須台三丁目,34.3994363,132.413945,134895.19100573653,5132437333,False
南新宿,埼玉県,蓮田市,西新宿三丁目,36.004014,139.65241,135104.4486271613,5439050213,False
出川中部,愛知県,春日井市,出川町三丁目,35.264701,137.021887,135243.68657084182,5237701144,False
御笠川東部,福岡県,大野城市,筒井四丁目,33.5449,130.483833,135272.37478263257,5030235823,False
平城・相楽ニュータウン,奈良県,奈良市,朱雀三丁目,34.7227028,135.793001,135317.52804050507,5235066332,False
川間駅南,千葉県,野田市,岩名二丁目,35.974334,139.836463,135329.81077679328,5339766644,False
西浦,三重県,四日市市,安島一丁目,34.967526,136.613359,135414.22683754473,5236346911,False
松井ケ丘,京都府,京田辺市,花住坂二丁目,34.833109,135.731811,135699.7306922492,5235159843,False
白庭台,奈良県,生駒市,白庭台四丁目,34.7222552,135.715071,135894.16756211667,5235056731,False
（仮称）白庭駅前,奈良県,生駒市,白庭台四丁目,34.7222552,135.715071,135894.16756211667,5235056731,False
（仮称）白庭駅前（１工区）,奈良県,生駒市,白庭台四丁目,34.7222552,135.715071,135894.16756211667,5235056731,False
北刈谷,愛知県,刈谷市,稲場町一丁目,35.0021221,136.998696,136331.58376732387,5236470924,False
城山,神奈川県,横須賀市,大矢部四丁目,35.23605,139.670753,136510.71476427067,5239658323,False
伊奈町中部,埼玉県,伊奈町,大字小室,36.0004029,139.618237,136633.1166252945,5439040912,False
大住ケ丘,京都府,京田辺市,大住ケ丘三丁目,34.8300274,135.741453,136653.72535795474,5235159932,False
伊奈町北部,埼玉県,伊奈町,寿三丁目,36.0063535,139.603988,136794.11043299115,5439040834,False
東野,愛知県,春日井市,東野町二丁目,35.266593,136.983408,136903.6521502112,5236771843,False
第２勝山（東勝山）,宮城県,仙台市青葉区,東勝山三丁目,38.29738,140.865537,137061.97211464323,5740365931,False
伊奈,埼玉県,伊奈町,内宿台三丁目,36.0141384,139.60237,137080.67293928395,5439041831,False
京阪平尾,京都府,宇治市,平尾台四丁目,34.9258678,135.814259,137208.33686834603,5235361511,False
桜ヶ丘,鹿児島県,鹿児島市,桜ヶ丘四丁目,31.5501711,130.51619,137301.05506129103,4730246112,False
鎌倉逗子ハイランド,神奈川県,逗子市,久木八丁目,35.3100462,139.573451,137351.8507086227,5239747522,False
今泉台,神奈川県,鎌倉市,今泉台二丁目,35.3405177,139.559899,137353.33706291785,5339040444,False
桜ヶ丘団地,宮城県,仙台市青葉区,桜ケ丘五丁目,38.301085,140.849483,137683.88187978513,5740366722,False
七里ヶ浜,神奈川県,鎌倉市,七里ガ浜東四丁目,35.310783,139.516232,137722.33533257336,5239747114,False
西部第二,岡山県,岡山市北区,今二丁目,34.6493116,133.89881,137776.13474577776,5133777144,False
白井・沼南,千葉県,白井市,西白井二丁目,35.798288,140.030494,137821.66565235713,5340505234,False
筑波研究学園都市,茨城県,つくば市,竹園一丁目,36.083234,140.118685,138241.1841915453,5440009934,False
須磨ニュータウン,兵庫県,神戸市須磨区,高倉台三丁目,34.6560309,135.104271,138307.6843106687,5135708832,False
大和真美ヶ丘ニュータウン,奈良県,香芝市,真美ヶ丘六丁目,34.543331,135.719575,138368.87289785765,5135655721,False
屯田,北海道,札幌市北区,屯田七条七丁目,43.135989,141.32997,138546.72274951873,6441526614,False
ユーカリが丘ニュータウン,千葉県,佐倉市,ユーカリが丘二丁目,35.72994,140.155404,138603.79869798513,5340417232,False
成田ニュータウン,千葉県,成田市,赤坂二丁目,35.7777962,140.291661,138626.02344816,5340523314,False
荒井,宮城県,仙台市若林区,荒井二丁目,38.244753,140.940599,138836.1009200737,5740279513,False
甲栄台・若葉台,兵庫県,神戸市北区,甲栄台三丁目,34.741225,135.149517,138900.09176020548,5235018144,False
甲栄台・若葉台,兵庫県,神戸市北区,甲栄台三丁目,34.741225,135.149517,138900.09176020548,5235018144,False
甲栄台・若葉台,兵庫県,神戸市北区,甲栄台三丁目,34.741225,135.149517,138900.09176020548,5235018144,False
甲栄台・若葉台,兵庫県,神戸市北区,甲栄台三丁目,34.741225,135.149517,138900.09176020548,5235018144,False
北刈谷第二,愛知県,刈谷市,築地町二丁目,35.0133199,137.018612,138915.8455641467,5237401132,False
知立第三,愛知県,知立市,鳥居一丁目,35.0049544,137.033643,138960.6564732167,5237400241,False
南気噴,愛知県,春日井市,気噴町四丁目,35.2629036,137.031489,139083.60694295197,5237701241,False
北部第二（三地区）,神奈川県,藤沢市,土棚,35.4016921,139.448861,139338.17712291025,5339038522,False
登美ヶ丘11次１期,奈良県,奈良市,中登美ヶ丘三丁目,34.721192,135.751398,139520.65198267717,5235066031,False
津嘉山北,沖縄県,南風原町,字津嘉山,26.1908564,127.714748,139609.8294535865,3927252733,False
緑ヶ丘,大阪府,和泉市,緑ヶ丘一丁目,34.4459427,135.456963,139869.10449958275,5135533641,False
西原,沖縄県,浦添市,西原一丁目,26.25017,127.74082,140247.07911199235,3927350912,False
美里第二,沖縄県,沖縄市,美里仲原町,26.3440773,127.825099,140356.51320435546,3927461613,False
西神ニュータウン,兵庫県,神戸市西区,学園東町五丁目,34.6845753,135.064276,140401.0165793888,5235002511,False
井口台パークタウン,広島県,広島市西区,井口台一丁目,34.3790276,132.379395,140785.30500224448,5132435014,False
黒浜,埼玉県,蓮田市,藤ノ木二丁目,35.985907,139.6661,140823.8731146457,5339758314,False
岩戸,神奈川県,横須賀市,岩戸四丁目,35.2314963,139.670093,140879.47080895,5239657343,False
赤池箕ノ手,愛知県,日進市,赤池町,35.1158889,137.023898,140941.801984941,5237503144,False
竹の山南部,愛知県,日進市,竹の山二丁目,35.1550337,137.035627,140953.02023390503,5237508242,False
つくばエクスプレスタウン,千葉県,柏市,小青田三丁目,35.912984,139.956186,140977.80792994864,5339679632,False
森本,愛知県,一宮市,森本三丁目,35.289573,136.813722,141290.1413853684,5236764531,False
旭ケ丘,奈良県,香芝市,旭ケ丘三丁目,34.5543398,135.691437,141708.03544330827,5135656532,False
安城作野,愛知県,安城市,住吉町七丁目,34.9835857,137.0757,141951.37103305708,5237308611,False
渦ケ森,兵庫県,神戸市東灘区,渦森台三丁目,34.739373,135.247683,142007.75457619366,5235018942,False
京阪東ローズタウン,京都府,八幡市,欽明台西,34.839256,135.716297,142187.17451579592,5235250732,False
石井,埼玉県,坂戸市,柳町,35.965659,139.410964,142209.27190628517,5339735244,False
須磨ニュータウン,兵庫県,神戸市須磨区,友が丘八丁目,34.6688222,135.094654,142608.45064418318,5235000723,False
伏見西部第二,京都府,京都市伏見区,下鳥羽下鳥羽平塚町,34.9359613,135.746178,142871.15331996942,5235352923,False
狭山ニュータウン,大阪府,大阪狭山市,大野台二丁目,34.479816,135.541842,143201.09151630694,5135547332,False
臼井駅南,千葉県,佐倉市,王子台三丁目,35.727294,140.180172,143238.62914764573,5340417414,False
今,岡山県,岡山市北区,今五丁目,34.6438834,133.894411,143294.40417703358,5133777123,False
City&Cityおゆみ野,千葉県,千葉市緑区,おゆみ野中央五丁目,35.55641,140.173343,143372.69706665375,5340216344,False
学園緑ケ丘,兵庫県,神戸市垂水区,小束山二丁目,34.671794,135.066712,143408.5573062286,5235000532,False
白山,愛知県,春日井市,白山町二丁目,35.269759,137.035443,143541.7928594223,5237702224,False
吉羽,埼玉県,久喜市,吉羽四丁目,36.0656133,139.69057,143839.0916386626,5439057533,False
平沼,埼玉県,久喜市,青葉一丁目,36.0696433,139.69669,144383.8708020245,5439058523,False
名谷つつじが丘,兵庫県,神戸市垂水区,つつじが丘四丁目,34.659299,135.076282,145088.70089267296,5135709611,False
福田,愛知県,名古屋市港区,七反野一丁目,35.114116,136.82068,145279.71121400266,5236563541,False
玉津,兵庫県,神戸市西区,曙町,34.6688231,134.979798,145393.60235998034,5234070814,False
東郷西部特定,愛知県,東郷町,兵庫一丁目,35.0922238,137.023565,145906.20213995918,5237501122,False
春日,福岡県,春日市,春日六丁目,33.517855,130.466423,145908.57663894692,5030232712,False
ていね稲積,北海道,札幌市手稲区,前田四条六丁目,43.118481,141.259954,146048.60338899773,6441524022,False
よこすか海辺ニュータウン,神奈川県,横須賀市,平成町一丁目,35.2717092,139.683018,146096.5744961338,5239752441,False
湘南ハイランド,神奈川県,横須賀市,ハイランド四丁目,35.2238484,139.689563,146523.50739968507,5239656533,False
南ヶ丘1区,福岡県,大野城市,南ケ丘一丁目,33.507139,130.484555,146740.63394513822,5030230844,False
鈴蘭台,兵庫県,神戸市北区,北五葉一丁目,34.7262358,135.134826,146749.48297366741,5235017022,False
松井山手,京都府,京田辺市,山手南一丁目,34.83008,135.722252,146907.66602341988,5235159742,False
青梅東部新町,東京都,青梅市,新町七丁目,35.78577,139.309602,146923.91267298814,5339524424,False
徳力,福岡県,北九州市小倉南区,徳力団地,33.8307842,130.864666,146984.0347336321,5030569931,False
伏見西部第一,京都府,京都市伏見区,下鳥羽中島前山町,34.9467788,135.745789,147214.84118100582,5235353941,False
中田第一,宮城県,仙台市太白区,西中田五丁目,38.193942,140.878115,147271.03628567045,5740273013,False
湘南鷹取台,神奈川県,横須賀市,湘南鷹取二丁目,35.30658,139.619748,147339.85367999217,5239746943,False
東川下,北海道,札幌市白石区,川下三条四丁目,43.050764,141.446614,147439.04364138262,6441436521,False
仲畑,福岡県,大野城市,仲畑二丁目,33.5553706,130.469037,147607.8921129963,5030236741,False
南平野,埼玉県,さいたま市岩槻区,南平野四丁目,35.955201,139.716732,148496.22202794877,5339754732,False
津田くにみ坂,大阪府,枚方市,津田山手一丁目,34.8068927,135.70823,149415.68521081173,5235156643,False
滑石団地,長崎県,長崎市,上町,32.750307,129.877901,149447.41047770923,4929170011,False
横尾団地,長崎県,長崎市,上町,32.750307,129.877901,149447.41047770923,4929170011,False
三重地区住宅団地,長崎県,長崎市,上町,32.750307,129.877901,149447.41047770923,4929170011,False
富丘北,北海道,札幌市手稲区,富丘一条五丁目,43.111526,141.250191,149504.9443694782,6441523013,False
鶴ヶ谷団地,宮城県,仙台市宮城野区,鶴ケ谷二丁目,38.287747,140.915279,149584.2823238492,5740374331,False
潮芦屋,兵庫県,芦屋市,陽光町,34.711181,135.314759,149610.75188030364,5235025513,False
浦添南第一,沖縄県,浦添市,字前田,26.2382798,127.726904,150318.52719925056,3927258831,False
南部第二,愛知県,春日井市,森山田町,35.2227496,136.95396,150479.05627111928,5236676632,False
湘南鷹取台,神奈川県,横須賀市,追浜南町三丁目,35.309907,139.616011,150675.09871316756,5239747912,False
足立,福岡県,北九州市小倉北区,足立二丁目,33.8676826,130.898652,150757.83391783375,5030674122,False
伊都,福岡県,福岡市西区,西都二丁目,33.5774271,130.262929,150819.83194954213,5030229113,False
弥生町,大阪府,和泉市,弥生町二丁目,34.469964,135.442819,151725.59594083566,5135536514,False
富沢駅南,宮城県,仙台市太白区,南大野田,38.211192,140.869682,151731.71901581643,5740265923,False
東鷲宮,埼玉県,久喜市,桜田一丁目,36.09447,139.680347,151771.07800584362,5439151414,False
泉中央,宮城県,仙台市泉区,泉中央三丁目,38.324673,140.882578,151889.04525725928,5740378043,False
成瀬第一,神奈川県,伊勢原市,東成瀬,35.4100336,139.343308,152132.33600486116,5339029712,False
沓掛,愛知県,豊明市,二村台五丁目,35.0650932,137.00738,152237.80530570366,5237407043,False
ラ・ビスタ宝塚,兵庫県,宝塚市,すみれガ丘二丁目,34.8230473,135.343033,152313.1086328455,5235128734,False
松河戸,愛知県,春日井市,松河戸町四丁目,35.2224486,136.96605,152941.632041157,5236676732,False
学園前ネオポリス,奈良県,奈良市,学園大和町一丁目,34.6879121,135.747159,152958.03614758313,5235052942,False
西神ニュータウン,兵庫県,神戸市西区,竹の台六丁目,34.7175798,135.014524,153283.33996527814,5235006111,False
グリーンヒル寺田,東京都,八王子市,寺田町,35.62296,139.305761,153283.52948626454,5339324434,False
那覇第一地区,沖縄県,那覇市,松山一丁目,26.218788,127.677698,153412.79124398337,3927256413,False
みそのウィングシティ,埼玉県,さいたま市岩槻区,美園東二丁目,35.902548,139.731631,153427.04540244504,5339658823,False
西宮の沢,北海道,札幌市手稲区,西宮の沢二条三丁目,43.102612,141.262872,153896.000851897,6441522113,False
厚木毛利台団地,神奈川県,厚木市,毛利台二丁目,35.439327,139.329911,153911.3662388232,5339122632,False
村上,千葉県,八千代市,村上団地,35.729877,140.123483,154387.15465942788,5340407942,False
伊奈南部,埼玉県,伊奈町,栄三丁目,35.9804636,139.639911,154432.70157546032,5339757131,False
上日出谷南,埼玉県,桶川市,大字上日出谷,36.0041717,139.543906,154508.162270243,5439040341,False
狭山ニュータウン,大阪府,大阪狭山市,西山台二丁目,34.486096,135.545325,154950.9430988859,5135548323,False
長湫東部,愛知県,長久手市,東狭間,35.1711304,137.040863,155163.56463807408,5237600332,False
川越ニューシティいせはら,埼玉県,川越市,的場新町,35.920298,139.428064,155216.64776298645,5339730413,False
折戸東部,愛知県,日進市,栄三丁目,35.1208884,137.051714,155665.58957035973,5237504431,False
卓ヶ洞東部,愛知県,尾張旭市,桜ケ丘町三丁目,35.2167403,137.013856,155714.8516657449,5237606111,False
トリヴェール和泉,大阪府,和泉市,はつが野二丁目,34.4484635,135.459784,155761.01950419505,5135533644,False
浦添南第二,沖縄県,浦添市,字沢岻,26.2385831,127.71464,156049.50495085787,3927258731,False
野田第一,愛知県,刈谷市,東刈谷町二丁目,34.9756559,137.038066,156074.14452305748,5237307311,False
万場川東,愛知県,名古屋市中川区,万場四丁目,35.153477,136.829372,156614.55031034732,5236568614,False
相模吉岡団地,神奈川県,綾瀬市,綾西一丁目,35.432771,139.4135,157215.5968370936,5339131333,False
野村,滋賀県,草津市,野村一丁目,35.028696,135.956583,157349.88938245818,5235473623,False
柴崎,千葉県,我孫子市,柴崎台二丁目,35.875496,140.043607,157533.51635780116,5340605312,False
浦和東部第一,埼玉県,さいたま市緑区,大字南部領辻,35.895969,139.722083,157620.99707101085,5339657742,False
長湫南部,愛知県,長久手市,市が洞二丁目,35.162184,137.030135,157955.20967982695,5237509214,False
湘南鷹取台,神奈川県,横須賀市,湘南鷹取五丁目,35.311833,139.614212,158093.16243247082,5239747913,False
岩倉,愛知県,岩倉市,東新町,35.2795949,136.884098,158115.3720183382,5236773041,False
的場,埼玉県,川越市,的場一丁目,35.913494,139.428375,158157.4000583674,5339639432,False
第二阪和中央,大阪府,岸和田市,小松里町,34.4619922,135.397715,158703.56124380272,5135535124,False
札幌東部ニュータウン,北海道,札幌市厚別区,大谷地西六丁目,43.019208,141.454547,158727.77960850878,6441432614,False
北都,北海道,札幌市白石区,北郷三条十三丁目,43.051031,141.437581,159320.58875464517,6441436511,False
森崎,神奈川県,横須賀市,森崎四丁目,35.246714,139.673277,159585.41220792523,5239659342,False
長湫中部,愛知県,長久手市,坊の後,35.1809179,137.037857,159683.57073455307,5237601331,False
厚別西区,北海道,札幌市厚別区,厚別西三条三丁目,43.049165,141.46348,160060.77883321507,6441435733,False
東知立,愛知県,知立市,昭和九丁目,34.9931058,137.065294,161074.50832853207,5237309511,False
エステシティ,埼玉県,所沢市,中富南三丁目,35.8136218,139.495819,161116.33722242483,5339537941,False
萩原台,兵庫県,川西市,萩原台西一丁目,34.8450947,135.410728,161869.16446541518,5235231224,False
アイランドシティ地区,福岡県,福岡市東区,香椎照葉一丁目,33.6644247,130.421876,162157.51140311515,5030339342,False
ポエムノールひらかた北山,大阪府,枚方市,北山,34.8407427,135.700525,162164.80807645715,5235250633,False
米里南,北海道,札幌市白石区,菊水元町七条三丁目,43.07022,141.411574,162246.39010689824,6441438224,False
鶴甲山,兵庫県,神戸市灘区,鶴甲四丁目,34.734771,135.235409,162496.56627221522,5235018822,False
深谷中央,神奈川県,綾瀬市,深谷上一丁目,35.4376294,139.428571,163454.6662348834,5339132432,False
南光台団地,宮城県,仙台市泉区,南光台七丁目,38.29797,140.901418,163556.7256655331,5740375233,False
青葉町,北海道,札幌市厚別区,青葉町三丁目,43.031271,141.476762,163609.62337828407,6441433833,False
天王台,千葉県,我孫子市,天王台六丁目,35.868578,140.042481,163773.30081440302,5340604312,False
徳重南部,愛知県,名古屋市緑区,徳重二丁目,35.089478,136.99936,163918.90980701213,5236570942,False
彩都,大阪府,茨木市,彩都あさぎ五丁目,34.8511446,135.526474,163950.58392913587,5235242211,False
むさし緑園都市,埼玉県,坂戸市,末広町,35.9730155,139.394255,164069.0787653803,5339736143,False
日進香久山,愛知県,日進市,香久山二丁目,35.1416418,137.027029,164090.46833869893,5237506233,False
小禄金城,沖縄県,那覇市,金城五丁目,26.1993493,127.665655,164317.57837198742,3927253334,False
須磨ニュータウン,兵庫県,神戸市須磨区,白川台二丁目,34.6915682,135.099549,164626.02267571283,5235002744,False
八千代緑が丘 はぐみの杜,千葉県,八千代市,緑が丘西四丁目,35.737996,140.070593,164687.3534646093,5340408541,False
第一住宅団地,埼玉県,坂戸市,清水町,35.963367,139.4053,164831.10007759766,5339735232,False
清水山,愛知県,名古屋市緑区,桶狭間森前,35.049111,136.96318,164831.11979847835,5236475733,False
池上,兵庫県,神戸市西区,大津和三丁目,34.670382,135.025363,164890.26210556977,5235000213,False
羽曳野ネオポリス,大阪府,羽曳野市,羽曳が丘六丁目,34.5414121,135.590731,164981.28810871884,5135644734,False
梅森西部,愛知県,日進市,梅森台五丁目,35.1349447,137.011818,165029.63302764783,5237506022,False
早川城山住宅地,神奈川県,綾瀬市,早川城山四丁目,35.4401644,139.421686,165077.69814557338,5339132343,False
外前野特定,埼玉県,松伏町,ゆめみ野五丁目,35.9238116,139.824622,165236.02903816735,5339760544,False
服部,愛知県,名古屋市中川区,服部四丁目,35.1501584,136.813431,165407.76613655835,5236568511,False
豊明西部,愛知県,豊明市,新栄町六丁目,35.0543076,136.987273,165519.62964914538,5236476842,False
前高,愛知県,春日井市,西高山町一丁目,35.255572,136.947134,165625.17637486898,5236770542,False
安岡寺町,大阪府,高槻市,安岡寺町四丁目,34.877834,135.604763,166043.2287592438,5235245814,False
都,千葉県,千葉市中央区,都町二丁目,35.6121126,140.139123,166338.06049518514,5340313113,False
第二阪和南部,大阪府,岸和田市,土生町三丁目,34.4507059,135.382487,166383.36458287746,5135534021,False
柴原,鹿児島県,鹿児島市,紫原四丁目,31.5602407,130.53085,166499.62818578986,4730247212,False
伏屋,愛知県,名古屋市中川区,伏屋四丁目,35.141371,136.826153,166699.97796455355,5236566633,False
戸田,愛知県,名古屋市中川区,戸田明正二丁目,35.144645,136.805936,166744.8058136872,5236567414,False
岩戸,福岡県,那珂川市,片縄三丁目,33.516352,130.423787,166786.88516134885,5030231344,False
弥勒寺,愛知県,北名古屋市,弥勒寺西一丁目,35.2513866,136.868347,166840.53528208312,5236760912,False
春日御供田,福岡県,春日市,春日公園三丁目,33.525869,130.474877,167090.62301319515,5030233722,False
かわつるグリーンタウン,埼玉県,鶴ヶ島市,松ケ丘四丁目,35.9244335,139.412796,167098.39164014786,5339730333,False
印場,愛知県,尾張旭市,印場元町五丁目,35.209947,137.017987,167160.20805072563,5237605112,False
中登美第三,奈良県,奈良市,西登美ヶ丘二丁目,34.7174637,135.746875,167384.23243962548,5235056921,False
大津ヶ丘,千葉県,柏市,大津ケ丘二丁目,35.840612,139.999766,167385.11355234878,5339670944,False
須磨ニュータウン,兵庫県,神戸市須磨区,竜が台二丁目,34.676235,135.091063,167572.6125607376,5235001712,False
Liv-Field西大宮,埼玉県,さいたま市西区,西大宮三丁目,35.927425,139.576921,167738.89628997527,5339741613,False
鳥飼中部,大阪府,摂津市,鳥飼本町一丁目,34.781558,135.586309,167895.08584736727,5235143644,False
洛西ニュータウン,京都府,京都市西京区,境谷大原野東境谷町二丁目,34.963261,135.67547,168171.84568855594,5235355431,False
西宮マリナパークシティ,兵庫県,西宮市,西宮浜四丁目,34.713308,135.329608,168174.45899283685,5235025632,False
西大袋,埼玉県,越谷市,大字大道,35.9224901,139.762042,168921.99294573546,5339760042,False
水広下,愛知県,名古屋市緑区,水広三丁目,35.0783171,136.996578,169052.85683695442,5236479923,False
ガーデンシティ舞多聞,兵庫県,神戸市垂水区,舞多聞西五丁目,34.6654955,135.049089,169164.29205261162,5135709344,False
鶴山台,大阪府,和泉市,鶴山台二丁目,34.501924,135.450633,169181.6078913023,5135630611,False
柏北部中央,千葉県,柏市,十余二,35.88938,139.950843,169665.29085733002,5339676631,False
香椎ｱﾘｰﾅ跡地開発事業,福岡県,福岡市東区,香椎浜三丁目,33.657058,130.42854,170197.48301485274,5030338434,False
神ノ倉,愛知県,名古屋市緑区,神の倉三丁目,35.101969,137.012815,170234.7381994441,5237502111,False
北部第二（一地区）,神奈川県,藤沢市,石川五丁目,35.3861987,139.449784,170656.4646619609,5339036524,False
西鎌倉,神奈川県,鎌倉市,西鎌倉一丁目,35.3223929,139.501817,171960.11013260332,5239748031,False
神ノ倉東部,愛知県,名古屋市緑区,神の倉一丁目,35.105954,137.009679,172076.15523782343,5237502042,False
野村住宅,神奈川県,横浜市金沢区,釜利谷西二丁目,35.34324,139.59795,172307.48819083345,5339041722,False
須磨ニュータウン,兵庫県,神戸市須磨区,北落合二丁目,34.6872279,135.091417,172382.09839483554,5235002714,False
黒松団地,宮城県,仙台市泉区,黒松三丁目,38.306633,140.885485,172678.62872583585,5740376044,False
コモンシティ星田,大阪府,寝屋川市,打上元町,34.7535235,135.661617,172716.92899242425,5235150224,False
壺川,沖縄県,那覇市,泉崎二丁目,26.2083392,127.680717,172777.73546693224,3927255412,False
赤松,愛知県,名古屋市緑区,赤松,35.1018927,137.017676,173438.28483732234,5237502112,False
菊水元町,北海道,札幌市白石区,菊水元町二条四丁目,43.06663,141.40136,173856.73067812997,6441437233,False
大谷北部第四,埼玉県,上尾市,大字壱丁目,35.9574792,139.570685,175069.15733092974,5339744543,False
江川,埼玉県,さいたま市岩槻区,大字南辻,35.9640226,139.696984,175426.36032968713,5339755542,False
運動公園周辺,千葉県,流山市,後平井,35.8575005,139.917486,175678.7062644108,5339672334,False
柏原,福岡県,福岡市南区,檜原三丁目,33.534858,130.399325,175752.45230993113,5030234122,False
吉川きよみ野,埼玉県,吉川市,きよみ野一丁目,35.896814,139.853883,175759.57936614077,5339667832,False
徳重北部,愛知県,名古屋市緑区,元徳重二丁目,35.0961412,137.002482,175809.80987491272,5237501031,False
鳴海姥子山,愛知県,名古屋市緑区,鎌倉台二丁目,35.071777,136.985133,175840.15085062748,5236478842,False
馬込・下蓮田,埼玉県,蓮田市,蓮田二丁目,35.974655,139.655435,175979.03252719517,5339756234,False
四街道美しが丘,千葉県,四街道市,美しが丘三丁目,35.656041,140.161943,176151.87079658132,5340318242,False
三郷インタ-Ａ,埼玉県,三郷市,ピアラシティ一丁目,35.8436577,139.859195,176233.23539399134,5339661821,False
春日井如稲,愛知県,春日井市,如意申町三丁目,35.247196,136.947455,176592.4507602164,5236679542,False
金剛東ニュータウン,大阪府,富田林市,向陽台三丁目,34.5013922,135.580018,177039.30324399364,5135640612,False
港南台,神奈川県,横浜市金沢区,東朝比奈三丁目,35.326155,139.600482,177085.57134751024,5239749811,False
-(金沢区六浦町、朝比奈町),神奈川県,横浜市金沢区,東朝比奈三丁目,35.326155,139.600482,177085.57134751024,5239749811,False
川越狭山（住宅）,埼玉県,川越市,南台三丁目,35.88912,139.4533,177772.6200660438,5339636632,False
東急八王子片倉台,東京都,八王子市,片倉町,35.630808,139.345329,177944.80120600318,5339325741,False
ジェームス山,兵庫県,神戸市垂水区,青山台四丁目,34.641965,135.074004,178077.99226303428,5135707522,False
多聞,兵庫県,神戸市垂水区,多聞台四丁目,34.6611282,135.042496,178169.1740552939,5135709314,False
徳重中部,愛知県,名古屋市緑区,亀が洞三丁目,35.094218,137.010475,178388.64150781464,5237501024,False
青葉の森の街,千葉県,千葉市中央区,千葉寺町,35.592592,140.135985,178413.47489249925,5340311022,False
西上尾第二,埼玉県,上尾市,大字小敷谷,35.9547434,139.562401,178518.40998629943,5339744442,False
浜見平,神奈川県,茅ヶ崎市,浜見平,35.3228758,139.38715,178733.10556865355,5239738042,False
下之一色大蟷螂,愛知県,名古屋市中川区,一色新町一丁目,35.129877,136.830958,178982.90927078293,5236565632,False
片江,福岡県,福岡市城南区,南片江六丁目,33.542825,130.371838,179002.88419885404,5030225921,False
丸山・大平山,神奈川県,鎌倉市,寺分一丁目,35.3342832,139.524683,179712.19120550703,5339040122,False
城間・伊祖,沖縄県,浦添市,城間四丁目,26.2565999,127.715104,179821.47038938967,3927350733,False
むさし緑園都市,埼玉県,坂戸市,千代田二丁目,35.9566636,139.408156,179906.3614980134,5339734243,False
北柏駅南口,千葉県,柏市,北柏三丁目,35.872731,139.988286,181064.761128769,5339674931,False
狭山ニュータウン,大阪府,大阪狭山市,西山台四丁目,34.486325,135.539225,181214.88173596695,5135548313,False
安徳,福岡県,那珂川市,中原三丁目,33.51603,130.432005,181358.2200357214,5030231443,False
羽村小作台,東京都,羽村市,小作台一丁目,35.776396,139.300117,181479.87816785736,5339523411,False
西武打越,東京都,八王子市,北野台二丁目,35.6280677,139.353427,181620.06504674634,5339325814,False
湘南ライフタウン,神奈川県,藤沢市,遠藤,35.3678829,139.435863,181962.14498541172,5339034422,False
新多聞,兵庫県,神戸市垂水区,学が丘二丁目,34.656545,135.05059,182224.27045906486,5135708433,False
中部,大阪府,東大阪市,川田四丁目,34.687816,135.629697,182238.9095531478,5235052032,False
南陽台,東京都,八王子市,南陽台三丁目,35.634192,139.376373,182324.91049143748,5339336011,False
富沢長町,宮城県,仙台市太白区,泉崎一丁目,38.220481,140.869575,182715.671320591,5740266923,False
上賀茂,京都府,京都市北区,上賀茂上賀茂土門町,35.0559232,135.759949,182936.47433930176,5235466042,False
日吉台,大阪府,高槻市,日吉台二番町,34.871708,135.614505,183415.97942826216,5235244931,False
つくし野,千葉県,我孫子市,つくし野二丁目,35.879719,140.011791,183822.2078148274,5340605042,False
所沢ニュータウン,埼玉県,所沢市,中新井五丁目,35.817684,139.477819,183924.25267719795,5339538811,False
国分寺台,神奈川県,海老名市,国分寺台二丁目,35.4390047,139.405016,184393.06299306935,5339132232,False
徳重西部,愛知県,名古屋市緑区,乗鞍二丁目,35.0933448,136.994225,184582.54727303167,5236571921,False
小野原西,大阪府,箕面市,小野原西四丁目,34.8300301,135.512171,184952.70755431298,5235149042,False
武蔵野操車場跡地,埼玉県,吉川市,美南二丁目,35.870517,139.854069,185280.6851783379,5339664814,False
片瀬山ニュータウン,神奈川県,藤沢市,片瀬山四丁目,35.3224186,139.493253,185304.97309203577,5239738932,False
菅田,愛知県,名古屋市天白区,保呂町,35.116688,136.965832,185400.11338157117,5236574712,False
宇津木台,東京都,八王子市,久保山町二丁目,35.687244,139.358375,185470.21095876012,5339422823,False
味美新開,愛知県,春日井市,知多町二丁目,35.2301557,136.943958,185649.39888843245,5236677541,False
須磨ニュータウン,兵庫県,神戸市須磨区,横尾八丁目,34.6721177,135.108812,185968.58270426717,5235000841,False
吉井池田,神奈川県,横須賀市,吉井三丁目,35.2498444,139.699279,186210.98925298496,5239659544,False
長湫西部,愛知県,長久手市,打越,35.1756847,137.032158,186286.1935359416,5237601221,False
東寺山,千葉県,千葉市若葉区,みつわ台二丁目,35.6382523,140.134182,186686.4176994349,5340316041,False
深作東部,埼玉県,さいたま市見沼区,深作三丁目,35.952355,139.664598,187152.26007426574,5339754313,False
竹田,京都府,京都市伏見区,竹田竹田段川原町,34.9595826,135.756818,187406.12606577761,5235365021,False
小泉,埼玉県,上尾市,小泉八丁目,35.9732194,139.565548,187606.57392952437,5339746533,False
平手北部,愛知県,名古屋市緑区,細口二丁目,35.086168,136.988737,187923.98462822865,5236570913,False
厚別駅前,北海道,札幌市厚別区,厚別中央三条四丁目,43.041653,141.466076,188514.80392929932,6441434734,False
石川東部,神奈川県,藤沢市,天神町二丁目,35.3779353,139.461603,188913.54031707643,5339035624,False
村上南,千葉県,八千代市,村上南一丁目,35.722955,140.11773,188985.86837463657,5340406934,False
岩崎西部,愛知県,日進市,岩崎台四丁目,35.1509556,137.025493,189104.4302923789,5237508211,False
西武北野台,東京都,八王子市,北野台四丁目,35.629396,139.353526,189111.38472797224,5339325832,False
椚田,東京都,八王子市,椚田町,35.6350931,139.31265,189346.26583033864,5339326511,False
泉北ニュータウン,大阪府,堺市南区,原山台一丁,34.4865535,135.49108,189516.79923056936,5135538914,False
東苗穂,北海道,札幌市東区,伏古六条三丁目,43.088205,141.393614,189620.02327458598,6441530132,False
金沢シーサイドタウン,神奈川県,横浜市金沢区,並木二丁目,35.363016,139.640136,190098.756879962,5339053131,False
真嘉比古島第一地区,沖縄県,那覇市,古島二丁目,26.2279269,127.706391,190177.77232837988,3927257623,False
西神ニュータウン,兵庫県,神戸市西区,井吹台西町二丁目,34.699307,135.029086,190463.94162427742,5235003234,False
江戸川台団地,千葉県,流山市,江戸川台西二丁目,35.897377,139.909773,190830.2011081501,5339677242,False
鴨川,埼玉県,上尾市,井戸木一丁目,35.9897544,139.560949,191424.17073887383,5339748444,False
金剛,大阪府,富田林市,高辺台三丁目,34.4963388,135.56727,192358.19381218433,5135549532,False
大宮（住宅）,埼玉県,さいたま市北区,吉野町一丁目,35.952233,139.613142,192519.76783072407,5339744913,False
ひなた山,神奈川県,横浜市瀬谷区,南瀬谷二丁目,35.4436746,139.485207,193254.38758713508,5339133822,False
多摩ニュータウン,東京都,多摩市,南野二丁目,35.608516,139.433928,193386.44967122798,5339333421,False
勝田台団地,千葉県,八千代市,勝田台三丁目,35.709309,140.129483,193474.55126057882,5340415012,False
宮の森山の手南,北海道,札幌市西区,山の手一条十丁目,43.064561,141.296003,193570.54941711455,6441427341,False
六甲アイランド,兵庫県,神戸市東灘区,向洋町中六丁目,34.6891835,135.268084,193976.48767737637,5235022132,False
湘南桂台,神奈川県,横浜市栄区,桂台南一丁目,35.3536059,139.56768,194264.06374361008,5339042514,False
新鎌ケ谷,千葉県,鎌ケ谷市,新鎌ケ谷二丁目,35.780134,140.001719,194787.93615096796,5340503031,False
緑ケ丘,愛知県,名古屋市緑区,鳥澄三丁目,35.0768783,136.972615,195132.6633759906,5236479722,False
明舞団地,兵庫県,神戸市垂水区,南多聞台二丁目,34.6544062,135.032955,195964.01531889298,5135708241,False
狭山台,埼玉県,狭山市,狭山台三丁目,35.8551355,139.433839,196012.34034144983,5339632441,False
明舞団地,兵庫県,神戸市垂水区,神陵台二丁目,34.6607396,135.033997,196058.07758798928,5135709223,False
吉川中央,埼玉県,吉川市,大字吉川,35.8911557,139.855512,196851.5415871366,5339666834,False
三輪野山第２,千葉県,流山市,三輪野山二丁目,35.865543,139.908153,196868.43440680922,5339673243,False
イトーピア手稲,北海道,札幌市中央区,大通西二丁目,43.062084,141.354372,197110.90396459925,6441427814,False
上野幌ニュータウン,北海道,札幌市中央区,大通西二丁目,43.062084,141.354372,197110.90396459925,6441427814,False
桜台ベニータウン,北海道,札幌市中央区,大通西二丁目,43.062084,141.354372,197110.90396459925,6441427814,False
森林公園パークタウン,北海道,札幌市中央区,大通西二丁目,43.062084,141.354372,197110.90396459925,6441427814,False
八千代ゆりのき台,千葉県,八千代市,ゆりのき台五丁目,35.732649,140.104051,197598.3901775579,5340407834,False
さつきが丘,千葉県,千葉市花見川区,さつきが丘一丁目,35.665787,140.095661,197636.42412057027,5340309743,False
千草台,千葉県,千葉市稲毛区,千草台二丁目,35.636965,140.120831,197989.55060514712,5340306923,False
元町中央,北海道,札幌市東区,北二十五条東二十丁目,43.095899,141.384221,198278.13254395165,6441531041,False
吉川第一,埼玉県,吉川市,木売三丁目,35.875802,139.843898,198531.08115404885,5339665721,False
アートアベニュー箕面おのはら,大阪府,箕面市,小野原東六丁目,34.830009,135.524683,198916.6650727501,5235149142,False
油山,福岡県,福岡市城南区,堤二丁目,33.541886,130.379487,199299.960560261,5030235012,False
朝日,埼玉県,桶川市,朝日二丁目,35.990947,139.570088,200412.2127686152,5339748543,False
中島新町西部,愛知県,名古屋市中川区,中島新町三丁目,35.126771,136.85248,200529.97011707834,5236565811,False
那覇新都心,沖縄県,那覇市,銘苅二丁目,26.231694,127.693838,201212.1784255755,3927257543,False
地行・百道地区,福岡県,福岡市早良区,百道浜一丁目,33.590742,130.354199,201787.60296815875,5030320834,False
滝ノ水,愛知県,名古屋市緑区,滝ノ水四丁目,35.0843768,136.97349,202032.15640576187,5236570722,False
新検見川北,千葉県,千葉市花見川区,瑞穂二丁目,35.663729,140.070105,202285.81170260007,5340309541,False
平手南部,愛知県,名古屋市緑区,八つ松一丁目,35.079144,136.987192,202498.36018549392,5236479824,False
志津,千葉県,佐倉市,西志津四丁目,35.7111816,140.137908,202657.84911076477,5340415113,False
大谷北部第二,埼玉県,上尾市,大字今泉,35.9649105,139.572992,202979.1951223668,5339745544,False
青梅東部霞台,東京都,青梅市,野上町四丁目,35.788794,139.287533,203392.9182732843,5339524331,False
室住,福岡県,福岡市早良区,有田七丁目,33.5623646,130.328207,203900.49656375262,5030227614,False
小山田桜台,東京都,町田市,小山田桜台二丁目,35.590999,139.40173,204488.71364409066,5339330233,False
村岡東部,神奈川県,藤沢市,村岡東二丁目,35.342619,139.508091,204834.79731793492,5339041021,False
西平山,東京都,日野市,西平山三丁目,35.649006,139.371786,204927.9825118553,5339327943,False
香椎浜,福岡県,福岡市東区,香椎浜三丁目,33.6548841,130.429832,205461.4448007467,5030338432,False
東浅川,東京都,八王子市,東浅川町,35.645632,139.293466,205766.66583945998,5339327314,False
東舞子,兵庫県,神戸市垂水区,舞子台四丁目,34.639175,135.037097,206481.81450102542,5135706242,False
北所沢,埼玉県,入間市,久保稲荷一丁目,35.827417,139.394525,206927.725886395,5339539123,False
扇,埼玉県,入間市,久保稲荷一丁目,35.8274,139.395003,206927.725886395,5339539123,False
旭,愛知県,名古屋市緑区,上旭一丁目,35.09205,136.972493,207273.7857953233,5236571722,False
大谷北部第三,埼玉県,上尾市,向山三丁目,35.9620775,139.580738,207406.2775996567,5339745614,False
山科南部,京都府,京都市山科区,小野大宅烏田町,34.9682741,135.815619,207639.80814143503,5235366511,False
みそのウィングシティ,埼玉県,さいたま市緑区,美園四丁目,35.895412,139.728713,207707.8225318086,5339657814,False
八王子みなみ野シティ,東京都,八王子市,みなみ野三丁目,35.630019,139.323989,207921.8255067445,5339325542,False
北部第二（二地区）,神奈川県,藤沢市,石川三丁目,35.3768724,139.45178,207981.65233442,5339035611,False
善行,神奈川県,藤沢市,善行団地,35.3672632,139.464633,208057.66783951494,5339034711,False
京葉港,千葉県,習志野市,香澄六丁目,35.6681068,140.019345,208162.42511083742,5340400121,False
西上尾第一,埼玉県,上尾市,大字今泉,35.9646869,139.563807,208537.83820210348,5339745533,False
北柏,千葉県,柏市,松葉町四丁目,35.889159,139.970477,208615.1413373474,5339676741,False
箱崎南部,福岡県,福岡市東区,社領二丁目,33.612546,130.433464,209014.40437935968,5030333441,False
新本牧,神奈川県,横浜市中区,本牧和田,35.422442,139.660054,209521.47825937375,5339150242,False
めじろ台,東京都,八王子市,めじろ台二丁目,35.643696,139.307134,209719.38478272656,5339327421,False
鳴海黒石,愛知県,名古屋市緑区,神沢二丁目,35.095122,136.986251,210720.83748796553,5236571824,False
三輪,東京都,町田市,三輪緑山一丁目,35.57247,139.489417,211010.47627352175,5339238931,False
吉川,埼玉県,吉川市,吉川団地四街区,35.8911402,139.847193,211719.8277585068,5339666744,False
多摩ニュータウン,東京都,多摩市,落合六丁目,35.6085562,139.426785,212191.46346390442,5339333411,False
岡本（大船）,神奈川県,鎌倉市,玉縄二丁目,35.3558366,139.521406,212358.00968677152,,False
紙敷,千葉県,松戸市,東松戸一丁目,35.771329,139.944529,212381.35124403553,5339572541,False
鉄東,北海道,札幌市東区,本町一条二丁目,43.079934,141.381351,212500.64649311214,6441439041,False
深作西部,埼玉県,さいたま市見沼区,春岡二丁目,35.948915,139.659641,212525.23862047185,5339753244,False
荒牧,兵庫県,伊丹市,荒牧四丁目,34.811724,135.383724,212568.00842762203,5235137023,False
清瀬台田,東京都,清瀬市,中里六丁目,35.791187,139.527977,212980.71567781153,5339544233,False
高倉,東京都,八王子市,高倉町,35.665595,139.365381,213218.49311533282,5339329933,False
浦安Ⅱ期,千葉県,浦安市,高洲四丁目,35.635291,139.914659,213279.821912815,5339376311,False
五月ヶ丘,大阪府,池田市,五月丘二丁目,34.82809,135.435675,214542.81980631995,5235139424,False
白石本通北,北海道,札幌市白石区,平和通八丁目北,43.047989,141.419213,214732.98053185845,6441435343,False
松ヶ丘,埼玉県,所沢市,松が丘一丁目,35.7740978,139.460824,215090.71419643742,5339532644,False
平針,愛知県,名古屋市天白区,平針二丁目,35.1240617,137.004014,215654.19857294264,5237504034,False
明舞団地,兵庫県,明石市,松が丘二丁目,34.653968,135.027916,215665.0105073243,5135708213,False
男山団地,京都府,八幡市,男山（四）石城,34.8624068,135.696484,216100.13034333385,5235253523,False
加,千葉県,流山市,加四丁目,35.860483,139.905095,216385.71772811245,5339673214,False
元町南,北海道,札幌市東区,北十九条東二十一丁目,43.086097,141.384065,216782.39621594982,6441530023,False
武蔵藤沢駅周辺,埼玉県,入間市,大字下藤沢,35.8196857,139.408561,217006.16506744787,5339538223,False
元町北,北海道,札幌市東区,北三十条東十八丁目,43.100231,141.37531,217065.40868474636,6441532011,False
東越谷,埼玉県,越谷市,東越谷八丁目,35.895618,139.804091,218420.70706363916,5339667414,False
天神山,兵庫県,神戸市東灘区,御影山手四丁目,34.727417,135.244853,218453.36450945208,5235017923,False
日の丸,北海道,札幌市東区,北四十三条東十二丁目,43.11386,141.362243,218503.8485573255,6441523842,False
六会東部,神奈川県,藤沢市,亀井野一丁目,35.3842882,139.47028,218861.2867193162,5339036721,False
多摩ニュータウン,東京都,多摩市,永山六丁目,35.614832,139.444264,219498.71959049735,5339333543,False
植田中央,愛知県,名古屋市天白区,植田本町一丁目,35.135721,136.992942,220026.78330965628,5236576914,False
安倉,兵庫県,宝塚市,安倉南一丁目,34.798158,135.377845,220066.7916165893,5235135033,False
吉川駅みなみ,埼玉県,吉川市,美南五丁目,35.8685111,139.852077,220151.6312455048,5339664811,False
平針中央,愛知県,名古屋市天白区,中平二丁目,35.1176827,136.998933,220367.61129845562,5236574922,False
東一社,愛知県,名古屋市名東区,貴船二丁目,35.1665164,137.011089,220507.76747837244,5237509044,False
花田,埼玉県,越谷市,花田四丁目,35.9054956,139.801645,220565.05879931088,5339668431,False
小野原,大阪府,箕面市,小野原東五丁目,34.82978,135.52067,220940.5069995751,5235149141,False
しいの木台,千葉県,柏市,しいの木台二丁目,35.804549,139.982268,221659.15134812295,5339576841,False
鳴子,愛知県,名古屋市緑区,鳴子町四丁目,35.0968533,136.967401,221722.8451928987,5236571732,False
島田東部,愛知県,名古屋市天白区,高島一丁目,35.1080252,136.998638,222103.46045170742,5236572944,False
椿峰ニュータウン,埼玉県,所沢市,小手指南五丁目,35.7813,139.432917,222349.59594447934,5339533443,False
大門第二特定,埼玉県,さいたま市緑区,大字大門,35.877558,139.735837,222469.6518113484,5339655824,False
旭ヶ丘団地,宮城県,仙台市青葉区,国分町三丁目,38.268081,140.869471,222571.13562274966,5740362921,False
常盤台,宮城県,仙台市青葉区,国分町三丁目,38.268081,140.869471,222571.13562274966,5740362921,False
緑ヶ丘,宮城県,仙台市青葉区,国分町三丁目,38.268081,140.869471,222571.13562274966,5740362921,False
船橋美し学園 芽吹の杜,千葉県,船橋市,坪井東二丁目,35.732736,140.06017,223105.99508911098,5340407444,False
柄沢,神奈川県,藤沢市,並木台二丁目,35.352511,139.500667,223840.4369743798,5339042013,False
名戸ケ谷前,千葉県,柏市,新柏三丁目,35.841334,139.972687,224281.49335605447,5339670744,False
浜甲子園,兵庫県,西宮市,枝川町,34.7111398,135.360669,224429.7416104928,5235025824,False
いずみ野,神奈川県,横浜市泉区,和泉町,35.431232,139.494156,224700.7510781524,5339131941,False
忠生,東京都,町田市,忠生四丁目,35.577117,139.412277,224831.99860044994,5339239224,False
石神西立野,埼玉県,川口市,大字西立野,35.8583279,139.745168,225219.0785436928,5339652943,False
芝原,埼玉県,さいたま市緑区,芝原二丁目,35.881631,139.691688,225863.78806482448,5339655534,False
向島,京都府,京都市伏見区,向島二ノ丸向島二ノ丸町,34.918249,135.774427,225960.0595897664,5235360122,False
大和田特定,埼玉県,さいたま市見沼区,大和田町一丁目,35.92593,139.651219,226209.00326529023,5339751211,False
湘南ライフタウン,神奈川県,藤沢市,大庭,35.3676114,139.445793,226532.50678617516,5339034521,False
緑黒石,愛知県,名古屋市緑区,桃山二丁目,35.1023424,136.992639,226762.63702136042,5236572914,False
西平井・鰭ヶ崎,千葉県,流山市,西平井二丁目,35.847585,139.907799,227432.26874440926,5339671241,False
長尾（長住）,福岡県,福岡市南区,長住四丁目,33.546331,130.395012,228040.72347739202,5030235141,False
清瀬旭が丘,埼玉県,新座市,あたご三丁目,35.795443,139.540851,229084.04383371814,5339545314,False
多摩ニュータウン,東京都,稲城市,百村,35.6345225,139.495395,229417.78778169572,5339336921,False
向ヶ丘,大阪府,堺市西区,神野町三丁,34.537866,135.477691,229499.7196310846,5135634831,False
鶴川台,東京都,町田市,真光寺二丁目,35.601023,139.469424,230206.29214708746,5339332721,False
高幡台,東京都,日野市,程久保一丁目,35.653408,139.414583,230343.7412688436,5339338313,False
多摩ニュータウン,東京都,稲城市,長峰二丁目,35.630647,139.481429,230447.6989308388,5339335841,False
百草,東京都,日野市,三沢,35.650658,139.419562,230462.93858767362,5339338321,False
みさと,埼玉県,三郷市,彦成三丁目,35.8567917,139.85806,230604.35520220833,5339662843,False
手稲東,北海道,札幌市西区,西町南十二丁目,43.082446,141.283493,230622.72981728008,6441429243,False
八潮南部東,埼玉県,八潮市,大字大瀬,35.8135483,139.852493,230739.67786813396,5339567831,False
下山門,福岡県,福岡市中央区,天神一丁目,33.590143,130.401682,231871.55544029106,5030330233,False
秋山,千葉県,松戸市,秋山二丁目,35.766032,139.933682,232143.7519659908,5339571443,False
弥生台,神奈川県,横浜市泉区,弥生台,35.427674,139.506764,232181.55629216987,5339141023,False
善行,神奈川県,藤沢市,善行二丁目,35.3651401,139.470735,232570.46169121366,5339033743,False
北野,東京都,八王子市,北野町,35.651037,139.353011,232642.33357416437,5339328811,False
越谷レイクタウン,埼玉県,越谷市,レイクタウン八丁目,35.876254,139.822655,233409.03080196524,5339665522,False
花見川,千葉県,千葉市花見川区,花見川,35.689169,140.095371,234182.0651633949,5340402741,False
箕面中部,大阪府,箕面市,牧落三丁目,34.825852,135.472584,234303.79631530345,5235139722,False
木,千葉県,流山市,大字木,35.833147,139.895788,234539.3103990832,5339579143,False
多摩ニュータウン,東京都,稲城市,百村,35.637261,139.491091,236002.91216583792,5339336914,False
栗木第一,神奈川県,川崎市麻生区,栗木台五丁目,35.610503,139.475463,236900.95492699568,5339333813,False
高津,千葉県,八千代市,高津団地,35.719497,140.078055,237295.661835338,5340406613,False
京急ニュータウン金沢能見台,神奈川県,横浜市金沢区,能見台三丁目,35.3568787,139.616393,237377.5364715866,5339042934,False
鶴が台,神奈川県,茅ヶ崎市,鶴が台,35.3483988,139.407053,237588.22709979338,5339031243,False
さつき平,埼玉県,三郷市,さつき平一丁目,35.851005,139.867415,238084.90614614138,5339662912,False
洛西第二,京都府,京都市西京区,桂川桂上野南町,34.9947213,135.700403,238942.64209496818,5235359613,False
西菅田,神奈川県,横浜市緑区,鴨居町,35.4977738,139.574191,239085.34735649778,5339149542,False
千葉幸町,千葉県,千葉市美浜区,幸町二丁目,35.621146,140.092056,239293.19391986774,5340304732,False
南山東部,東京都,稲城市,百村,35.63097,139.505854,239502.5493937924,5339345032,False
深井,大阪府,堺市中区,深井水池町,34.532157,135.499942,239904.14863465753,5135633944,False
検見川稲毛,千葉県,千葉市花見川区,検見川町五丁目,35.646155,140.076499,240936.417116011,5340307631,False
鷺高,埼玉県,越谷市,東大沢二丁目,35.9116352,139.791776,240965.59425325802,5339669314,False
野村港南台,神奈川県,横浜市港南区,日野南六丁目,35.3761527,139.563321,242125.49117151907,5339045511,False
野村本郷台,神奈川県,横浜市栄区,本郷台三丁目,35.3742159,139.546622,242442.15230269957,5339044343,False
南部第二,神奈川県,大和市,福田八丁目,35.4503209,139.462469,243608.1035190301,5339134622,False
芦屋浜ｼｰｻｲﾄﾞﾀｳﾝ,兵庫県,芦屋市,高浜町,34.721209,135.317121,243758.85108307214,5235026532,False
多摩ニュータウン,東京都,町田市,小山ヶ丘四丁目,35.602759,139.365306,243911.69668362103,5339322913,False
望月寒,北海道,札幌市白石区,中央一条五丁目,43.053524,141.398849,244334.68004543087,6441436124,False
多摩ニュータウン,東京都,多摩市,落合四丁目,35.616384,139.4286,244500.28327793477,5339333434,False
早稲田,埼玉県,三郷市,早稲田三丁目,35.8533541,139.884815,244651.05716614707,5339672024,False
浦安Ⅰ期,千葉県,浦安市,弁天二丁目,35.641638,139.899817,245487.87324689116,5339376144,False
洛西第一,京都府,京都市西京区,川岡東下津林東大般若町,34.9764049,135.71469,245943.1141236287,5235357711,False
白石駅前,北海道,札幌市白石区,平和通三丁目北,43.053069,141.410458,246051.9541804976,6441436224,False
黒川はるひ野,神奈川県,川崎市麻生区,はるひ野五丁目,35.6188804,139.463546,246299.00109908092,5339334713,False
多摩ニュータウン,東京都,多摩市,愛宕三丁目,35.632326,139.436882,246808.2974303157,5339335444,False
香里,大阪府,枚方市,香里ケ丘四丁目,34.7886566,135.651374,248145.1796003454,5235154231,False
富士見町,東京都,立川市,富士見町三丁目,35.696009,139.396554,249080.26362607104,5339433141,False
砂第二工区,埼玉県,さいたま市見沼区,島町,35.944659,139.651294,249271.53629677568,5339753213,False
千間台,埼玉県,越谷市,千間台西三丁目,35.933504,139.76731,249329.4569074283,5339762112,False
多摩ニュータウン,東京都,八王子市,南大沢五丁目,35.613383,139.365943,249867.27233318478,5339323932,False
植田南部,愛知県,名古屋市天白区,植田三丁目,35.12742,136.989806,250380.11191678088,5236575913,False
戸塚（第３工区）,埼玉県,川口市,北原台三丁目,35.8707667,139.732442,250400.9521850053,5339654823,False
村山住宅,東京都,武蔵村山市,緑が丘,35.743804,139.408016,250534.99075587434,5339439223,False
村山,東京都,武蔵村山市,緑が丘,35.744004,139.408157,250534.99075587434,5339439223,False
百舌鳥陵南,大阪府,堺市北区,百舌鳥陵南町三丁,34.544229,135.493398,250809.76562694868,5135635914,False
豊田南,東京都,日野市,豊田一丁目,35.657693,139.384677,251095.27384799632,5339338044,False
北光,北海道,札幌市東区,北二十四条東八丁目,43.091801,141.361942,251115.90371491044,6441521822,False
多摩田園都市,東京都,町田市,つくし野二丁目,35.525582,139.483028,251360.4728851881,5339233821,False
多摩田園都市,東京都,町田市,鶴間三丁目,35.509553,139.470068,251761.07729560966,5339231721,False
山手台ウエスト地区,神奈川県,横浜市泉区,桂坂,35.422927,139.51409,251917.70034933015,5339140133,False
甲南,兵庫県,芦屋市,岩園町,34.743349,135.314782,252098.8925636353,5235029511,False
藤の台,東京都,町田市,本町田,35.569935,139.450042,252431.07569915164,5339238613,False
武里,埼玉県,春日部市,大枝,35.9428541,139.769649,252879.97258940284,5339763121,False
多摩田園都市,神奈川県,横浜市青葉区,あかね台一丁目,35.541725,139.488037,253074.35347048458,5339235911,False
多摩ニュータウン,東京都,八王子市,松木,35.625262,139.395636,253365.16234623542,5339335121,False
多摩田園都市,神奈川県,横浜市青葉区,すみよし台,35.553073,139.493752,253510.85283809016,5339236923,False
鴨志田,神奈川県,横浜市青葉区,鴨志田町,35.562255,139.504695,254473.30969271695,5339247014,False
大井・苗間第一,埼玉県,ふじみ野市,大井二丁目,35.8532211,139.521717,254528.68989982642,5339642123,False
七左第一,埼玉県,越谷市,新越谷一丁目,35.87407,139.781743,254808.43271307775,5339664243,False
稲荷町,埼玉県,草加市,稲荷四丁目,35.8338588,139.824294,254918.490341593,5339660522,False
昭島つつじが丘ハイツ,東京都,昭島市,つつじが丘二丁目,35.714645,139.369265,254925.80865045136,5339425943,False
東所沢,埼玉県,所沢市,東所沢二丁目,35.7993759,139.513769,255196.04952971858,5339545133,False
八千代緑が丘,千葉県,八千代市,緑が丘三丁目,35.728912,140.07533,255308.56905102165,5340407613,False
六実高柳,千葉県,松戸市,六高台三丁目,35.799333,139.988276,255347.79880162288,5339575933,False
つくばエクスプレスタウン,埼玉県,三郷市,中央三丁目,35.8268665,139.879151,255485.4102763206,5339579012,False
鶴川,東京都,町田市,鶴川五丁目,35.59154,139.4687,256152.11789205915,5339330734,False
霧が丘,神奈川県,横浜市緑区,霧が丘五丁目,35.512911,139.50285,256474.8007695839,5339241031,False
宮の森山の手北,北海道,札幌市西区,山の手一条四丁目,43.068167,141.302161,257083.61254837384,6441428411,False
姪浜地区,福岡県,福岡市西区,姪の浜三丁目,33.587668,130.326341,257103.11169033017,5030320631,False
あおば山の手台,神奈川県,横浜市青葉区,奈良一丁目,35.5550106,139.48463,257187.80431414358,5339236842,False
北小金,千葉県,松戸市,小金原六丁目,35.819275,139.945194,257941.24701835244,5339578523,False
野村,広島県,広島市中区,国泰寺町二丁目,34.385253,132.455361,258273.58627011417,5132436612,False
第一（藤沢）,神奈川県,藤沢市,弥勒寺四丁目,35.3447916,139.496883,258523.33802579434,5339031924,False
猪高西山,愛知県,名古屋市名東区,西山本通二丁目,35.156723,136.994877,258878.67071997075,5236578943,False
白石本郷,北海道,札幌市白石区,本郷通九丁目北,43.040916,141.416187,258993.40994240696,6441434334,False
多摩平,東京都,日野市,多摩平四丁目,35.666693,139.379468,259461.8245559718,5339430012,False
白石中央,北海道,札幌市白石区,南郷通四丁目北,43.045401,141.403334,260288.85981534168,6441435214,False
新郷,埼玉県,川口市,江戸三丁目,35.8206314,139.754072,260419.8402554025,5339568014,False
北八王子,東京都,八王子市,明神町一丁目,35.65673,139.348375,260764.82149062422,5339328744,False
多摩ニュータウン,東京都,稲城市,若葉台二丁目,35.624721,139.473324,261015.89821403308,5339334744,False
東大東,北海道,札幌市豊平区,月寒東四条七丁目,43.03378,141.407347,261090.83998379103,6441434221,False
若葉台,神奈川県,横浜市旭区,若葉台三丁目,35.5053587,139.498225,261621.3864261303,5339230942,False
荻野,兵庫県,伊丹市,荻野五丁目,34.805875,135.391792,262561.98146096367,5235136132,False
下長尾,福岡県,福岡市城南区,長尾四丁目,33.555701,130.382738,262767.1853487924,5030236041,False
南まきが原,神奈川県,横浜市旭区,柏町,35.4519154,139.5253,262909.49092310586,5339144211,False
豊四季台,千葉県,柏市,豊四季台一丁目,35.864648,139.957849,262914.81488223723,5339673643,False
万願寺,東京都,日野市,万願寺四丁目,35.672507,139.415206,263309.1654841878,5339430331,False
緑園都市,神奈川県,横浜市泉区,緑園四丁目,35.4416258,139.523345,264001.97349695663,5339142144,False
山手台サウス地区,神奈川県,横浜市泉区,領家二丁目,35.419814,139.522759,264119.85015617515,5339140124,False
八幡木,埼玉県,川口市,八幡木三丁目,35.813846,139.750385,264607.8791308861,5339567031,False
新座,埼玉県,新座市,新座三丁目,35.8212473,139.555847,264672.77241748525,5339548432,False
金程向原,神奈川県,川崎市麻生区,金程三丁目,35.6128448,139.499804,264725.8684588306,5339333942,False
平尾,東京都,稲城市,平尾一丁目,35.61227974696685,139.49268019394128,264751.0049572824,5339333914,False
門真東,大阪府,門真市,東江端町,34.7234697,135.620776,265401.6255803363,5235046943,False
多摩田園都市,神奈川県,横浜市緑区,小山町,35.519382,139.526977,265713.37542083045,5339242213,False
千里ニュータウン,大阪府,吹田市,津雲台七丁目,34.806615,135.506058,265859.3378974134,,False
白鷺,大阪府,堺市東区,白鷺町二丁,34.5467388,135.51834,266325.121910249,5135645132,False
新田西部,埼玉県,草加市,長栄三丁目,35.8572666,139.773595,266445.50803128816,5339662144,False
高根台,千葉県,船橋市,高根台四丁目,35.731825,140.03655,266687.7128739536,5340407244,False
多摩田園都市,神奈川県,横浜市青葉区,黒須田,35.567806,139.531045,267271.1947189966,5339248212,False
戸塚鳥ケ谷,神奈川県,横浜市戸塚区,鳥が丘,35.412592,139.524197,268068.2053825512,5339049142,False
八ケ崎中央,千葉県,松戸市,八ケ崎五丁目,35.808495,139.932222,269162.4928590822,5339577421,False
東京街道,東京都,東大和市,清原二丁目,35.742576,139.446062,269433.96793741005,5339439521,False
針ヶ谷,埼玉県,富士見市,針ケ谷一丁目,35.831923,139.553554,269456.580980692,5339549434,False
多摩田園都市,東京都,町田市,鶴間三丁目,35.5121772,139.46926555,269604.25066781114,5339231723,False
柿生第一,神奈川県,川崎市麻生区,五力田二丁目,35.599262,139.49346,270169.2787522137,5339331934,False
木曽山崎,東京都,町田市,山崎町,35.568757,139.434507,271124.4279989868,5339238424,False
戸塚鋏下境,埼玉県,川口市,戸塚鋏町,35.8654281,139.758169,273774.06215643365,5339663043,False
東戸塚名瀬下,神奈川県,横浜市戸塚区,名瀬町,35.430078,139.542969,273788.1389991608,5339141332,False
常盤平南部,千葉県,松戸市,牧の原一丁目,35.790439,139.948783,273949.92058831896,5339574544,False
安行出羽,埼玉県,川口市,安行出羽四丁目,35.8523845,139.765802,274159.5809794696,5339662114,False
境川,東京都,町田市,木曽東三丁目,35.560649,139.42277,274710.2265120078,5339237324,False
湘南台,神奈川県,藤沢市,湘南台一丁目,35.3965688,139.468723,275354.1477893974,5339037732,False
横須賀,千葉県,松戸市,横須賀一丁目,35.833589,139.914536,275742.5661154989,5339670311,False
成瀬,東京都,町田市,成瀬台三丁目,35.554208,139.478031,276804.8392380412,5339236831,False
多摩田園都市,神奈川県,横浜市青葉区,田奈町,35.539979,139.502335,277179.04001617624,5339244033,False
左近山,神奈川県,横浜市旭区,左近山,35.4592938,139.55107,277256.276232999,5339145411,False
多摩田園都市,神奈川県,川崎市麻生区,虹ケ丘二丁目,35.5800781,139.522949,277261.9519004942,5339249142,False
八柱駅周辺,千葉県,松戸市,日暮五丁目,35.78882,139.939084,277967.8973692951,5339574531,False
相武台団地,神奈川県,相模原市中央区,中央二丁目,35.571424,139.37318,278734.5052158371,5339228942,False
上溝団地,神奈川県,相模原市中央区,中央二丁目,35.571424,139.37318,278734.5052158371,5339228942,False
東大和東部,東京都,東大和市,向原一丁目,35.7414632,139.441065,279520.81266246346,5339438534,False
多摩田園都市,神奈川県,大和市,つきみ野五丁目,35.5098109,139.45716,279648.4358019142,5339231621,False
今川,千葉県,浦安市,今川一丁目,35.642166,139.907662,279822.9398304268,5339377221,False
洋光台,神奈川県,横浜市磯子区,洋光台三丁目,35.3779355,139.596837,280336.49345013,5339045723,False
多摩田園都市,神奈川県,横浜市青葉区,桂台二丁目,35.550734,139.502206,280525.3273524459,5339246011,False
足立北部舎人町付近,東京都,足立区,入谷四丁目,35.807795,139.762391,280555.1992793125,5339566044,False
袖ヶ浦,千葉県,習志野市,袖ケ浦三丁目,35.675731,140.018826,281004.43584010797,5340401121,False
新百合ヶ丘住宅,神奈川県,川崎市麻生区,白山一丁目,35.587597,139.513772,281036.2447980306,5339340131,False
北東,北海道,札幌市東区,北二十一条東十六丁目,43.089827,141.373272,281717.25616866286,6441520944,False
幕張台,千葉県,千葉市花見川区,幕張本郷五丁目,35.670894,140.044677,281731.8022565135,5340400341,False
長吉瓜破,大阪府,大阪市平野区,長吉長原四丁目,34.6015174,135.57002,281793.30963615945,5135742521,False
二十世紀が丘,千葉県,松戸市,二十世紀が丘萩町,35.770446,139.906377,282020.7262073927,5339572223,False
大野,千葉県,市川市,南大野二丁目,35.744986,139.952466,282705.99611570826,5339479613,False
長曽根,大阪府,堺市北区,長曽根町,34.561708,135.50889,282768.1677813367,5135647023,False
南流山,千葉県,流山市,南流山三丁目,35.839751,139.900106,283019.74664868147,5339670233,False
稲荷伊草第一,埼玉県,八潮市,八潮三丁目,35.814542,139.835744,283085.0499599973,5339567642,False
八潮第二,埼玉県,八潮市,八潮三丁目,35.813898,139.836602,283085.0499599973,5339567642,False
つくばエクスプレスタウン,埼玉県,八潮市,大瀬六丁目,35.8068704,139.845711,283708.9721021593,5339566743,False
八潮第一,埼玉県,八潮市,大瀬六丁目,35.806381,139.84482,283708.9721021593,5339566743,False
戸塚,埼玉県,川口市,戸塚二丁目,35.8746613,139.749521,283870.4374769013,5339654944,False
金ヶ作第二次,千葉県,松戸市,常盤平松葉町,35.795423,139.944794,284480.6489020432,5339575523,False
東久保,埼玉県,ふじみ野市,ふじみ野二丁目,35.8609957,139.515043,284525.66568265815,5339643113,False
光星,北海道,札幌市東区,北十四条東十丁目,43.079985,141.368337,284547.865906259,6441429932,False
多摩田園都市,神奈川県,横浜市青葉区,美しが丘西二丁目,35.589743,139.533362,284903.73825273383,5339340243,False
富田,大阪府,高槻市,牧田町,34.8202693,135.603608,285102.3635329102,5235148814,False
多摩田園都市,神奈川県,横浜市青葉区,たちばな台二丁目,35.557996,139.507399,285200.8563820524,5339246043,False
東浦和第一,埼玉県,さいたま市緑区,東浦和四丁目,35.868465,139.701591,285232.8008221142,5339654611,False
二十四軒北,北海道,札幌市西区,二十四軒三条三丁目,43.074531,141.311581,285456.9344145101,6441428444,False
上本郷第二,千葉県,松戸市,上本郷,35.797492,139.923087,286226.35569513624,5339575342,False
多摩田園都市,東京都,町田市,南つくし野一丁目,35.519495,139.477524,286703.79822169687,5339232813,False
第二上新井,埼玉県,所沢市,上新井四丁目,35.79794,139.444892,286967.3720797945,5339535543,False
流山おおたかの森,千葉県,流山市,おおたかの森東一丁目,35.871981,139.925475,287181.66368085565,5339674431,False
長津田みなみ台,神奈川県,横浜市緑区,長津田みなみ台一丁目,35.5217561,139.497799,288077.9280100014,5339232942,False
八潮南部西,埼玉県,八潮市,茜町,35.8027635,139.840626,288179.40922098176,5339566714,False
久留米西,東京都,東久留米市,下里四丁目,35.753191,139.497142,288994.85804576526,5339530924,False
平岸南,北海道,札幌市豊平区,平岸三条十二丁目,43.028737,141.369056,289575.180711959,6441423923,False
台村寺山,神奈川県,横浜市緑区,台村町,35.5095472,139.533634,289705.7823318573,5339241221,False
新ゆりグリーンタウン,神奈川県,川崎市麻生区,白山四丁目,35.5898994,139.510354,289829.28221388493,5339340044,False
常盤平,千葉県,松戸市,常盤平三丁目,35.799228,139.955435,290640.5881110406,5339575634,False
港南丸山,神奈川県,横浜市港南区,丸山台三丁目,35.3982696,139.567657,290850.7296978696,5339047534,False
鴨居,神奈川県,横浜市緑区,竹山一丁目,35.498788,139.561429,291340.6509614287,5339149444,False
習志野台,千葉県,船橋市,習志野台三丁目,35.722267,140.048411,292007.5196314836,5340406342,False
姪浜,福岡県,福岡市西区,姪浜駅南三丁目,33.5807442,130.32685,293317.36892641627,5030229631,False
野庭,神奈川県,横浜市港南区,野庭町,35.389347,139.570438,293640.1652586346,5339046541,False
多摩田園都市,神奈川県,横浜市青葉区,荏子田二丁目,35.580267,139.534822,293726.911706722,5339249242,False
多摩田園都市,神奈川県,横浜市青葉区,大場町,35.561121,139.536345,294165.62311567855,5339247224,False
勝瀬原,埼玉県,富士見市,ふじみ野西二丁目,35.861502,139.521774,294214.21415943233,5339643123,False
多摩田園都市,神奈川県,横浜市青葉区,みたけ台,35.555378,139.519029,294854.07970467274,5339246141,False
多摩田園都市,神奈川県,横浜市青葉区,すすき野一丁目,35.574054,139.533062,295897.7098381063,5339248243,False
大和市北部第一団地,神奈川県,大和市,下鶴間一丁目,35.487544,139.458016,295901.54001775227,5339138641,False
多摩田園都市,神奈川県,横浜市緑区,いぶき野,35.529153,139.505339,296526.8911180632,5339243014,False
多摩田園都市,神奈川県,横浜市青葉区,たちばな台二丁目,35.556914,139.510746,297128.3655023308,5339246044,False
小川蜂谷戸,東京都,町田市,小川一丁目,35.529109,139.474107,297333.97393744945,5339233724,False
八尾駅前,大阪府,八尾市,桜ヶ丘三丁目,34.6315298,135.606319,297609.71004256775,5135745843,False
みずほ台,埼玉県,富士見市,東みずほ台二丁目,35.840534,139.551578,297943.9381061439,5339640433,False
新横浜駅北部,神奈川県,横浜市港北区,新横浜二丁目,35.5085952,139.614551,298345.4034376961,5339241911,False
多摩田園都市,神奈川県,横浜市青葉区,柿の木台,35.55227,139.527397,299777.91799225815,5339246213,False
稲毛海浜ニュータウン,千葉県,千葉市美浜区,高洲三丁目,35.623082,140.072572,300095.181267315,5340304544,False
国立富士見台,東京都,国立市,富士見台三丁目,35.686111,139.440086,300552.13232658844,5339432513,False
芝東第１,埼玉県,川口市,北園町,35.8555085,139.703501,300668.8711055908,5339652632,False
新百合丘駅周辺,神奈川県,川崎市麻生区,上麻生三丁目,35.601597,139.505401,300872.9245453599,5339342012,False
成瀬南,東京都,町田市,南成瀬四丁目,35.537796,139.474289,301007.6929332506,5339234742,False
西菅,神奈川県,川崎市多摩区,菅北浦四丁目,35.6241766,139.53033,302593.19172882003,5339344234,False
京浜団地,東京都,町田市,成瀬が丘二丁目,35.533614,139.471886,302610.1595795069,5339234722,False
多摩田園都市,神奈川県,横浜市青葉区,荏田町,35.556599,139.556665,302648.01112182887,5339246443,False
山口台,神奈川県,川崎市麻生区,上麻生四丁目,35.597174,139.504939,303098.3572335067,5339341032,False
多摩田園都市,神奈川県,横浜市青葉区,梅が丘,35.534007,139.524436,303099.2943953368,5339244122,False
新松戸中央,千葉県,松戸市,新松戸五丁目,35.827591,139.909837,303239.3987067664,5339579224,False
十日市場,神奈川県,横浜市緑区,十日市場町,35.5235087,139.513953,303310.1652608174,5339242133,False
武庫川,兵庫県,西宮市,高須町二丁目,34.7055289,135.370569,303451.0287417708,5235024941,False
多摩田園都市,神奈川県,横浜市青葉区,すすき野三丁目,35.578243,139.528384,303731.10064685694,5339249214,False
多摩田園都市,神奈川県,横浜市青葉区,大場町,35.566654,139.535809,304727.6110044039,5339247244,False
多摩田園都市,神奈川県,横浜市青葉区,荏田西五丁目,35.544449,139.544263,305269.5184735612,5339245323,False
多摩田園都市,神奈川県,横浜市青葉区,みすずが丘,35.563547,139.539671,305309.3297297288,5339247331,False
多摩田園都市,神奈川県,横浜市青葉区,荏田北二丁目,35.55646,139.539971,305694.58354381705,5339246333,False
草加松原,埼玉県,草加市,松原三丁目,35.8433021,139.792619,305996.39813610865,5339661312,False
久留米,東京都,東久留米市,上の原一丁目,35.770472,139.541817,306760.85408209293,5339542314,False
宮本台,千葉県,船橋市,東船橋四丁目,35.697634,140.004586,310617.0470193396,5340403032,False
多摩田園都市,神奈川県,横浜市青葉区,荏田西五丁目,35.545217,139.548211,311521.12365712883,5339245324,False
野間,兵庫県,伊丹市,南野六丁目,34.766708,135.3971,311642.6963763675,5235132122,False
検見川海浜ニュータウン,千葉県,千葉市美浜区,磯辺五丁目,35.635709,140.060749,314193.4791117742,5340306424,False
平岸,北海道,札幌市豊平区,平岸四条四丁目,43.038046,141.371899,316635.92862564966,6441424942,False
港北ニュータウン,神奈川県,横浜市都筑区,中川中央二丁目,35.5506001,139.575617,316930.7590727507,5339246611,False
汐見台,神奈川県,横浜市磯子区,汐見台二丁目,35.4008682,139.606642,317021.0543706587,5339048821,False
多摩田園都市,神奈川県,横浜市青葉区,あざみ野南三丁目,35.56236,139.547224,317056.7463829429,5339247324,False
南戸塚住宅地,神奈川県,横浜市中区,常盤町一丁目,35.444137,139.638022,317264.95441915863,5339153113,False
港北ニュータウン,神奈川県,横浜市都筑区,荏田東三丁目,35.5447298,139.562588,317669.58169107855,5339245513,False
多摩田園都市,神奈川県,横浜市青葉区,荏田北一丁目,35.557926,139.545078,318093.72837722406,5339246343,False
多摩田園都市,神奈川県,横浜市青葉区,荏田西二丁目,35.555989,139.555099,319207.48171387246,5339246432,False
多摩田園都市,神奈川県,横浜市青葉区,市ケ尾町,35.549896,139.542203,319828.3838183805,5339245334,False
多摩田園都市,神奈川県,横浜市青葉区,荏田西二丁目,35.554749,139.551859,320396.11275602045,5339246431,False
東戸塚前田秋葉,神奈川県,横浜市戸塚区,前田町,35.425602,139.548247,321480.70800659765,5339141322,False
多摩田園都市,神奈川県,横浜市青葉区,千草台,35.541184,139.532204,322045.6939151194,5339244243,False
多摩田園都市,神奈川県,横浜市青葉区,しらとり台,35.536033,139.513621,323052.256660414,5339244113,False
うらわイーストシティ,埼玉県,さいたま市緑区,東浦和二丁目,35.862152,139.696054,323129.99932400876,5339653523,False
金岡東,大阪府,堺市北区,新金岡町四丁,34.569906,135.518024,325896.77751517756,5135648114,False
菅,神奈川県,川崎市多摩区,寺尾台一丁目,35.6197828,139.535823,326221.6802687559,5339344224,False
新松戸南部,千葉県,松戸市,新松戸南二丁目,35.821258,139.911141,327709.15948794136,5339578242,False
志木ニュータウン,埼玉県,志木市,館一丁目,35.8262277,139.562264,331394.1408433876,5339549422,False
南生田,神奈川県,川崎市多摩区,南生田一丁目,35.606462,139.530181,332295.20545200177,5339342234,False
多摩田園都市,神奈川県,横浜市青葉区,もえぎ野,35.547452,139.523106,333086.9461007513,5339245142,False
花畑,東京都,足立区,花畑三丁目,35.804484,139.813857,334085.14779455453,5339566531,False
多摩田園都市,神奈川県,横浜市青葉区,美しが丘四丁目,35.580023,139.549928,334291.3767265852,5339249342,False
万福寺,神奈川県,川崎市麻生区,万福寺三丁目,35.6074757,139.506376,334746.1253709227,5339342043,False
多摩田園都市,神奈川県,横浜市青葉区,あざみ野一丁目,35.569935,139.546108,336642.66615111334,5339248323,False
車返,東京都,府中市,押立町一丁目,35.661377,139.511244,337363.9995793617,5339349024,False
寺内,大阪府,豊中市,寺内一丁目,34.773503,135.49333,338634.9238844077,5235132934,False
多摩田園都市,神奈川県,横浜市青葉区,つつじが丘,35.539735,139.519458,339109.4514709696,5339244143,False
東戸塚品濃中央,神奈川県,横浜市戸塚区,平戸四丁目,35.429659,139.559749,345182.84154230997,5339141442,False
佐井寺東,大阪府,吹田市,五月が丘西,34.7859922,135.524975,347129.6399709795,5235144124,False
多摩田園都市,神奈川県,横浜市青葉区,荏田北二丁目,35.553108,139.540873,348466.4566244425,5339246314,False
多摩田園都市,神奈川県,横浜市青葉区,藤が丘二丁目,35.542284,139.527183,348553.3499524625,5339245211,False
多摩田園都市,神奈川県,横浜市青葉区,青葉台二丁目,35.546299,139.515338,350397.312433972,5339245131,False
東生田,神奈川県,川崎市多摩区,三田三丁目,35.6107724,139.543863,351202.2209694664,5339343323,False
新曽第一,埼玉県,戸田市,大字新曽稲荷,35.8213722,139.6628,352574.7316319063,5339558331,False
佐井寺南,大阪府,吹田市,竹谷町,34.7798134,135.519177,354573.56515505497,5235143141,False
品川八潮,東京都,品川区,八潮五丁目,35.601276,139.752059,354942.2944291506,5339362011,False
港北ニュータウン,神奈川県,横浜市都筑区,牛久保一丁目,35.5595556,139.582504,358018.2895026545,5339247621,False
百合ヶ丘,神奈川県,川崎市麻生区,百合丘一丁目,35.604835,139.516561,360146.8604364168,5339342132,False
多摩田園都市,神奈川県,横浜市青葉区,新石川二丁目,35.571332,139.561386,366342.7769141246,5339248442,False
錦町,埼玉県,蕨市,錦町四丁目,35.8269683,139.671641,368100.9037213992,5339559321,False
多摩田園都市,神奈川県,横浜市都筑区,あゆみが丘,35.569351,139.567253,372915.52481318405,5339248514,False
多摩田園都市,神奈川県,横浜市都筑区,すみれが丘,35.56634,139.581385,374952.36243379355,5339247643,False
行徳中部,千葉県,市川市,塩焼四丁目,35.686433,139.928387,375841.22576910496,5339472414,False
多摩田園都市,神奈川県,川崎市宮前区,野川,35.5739817,139.603254,379138.0269579685,5339248834,False
行徳南部,千葉県,市川市,幸二丁目,35.679928,139.925407,380898.5135913889,5339471431,False
多摩田園都市,神奈川県,川崎市宮前区,けやき平,35.5941307,139.576736,382335.5343301095,5339341613,False
丸山台,埼玉県,和光市,丸山台二丁目,35.784975,139.616183,384068.7433982933,5339544912,False
相模大野駅周辺,神奈川県,相模原市南区,相模大野三丁目,35.531825,139.438044,384213.3667333705,5339233533,False
多摩田園都市,神奈川県,川崎市宮前区,犬蔵二丁目,35.5863957,139.561722,395564.1972210081,5339340424,False
ひばりが丘,東京都,西東京市,ひばりが丘三丁目,35.744806,139.534993,408368.06601217104,5339449224,False
多摩川,東京都,狛江市,西和泉一丁目,35.639807,139.562523,409987.0772109469,5339346533,False
多摩田園都市,神奈川県,川崎市宮前区,鷺沼三丁目,35.5786537,139.569482,410954.3794428355,5339249523,False
行徳,千葉県,市川市,富浜二丁目,35.689984,139.92231,411918.2862271152,5339472344,False
多摩田園都市,神奈川県,横浜市青葉区,美しが丘二丁目,35.582955,139.556365,413761.9616988906,5339249443,False
JR津田沼駅南口,千葉県,習志野市,奏の杜一丁目,35.689736,140.014057,413779.99469612545,5340402133,False
竹の塚,東京都,足立区,竹の塚五丁目,35.79405,139.795876,414738.7004622907,5339565323,False
多摩田園都市,神奈川県,川崎市宮前区,土橋六丁目,35.5875976,139.572971,418865.20649006194,5339340542,False
神代,東京都,調布市,西つつじケ丘四丁目,35.653461,139.575709,420829.0214308513,5339348613,False
多摩田園都市,神奈川県,川崎市宮前区,有馬五丁目,35.5736912,139.579475,423750.70216267864,5339248634,False
南行徳第三,千葉県,市川市,行徳駅前一丁目,35.681945,139.915652,435522.3498062963,5339471334,False
南田中,東京都,練馬区,南田中五丁目,35.738949,139.610712,447383.65336348175,5339448842,False
多摩田園都市,神奈川県,川崎市宮前区,小台二丁目,35.5821528,139.583462,451352.52572569816,5339249643,False
多摩田園都市,神奈川県,川崎市高津区,梶ケ谷三丁目,35.5876318,139.603508,453102.08620655857,5339340832,False
南行徳第一,千葉県,市川市,相之川三丁目,35.675653,139.899044,459839.6192978893,5339471122,False
赤羽台,東京都,北区,赤羽台三丁目,35.779594,139.715238,465157.4006193707,5339553731,False
南行徳第二,千葉県,市川市,香取二丁目,35.677775,139.909199,469957.7386630013,5339471223,False
多摩田園都市,神奈川県,川崎市宮前区,宮前平三丁目,35.5871018,139.584965,494249.04570575984,5339340624,False
板橋,東京都,板橋区,坂下一丁目,35.7791729,139.688672,502100.502854341,5339553531,False
光が丘,東京都,練馬区,光が丘五丁目,35.759242,139.627433,520469.436454728,5339551011,False
戸山ハイツ,東京都,新宿区,戸山三丁目,35.704487,139.714165,540544.8597617542,5339454731,False
