name,pref,city,district,latitude,longitude,urban_point,in_mesh_point,is_island
西仙台ハイランド,宮城県,青葉区,新川,38.290172,140.628905,5947.0370851262705,,False
石山,北海道,白老町,字萩野,42.536433,141.300037,7048.363216682094,6341624413,False
みどり野,北海道,当別町,字茂平沢（みどり野）,43.256682,141.53826,7341.868480324666,6441740333,False
高島三ツ石,徳島県,鳴門市,,34.2129306,134.608185,9953.02740298566,5134245841,False
吉備高原都市,岡山県,吉備中央町,吉川日の上Ⅰ,34.8352512,133.760726,10089.51096807868,,False
アナトリア鴨川リゾート,千葉県,鴨川市,天面,35.07658,140.071735,10278.842209202254,,False
光都21,兵庫県,上郡町,光都２丁目,34.9317769,134.441315,10654.575389091697,5234331534,False
南房総千倉開発計画,千葉県,南房総市,千倉町忽戸,34.951594,139.951229,11766.67076527669,,False
名泉郷ニュータウン,福井県,あわら市,下金屋,36.244257,136.280139,11783.655647915142,5436229214,False
コリーナ矢板,栃木県,矢板市,玉田,36.756318,139.908657,11960.451422281827,5539170243,False
南部,北海道,紋別市,南が丘町,44.3329907,143.363327,12476.188406781961,6643329933,False
吉備高原団地,岡山県,吉備中央町,上野,34.839027,133.767379,12616.186190860863,5233260132,False
みどり野団地,北海道,南幌町,美園２丁目,43.054402,141.653638,12824.096137131739,6441456232,False
美奈宜の杜,福岡県,朝倉市,美奈宜の杜４丁目,33.431495,130.712282,13057.947131377201,,False
夷隅レクリエーション,千葉県,いすみ市,大原台,35.209003,140.367733,13060.29319260269,5240625912,False
大金台,栃木県,那須烏山市,月次,36.667644,140.115831,13089.094054971438,5540000912,False
有年,兵庫県,赤穂市,有年原,34.8295023,134.395603,13225.521798253392,5234139141,False
下野郷,宮城県,岩沼市,空港南,38.120445,140.917461,13538.69189213318,,False
大楽毛,北海道,釧路市,大楽毛南３丁目,43.00744,144.284992,14155.525448415889,6444420244,False
八合原,鹿児島県,曽於市,大隅町月野,31.582429,131.002604,14456.756176195295,4731209033,False
ｸﾞﾘｭｰﾈﾝ入野住宅団地,広島県,東広島市,入野中山台三丁目,34.4547661,132.860194,14988.38371083136,5132564842,False
フィオーレ喜連川,栃木県,さくら市,フィオーレ喜連川３丁目,36.7383544,140.028034,17198.13311527173,5540008231,False
浜松市船明,静岡県,天竜区,船明,34.8876894,137.818666,17444.595884066017,5237266532,False
錦西ニュータウン,北海道,苫小牧市,字錦岡錦西地区,42.602757,141.469316,18717.94773950883,6341732723,False
美祢ニュータウン来福台,山口県,美祢市,大嶺町東分,34.18456,131.196177,19269.455108328202,5131212521,False
北部,北海道,士別市,東六条北８丁目,44.188574,142.398949,19600.243218703472,6642232142,False
明野,北海道,苫小牧市,新開町３丁目,42.661863,141.64414,19803.423213332655,6341759123,False
北会津村真宮,福島県,会津若松市,真宮新町南４丁目,37.522116,139.873281,22031.24484569491,5639262942,False
ひたち野文化村,茨城県,水戸市,鯉淵町,36.3343144,140.377399,22562.45535065195,5440430011,False
小松ヶ丘,青森県,六戸町,小松ケ丘４丁目,40.662386265761,141.3365028417799,22581.610234707376,6041729624,False
ロングヒルニュータウン,大分県,大分市,梅が丘２丁目,33.1232016,131.684112,22657.59950386669,4931554443,False
山畑,三重県,伊賀市,希望ヶ丘西４丁目,34.785587,136.230098,22906.12145934535,5236114814,False
豊洋台団地,長崎県,長崎市,豊洋台１丁目,32.83036,129.791404,22935.73905704083,4929169332,False
阿字ヶ浦,茨城県,ひたちなか市,阿字ケ浦町,36.3876528,140.607014,22981.304085158947,5440446841,False
グリーンニュータウン,北海道,釧路町,緑５丁目,43.037717,144.470147,23064.575834359635,6444434741,False
ひょうご情報公園都市,兵庫県,三木市,志染町戸田,34.7999779,135.071377,23107.019983874612,,False
対雁,北海道,江別市,工栄町,43.126327,141.515408,23186.318671224097,,False
御庄,山口県,岩国市,御庄２丁目,34.1673314,132.152311,23701.810947053807,5132210211,False
北部,長野県,辰野町,中央宮所,35.988112,137.983429,24896.5577413842,5337778841,False
稲田川西,北海道,帯広市,清流西２丁目,42.872379,143.194213,25030.15181697438,6443214541,False
桜台,岩手県,盛岡市,桜台２丁目,39.751248,141.197319,25079.3460240371,5941510522,False
桜台ニュータウン,岩手県,盛岡市,桜台２丁目,39.7503,141.198939,25079.3460240371,5941510522,False
南大和田園都市牧野Ａ南地区,奈良県,五條市,なつみ台１丁目,34.3479731,135.668859,25143.32118395175,5135451343,False
沼田町伴,広島県,安佐南区,伴西１丁目,34.4673551,132.389288,25159.259160682894,,False
上町,鹿児島県,曽於市,末吉町上町５丁目,31.6509931,131.023463,25340.542391379648,4731308122,False
白帆台ニュータウン,石川県,内灘町,白帆台２丁目,36.6730242,136.657873,25432.179522577524,5536050243,False
梅ヶ丘,大分県,大分市,梅が丘１丁目,33.1211754,131.680075,25511.47843971126,4931554432,False
阿見吉原,茨城県,阿見町,よしわら１丁目,35.9860859,140.235973,25537.909985906703,,False
野中・砂子,兵庫県,赤穂市,北野中,34.762196,134.412176,25787.88341703014,5234131224,False
梅ノ木,宮城県,登米市,佐沼字梅ノ木１丁目,38.696564,141.20616,26343.957270037936,5841013632,False
河北,鳥取県,倉吉市,福庭町２丁目,35.4666961,133.846971,26582.0256070036,5333166722,False
蔵王みはらしの丘,山形県,山形市,みはらしの丘２丁目,38.189018,140.291591,26691.036348093956,5740222332,False
落合,秋田県,能代市,落合字下大野,40.2252677032112,140.03593505407807,27346.121424052766,6040207222,False
萩洗,宮城県,登米市,佐沼字南佐沼２丁目,38.682863,141.184959,27365.054715883587,5841011444,False
ひょうご東条ニュータウン インターパーク 南山の里,兵庫県,加東市,南山３丁目,34.8923879,135.069886,27872.795305957214,5235207521,False
芦別第三,北海道,芦別市,北五条西１丁目,43.527331,142.183636,28393.02528962047,6542213423,False
花吉野ガーデンヒルズ,奈良県,大淀町,大字福神,34.3957764,135.745265,28455.905716764442,5135457923,False
臨海工業,福島県,いわき市,小名浜字芳浜,36.944747,140.876041,28542.994228142157,5540373013,False
みずきが丘ﾆｭｰﾀｳﾝ,福島県,本宮市,関下,37.48848,140.358232,28590.894724391645,5640128841,False
湖南サンライズ,滋賀県,日野町,大字石原,35.0360205,136.232218,28807.30220991587,5236414823,False
高屋駅周辺,岡山県,井原市,下出部町２丁目,34.582212,133.438193,28838.70334646622,5133639533,False
福井,長野県,飯綱町,大字豊野福井団地,36.7424722,138.252887,28960.31207112731,5538029011,False
輪内,鹿児島県,奄美市,有屋町,28.394213,129.530221,29142.354311072173,4229447214,True
学園,北海道,紋別市,渚滑町元新１丁目,44.3650344,143.333284,29193.25044694001,6643423643,False
池の台,三重県,名張市,美旗町池の台東,34.6515757,136.134549,29511.38040296114,5136718022,False
戸高,宮崎県,日南市,戸高２丁目,31.596156,131.37567,29759.789893635054,4731331031,False
小峰台,和歌山県,橋本市,小峰台２丁目,34.3526719,135.630456,29836.133348675856,5135452014,False
つのいニュータウン,鳥取県,鳥取市,若葉台南６丁目,35.445708,134.262365,29974.44489301958,5334123024,False
本町,北海道,南幌町,栄町１丁目,43.063746,141.650411,30136.90636363734,6441457231,False
ぬな川,新潟県,糸魚川市,大字今村新田,37.029443,137.822145,30242.142606115154,5537463542,False
あすとぴあ,山口県,宇部市,あすとぴあ５丁目,33.980698,131.297221,30532.452561317143,5031727342,False
南山台東、南山台西,岐阜県,御嵩町,御嵩,35.421755,137.138009,30558.93870897178,5337110131,False
多気ニュータウン,三重県,多気町,相可台,34.5004455,136.548263,30693.35884300601,5136640322,False
新城沖,宮城県,気仙沼市,新田,38.907732,141.550334,30750.330167551474,5841248433,False
新城沖,宮城県,気仙沼市,新田,38.907732,141.550334,30750.330167551474,5841248433,False
土岐プラズマリサーチパーク,岐阜県,土岐市,土岐ヶ丘１丁目,35.3399102,137.166619,30907.444753990192,,False
光が丘,山口県,山口市,小郡光が丘,34.123902,131.397225,30929.814182650294,5131134144,False
クリエイティブヒルズ／しまなみヒルズ,愛媛県,今治市,しまなみヒルズ,34.0672124,132.972877,31060.4054306778,5132078722,False
シ－アイタウン利府葉山,宮城県,利府町,葉山１丁目,38.364474,141.023254,31188.23384855737,5741403142,False
草川,宮崎県,門川町,須賀崎１丁目,32.486597,131.668046,31267.39371317052,4831558314,False
赤塚駅前,新潟県,西区,みずき野３丁目,37.8177495,138.902797,31450.300506899846,5638578211,False
上灘,鳥取県,倉吉市,下田中町,35.4302508,133.843902,31529.5258005027,5333161741,False
星和豊里ニュータウン,千葉県,銚子市,豊里台３丁目,35.788106,140.707548,31574.182519904738,5340554641,False
八戸駅西,青森県,八戸市,大字尻内町字メドツ河原,40.51128789245912,141.42733568355976,31591.288221098803,6041631413,False
西ヶ丘,岩手県,宮古市,西ケ丘４丁目,39.642049,141.914456,31819.017418015963,5941377311,False
鉄北第一,北海道,当別町,西町,43.225724,141.511882,31929.65327528574,6441647022,False
足見川エコシティ,三重県,四日市市,高花平４丁目,34.948358,136.546025,32238.046539698345,,False
那須塩原駅西,栃木県,那須塩原市,方京３丁目,36.9305276,140.015031,32306.283376599826,5540301131,False
十市パークタウン,高知県,南国市,緑ケ丘２丁目,33.5333019,133.608093,32337.30109160779,5033243843,False
釧路町東陽,北海道,釧路町,東陽西２丁目,42.999775,144.428769,32524.61552703894,6444339434,False
グリーンポート愛島,宮城県,名取市,愛島台６丁目,38.145256,140.819449,32687.368491460453,5740167523,False
スカイタウンつつじが丘,和歌山県,和歌山市,つつじが丘,34.268761,135.100957,32759.53816162522,5135302813,False
田園都市 島名,茨城県,つくば市,下河原崎,36.06825,140.039885,32822.51162979206,,False
芳賀,山形県,天童市,大字北目,38.343272,140.362186,32861.39724560077,5740421822,False
八島台,福島県,三春町,八島台５丁目,37.446533,140.479689,32897.91444528573,5640133832,False
星ヶ浦北部,北海道,釧路市,星が浦北４丁目,43.015442,144.308639,32951.547046551306,6444421443,False
パストラルびゅう桂台,山梨県,大月市,猿橋町桂台１丁目,35.6097779,138.971821,33022.835006945694,5338373721,False
泉沢向陽台,北海道,千歳市,白樺２丁目,42.787527,141.597412,33299.49476943201,6441144742,False
平井東部,茨城県,鹿嶋市,大字平井,35.957548,140.668127,33326.97781659204,5340754334,False
あおば台ニュータウン,福島県,須賀川市,あおば町,37.3169717,140.384557,33389.38480994959,5540738022,False
湯沢,岩手県,盛岡市,湯沢西２丁目,39.640562,141.096468,33607.54685430546,5941306743,False
船引東部,福島県,田村市,船引町東部台４丁目,37.4401956,140.584483,33937.543283538645,5640142644,False
天辰第一,鹿児島県,薩摩川内市,東大小路町,31.8270594,130.321527,34112.583789638215,4730529521,False
長岡ニュータウン,新潟県,長岡市,青葉台４丁目,37.4376473,138.751412,34165.37949890948,5638162031,False
善當寺住宅地区,広島県,安佐南区,沼田町大字伴,34.4682175,132.402843,34170.94434115197,,False
上郡ネオポリス,兵庫県,上郡町,高田台３丁目,34.8633877,134.382889,34207.82089206692,5234233041,False
指宿駅西部,鹿児島県,指宿市,湯の浜一丁目,31.234344,130.642118,34213.895227230736,4630658112,False
瑞穂ニュータウン,千葉県,香取市,みずほ台３丁目,35.885147,140.432133,34230.26635349828,5340636421,False
滑川駅南,富山県,滑川市,柳原,36.7658485,137.355362,34364.71812550225,5537121834,False
駅西,秋田県,横手市,前郷,39.30864498634099,140.55880749540248,34553.83966253671,5840747421,False
赤坂ニュータウン,宮城県,青葉区,赤坂３丁目,38.292968,140.747137,34761.516819412696,5740355922,False
松川羽山,福島県,福島市,松川町美郷２丁目,37.664102,140.469775,34799.97149185008,5640339741,False
中郷ニュータウン,茨城県,北茨城市,中郷町汐見ケ丘５丁目,36.7648079,140.731418,34889.08032534754,5540151843,False
白河西郷西,福島県,西郷村,,37.12438,140.184345,34906.21157784809,5540514443,False
望洋パークタウン,北海道,小樽市,望洋台３丁目,43.162587,141.029252,35218.69797221089,6441509232,False
宮ノ口,宮崎県,門川町,宮ケ原１丁目,32.482723,131.648483,35250.083440578535,4831557144,False
泉沢向陽台,北海道,千歳市,文京１丁目,42.779212,141.60003,35478.336316849236,6441143831,False
自由ヶ丘,山口県,防府市,自由ヶ丘四丁目,34.071422,131.536623,35985.40353770162,5131048242,False
関原東部,新潟県,長岡市,関原西町,37.458747,138.777016,36146.60691189685,5638165211,False
インターパーク宇都宮南,栃木県,宇都宮市,インターパーク４丁目,36.492729,139.907458,36295.82192005679,,False
すずらん台,三重県,名張市,すずらん台西４番町,34.6380994,136.159852,36410.33844342875,5136716242,False
白鳥台,北海道,室蘭市,白鳥台５丁目,42.379502,140.938861,36472.991888742894,6340475531,False
久住駅前,千葉県,成田市,久住中央１丁目,35.835372,140.33942,36804.801973886424,5340620711,False
紫香楽ハイランド,滋賀県,甲賀市,宮の前,34.966121,136.167045,36826.80678985547,5236315334,False
希望ヶ丘ニュータウン,滋賀県,甲賀市,宮の前,34.966121,136.167045,36826.80678985547,5236315334,False
東宝ランド,滋賀県,甲賀市,宮の前,34.966121,136.167045,36826.80678985547,5236315334,False
東宝ランド,滋賀県,甲賀市,宮の前,34.966121,136.167045,36826.80678985547,5236315334,False
東宝ランド,滋賀県,甲賀市,宮の前,34.966121,136.167045,36826.80678985547,5236315334,False
東宝ランド,滋賀県,甲賀市,宮の前,34.966121,136.167045,36826.80678985547,5236315334,False
みどり台ニュータウン,北海道,千歳市,みどり台北１丁目,42.860505,141.618184,37203.46884168606,6441243914,False
リフレ岬望海坂,大阪府,岬町,望海坂１丁目,34.3275502,135.189305,37278.23481848964,5135319513,False
田村・沖宿,茨城県,土浦市,おおつ野５丁目,36.083919,140.25525,37305.746676032075,5440120012,False
ガーデンタウン高の原,宮城県,青葉区,高野原２丁目,38.288421,140.766728,37373.51091697814,5740364132,False
東長崎平間・東,長崎県,長崎市,鶴の尾町,32.7864474,129.948072,37383.903519570114,4929174524,False
石原,京都府,福知山市,遷喬石原,35.2992132,135.177367,37477.10581770347,5235715433,False
パトリアル京ヶ丘,大分県,大分市,京が丘南３丁目,33.1750781,131.649534,37575.77022437986,4931651122,False
中大塩,長野県,茅野市,大字中大塩,36.0259295,138.186415,37681.00836264733,5438013422,False
滝沢あすみ野,岩手県,滝沢市,湯舟沢,39.778793,141.101529,37710.905256436956,5941503813,False
岩瀬駅前,茨城県,桜川市,明日香２丁目,36.365336,140.109478,37823.7115994101,5440403844,False
千福ニュータウン,静岡県,裾野市,千福が丘２丁目,35.1978344,138.880795,37904.99018576761,5238673032,False
富岡,佐賀県,武雄市,武雄町大字昭和天神,33.1951388,130.028393,37925.00133268877,4930603214,False
車坂・山下,宮崎県,宮崎市,学園木花台桜１丁目,31.8255982,131.418314,38121.68445785704,4731539312,False
勿来錦第一,福島県,いわき市,錦町中央３丁目,36.90121,140.791318,38126.71533468412,5540268312,False
貴志川長山団地,和歌山県,紀の川市,大字長山,34.2106396,135.287416,38201.177830947745,5135225224,False
鷹巣,宮城県,白石市,鷹巣東一丁目,37.99711,140.635471,38204.75866286724,5640759042,False
高野ニュータウン,北海道,岩見沢市,幌向南三条２丁目,43.1461512,141.662149,38249.95556256436,6441557242,False
三井ニュータウン,鹿児島県,鹿児島市,牟礼岡２丁目,31.6738,130.584887,38395.01685123893,4730440644,False
鹿島神宮駅周辺北,茨城県,鹿嶋市,緑ヶ丘４丁目,35.9750969,140.624851,38574.27822599884,5340747922,False
春日丘住宅地,三重県,名張市,春日丘３番町,34.613679,136.118138,38636.56253445341,5136703932,False
御所野ニュータウン第五,秋田県,秋田市,御所野地蔵田４丁目,39.658959215683495,140.1532807897602,38870.46322162792,5940319212,False
芳賀佐山,岡山県,北区,佐山,34.7056544,133.87702,38967.229292214455,5233074031,False
旭岡,北海道,函館市,西旭岡町２丁目,41.799643,140.827925,39039.216201007315,6240565633,False
あやの台,和歌山県,橋本市,あやの台１丁目,34.3381755,135.651957,39280.05015668712,5135450231,False
南部第二,福井県,大野市,若杉町,35.9754761,136.501772,39307.23854810933,5336747011,False
松川,山形県,米沢市,通町４丁目,37.8914111,140.125996,39309.59878011678,5640616033,False
山代北部,石川県,加賀市,山代温泉,36.296406,136.358786,39346.92140338101,5436325841,False
大井,岡山県,笠岡市,大井南,34.5307118,133.502265,39462.42168220024,5133643031,False
南帯広,北海道,帯広市,大空町,42.877159,143.14996,39523.514845516554,6443215124,False
阪南カレッジタウン,大阪府,阪南市,箱作,34.332238,135.203483,39696.98687410116,5135319634,False
リバーサイドきぬの里,栃木県,さくら市,上阿久津,36.6590334,139.962399,39726.656719959414,5439779622,False
東一宮,岡山県,津山市,東一宮,35.0984025,134.003653,39758.11369542991,5234501034,False
是川,青森県,八戸市,是川２丁目,40.467794683559745,141.4998329307736,39770.933214010656,6041536922,False
須頃郷,新潟県,燕市,井土巻３丁目,37.651548,138.936968,39871.12033434445,5638378422,False
植田第一,福島県,いわき市,植田町南町１丁目,36.915862,140.79953,40032.132201844746,5540269344,False
御所野ニュータウン,秋田県,秋田市,御所野元町１丁目,39.66202154271968,140.16508440110502,40299.98859792984,5940319313,False
片田,三重県,津市,片田新町,34.7020465,136.438834,40383.03103331599,5236034511,False
都田,静岡県,北区,新都田三丁目,34.8194097,137.73448,40421.72567817008,5237158824,False
桐陽台,広島県,安佐北区,三入東１丁目,34.53472,132.545668,40454.94768778215,5132644321,False
本渡北,熊本県,天草市,北原町,32.4681852,130.186548,40493.87160780131,4830516422,False
板倉ニュータウン,群馬県,板倉町,泉野３丁目,36.226035281672665,139.6391441161137,40508.91108058561,5439257111,False
磯原駅西,茨城県,北茨城市,磯原町磯原３丁目,36.793117,140.739926,40559.20181245211,5540155911,False
飯倉台,千葉県,匝瑳市,飯倉台,35.689387,140.519643,40599.16332462256,5340442141,False
小野,鹿児島県,鹿児島市,伊敷６丁目,31.624188,130.515819,40641.72047002036,4730344134,False
佐竹南台,茨城県,常陸太田市,天神林町佐竹南台ニュータウン,36.5226395,140.509764,40696.476424898574,5440642042,False
サンタウン松園,岩手県,盛岡市,北松園４丁目,39.761897,141.177353,40714.59660921643,5941511413,False
金池第二,山形県,米沢市,金池７丁目,37.9273022,140.117842,40787.9597377065,5640701914,False
西川,福島県,須賀川市,卸町,37.292406,140.35875,40884.98486389056,,False
野田定内,岩手県,釜石市,野田町４丁目,39.258609,141.827917,40993.99168070192,5841761611,False
兵庫ニュータウン（住吉台）,兵庫県,篠山市,住吉台,35.0670567,135.171413,41101.60994967984,5235418321,False
しらさぎ台,徳島県,徳島市,上八万町西山,34.0322646,134.49156,41145.15723415684,5134033934,False
欅台,大分県,大分市,けやき台３丁目,33.1546569,131.673228,41167.75730680715,4931558342,False
ウトナイ,北海道,苫小牧市,字沼ノ端ウトナイ区画整理地区,42.68312,141.693764,41231.427948169505,6441051543,False
松長,福島県,会津若松市,一箕町松長４丁目,37.5285103,139.957016,41248.32425644967,5639273623,False
名鉄辰口ハイタウン,石川県,能美市,緑が丘７丁目,36.4375965,136.538981,41454.734736397884,5436542331,False
前田・長岡,茨城県,茨城町,大字長岡矢頭,36.3136945,140.443565,41490.924804603696,5440337532,False
かずさアクアシティ,千葉県,木更津市,瓜倉,35.4296568,139.919613,41655.63903270051,5339171341,False
常澄,茨城県,水戸市,東前１丁目,36.33988,140.531524,41701.70515781402,5440440243,False
姫城,鹿児島県,霧島市,隼人町姫城二丁目,31.766887,130.758115,41951.487184924874,4730562021,False
南部,青森県,五所川原市,中央４丁目,40.79722066698905,140.4502216246373,41996.59046742031,6140135631,False
気仙沼西,宮城県,気仙沼市,田中前３丁目,38.890498,141.55994,42040.6054014903,5841246444,False
桔梗が丘,三重県,名張市,桔梗が丘南３番町,34.6348267,136.122753,42106.919144105545,5136706922,False
はたそめ,茨城県,常陸太田市,幡町四季の丘・はたそめ西,36.5455859,140.545768,42187.868592588886,5440645323,False
茂原緑ヶ丘,千葉県,茂原市,緑ヶ丘１丁目,35.439729,140.259935,42192.03928841472,5340122044,False
天満台,奈良県,宇陀市,天満台東２丁目,34.5460744,135.973491,42214.372931087484,5135675742,False
南ニュータウン,栃木県,宇都宮市,清原台６丁目,36.5411069,140.002857,42573.71104675469,5440604033,False
相馬駅東,福島県,相馬市,北飯渕１丁目,37.804088,140.931709,42601.47026636073,5640576423,False
桐ヶ丘住宅地,三重県,伊賀市,桐ケ丘,34.6613477,136.193892,42765.7617650988,5136719523,False
中郷,鹿児島県,薩摩川内市,中郷２丁目,31.833615,130.312228,42767.87024503553,4730620422,False
蓬莱第２,福島県,福島市,蓬莱町３丁目,37.702591,140.477917,42944.65722441149,5640434813,False
パークコミュニティ桜の里,長崎県,長崎市,さくらの里２丁目,32.831896,129.767296,43199.54674523144,4929169134,False
広陵台,福岡県,宗像市,広陵台４丁目,33.7915053,130.5975,43258.8534317502,5030544744,False
湯ノ山団地,愛媛県,松山市,湯の山５丁目,33.8699183,132.817398,43416.71858981828,5032664514,False
児島元浜,岡山県,倉敷市,児島駅前１丁目,34.4634261,133.804587,43587.402622285284,5133565432,False
ｺﾓﾝｼﾃｨ十王・城の丘,茨城県,日立市,城の丘３丁目,36.668606,140.676862,43599.775316255684,5540050411,False
亀山北,栃木県,真岡市,熊倉町,36.458224,139.991312,43621.98678376908,5439574934,False
永山,北海道,旭川市,流通団地三条４丁目,43.802261,142.405429,43928.05347312919,6542536214,False
富貴ヶ丘,三重県,名張市,富貴ケ丘６番町,34.6205253,136.119934,43958.1412745958,5136704923,False
横尾,大分県,大分市,大字鶴瀬,33.2080419,131.675425,44029.91401215817,4931654433,False
中部平成台,三重県,松阪市,平成町,34.5560424,136.491885,44126.229545795315,5136636932,False
笠岡,岡山県,笠岡市,七番町,34.49584,133.517057,44150.80829521883,5133549132,False
西大浜,香川県,坂出市,西大浜北１丁目,34.322208,133.843772,44234.09984379324,5133368741,False
北野台団地,奈良県,大淀町,大字北野,34.397385,135.8217,44557.427117362444,5135467541,False
泉団地,岡山県,総社市,泉,34.6915352,133.751547,44839.81626267752,5233062033,False
東部丘陵地,石川県,能美市,泉台町,36.431434,136.521024,44862.30076276578,5436541143,False
東部丘陵,石川県,能美市,泉台町,36.431434,136.521024,44862.30076276578,5436541143,False
島松北,北海道,恵庭市,島松本町４丁目,42.92532,141.580633,44915.831247567396,6441341612,False
富貴ヶ丘,三重県,名張市,富貴ケ丘３番町,34.6269527,136.122767,44946.80380523466,5136705922,False
大曲市東部,秋田県,大仙市,大曲田町,39.451461113358796,140.48419966727968,44959.570676301846,5940134821,False
太夫浜,新潟県,北区,太夫浜新町１丁目,37.9618049,139.158071,45050.622612582236,5639715223,False
中部,宮城県,大河原町,字町,38.053904,140.732374,45078.56702227229,5740056823,False
姶良ニュータウン,鹿児島県,姶良市,西姶良２丁目,31.7314694,130.602012,45155.9253384094,4730447833,False
北上南部,岩手県,北上市,大堤北２丁目,39.262746,141.104674,45163.948002375764,5841701832,False
松ヶ丘,石川県,加賀市,松が丘４丁目,36.3235932,136.338828,45242.8511441838,5436328733,False
草川,栃木県,さくら市,草川,36.6816916,139.954225,45244.11881029587,5539071634,False
サザンクロス佐野,栃木県,佐野市,高萩町,36.296588,139.603851,45251.236579976634,5439345832,False
イトーピア亀山(２期),三重県,亀山市,みずきが丘,34.877244,136.468504,45340.96018605271,5236235714,False
ひより台,宮城県,富谷町,ひより台１丁目,38.404656,140.886354,45395.63210283208,5740478042,False
鷹ノ巣,北海道,旭川市,春光台三条８丁目,43.825193,142.365689,45427.79942854849,6542529912,False
小山,三重県,桑名市,多度町多度２丁目,35.127666,136.632929,45462.860543415234,5236555023,False
杜の街,三重県,津市,河芸町杜の街,34.806686,136.530698,45484.805812835846,,False
神前,島根県,出雲市,塩冶神前５丁目,35.349506,132.756937,45498.306721009445,5332061043,False
土合ヶ原,茨城県,神栖市,土合本町３丁目,35.792058,140.777822,45532.521981122,5340565211,False
下々条地区,新潟県,長岡市,高見１丁目,37.4965249,138.866328,45652.490337925854,5638169932,False
北前,沖縄県,北谷町,北谷二丁目,26.3029243,127.759753,45718.09709072918,3927366024,False
気仙沼,宮城県,気仙沼市,本郷,38.894507,141.568598,45783.1702616653,5841247514,False
八丁平,北海道,室蘭市,八丁平２丁目,42.366828,141.009039,45795.61427309441,6341404021,False
東部工業団地,福井県,鯖江市,御幸町２丁目,35.9766827,136.192244,45997.72170375781,5336717512,False
ポートウエストみなと坂,長崎県,長崎市,みなと坂２丁目,32.7326766,129.836285,46105.988245799126,4929067644,False
門・東安庭,岩手県,盛岡市,門１丁目,39.6716394,141.16977,46119.44323134023,5941410341,False
判田台,大分県,大分市,大字下判田,33.1625695,131.630678,46174.01937686794,4931559032,False
植田東部,福島県,いわき市,佐糠町東１丁目,36.920426,140.804601,46393.35852734681,5540360414,False
関ヶ丘,岩手県,一関市,関が丘,38.918251,141.145992,46428.358542327114,5841310121,False
桑江伊平,沖縄県,北谷町,美浜２丁目,26.3202794,127.759761,46457.05090277026,3927368024,False
西部,福井県,鯖江市,有定町１丁目,35.943999,136.176904,46464.95661534742,5336713413,False
関原,新潟県,長岡市,関原南２丁目,37.44931,138.774576,46568.07777828751,5638163144,False
菊陽第二,熊本県,菊陽町,大字津久礼,32.8631302,130.810926,46603.2890184916,,False
かずさアクアシティ,千葉県,木更津市,金田東３丁目,35.433896,139.932507,46616.051123121186,5339172421,False
久保,山口県,下松市,東陽４丁目,34.0353247,131.914413,46786.71691452066,5131074311,False
松木,熊本県,玉名市,松木,32.923978,130.554206,46865.483011422686,4930340434,False
みやぎ台ニュータウン,宮城県,青葉区,みやぎ台２丁目,38.309673,140.769747,46949.81084441818,5740367121,False
天童南部,山形県,天童市,南町２丁目,38.3445943,140.370652,47214.56601613258,5740421923,False
東聖,北海道,東神楽町,ひじり野南１条４丁目,43.7220144,142.410825,47265.925146827816,6542436242,False
宮下,千葉県,君津市,宮下２丁目,35.300088,139.929018,47414.321888160135,5239776412,False
つくばエクスプレスタウン,茨城県,つくば市,柴崎,36.1090002,140.121513,47508.77909044038,5440103921,False
東名掛川ＩＣ周辺,静岡県,掛川市,杉谷南１丁目,34.7628626,138.028905,47676.699463033256,5238101232,False
宇都宮グリーンタウン,栃木県,宇都宮市,立伏町,36.6358132,139.878135,47925.442722282576,5439776014,False
緑ヶ丘,大分県,大分市,緑が丘４丁目,33.1840912,131.529406,47930.545003983534,4931642212,False
（仮称）プロパスト三浦計画,神奈川県,三浦市,初声町入江,35.1869243,139.624061,47934.70168849848,5239642924,False
船迫,宮城県,柴田町,西船迫１丁目,38.066744,140.766835,47978.3279167645,5740068112,False
南陽台,群馬県,高崎市,吉井町南陽台２丁目,36.27555088499068,139.00294665165902,48260.43009847318,5439303011,False
長田,栃木県,真岡市,上大沼,36.4372695,139.959908,48313.920850135466,5439572624,False
妙円寺団地,鹿児島県,日置市,伊集院町妙円寺１丁目,31.6446147,130.394549,48362.86162209902,4730337123,False
瀬戸塩草,愛知県,瀬戸市,塩草町,35.2097658,137.115236,48411.68669653116,5237605911,False
本郷台団地,栃木県,上三川町,大字西汗,36.4825535,139.91876,48451.394094703224,5439577343,False
湖南（住宅）,滋賀県,湖南市,中央１丁目,35.004128,136.084728,48489.054919021786,5236400624,False
天王ニュータウン,高知県,いの町,天王南４丁目,33.5304037,133.447989,48493.88269761867,5033233542,False
錦岡鉄北第一,北海道,苫小牧市,青雲町１丁目,42.611791,141.496267,48535.62418921491,6341733923,False
八戸ニュータウン,青森県,八戸市,東白山台３丁目,40.48289546847799,141.46257979110064,48536.11510199255,6041537733,False
季美の森,千葉県,大網白里市,季美の森南２丁目,35.555308,140.300946,48654.34171983558,5340226431,False
比津ケ丘団地,島根県,松江市,比津が丘１丁目,35.4931159,133.039549,48773.91529301011,5333109311,False
ヒルタウンさつき野,栃木県,鹿沼市,松原３丁目,36.5511032,139.815194,48910.23172531775,5439666511,False
坂田山,栃木県,鹿沼市,坂田山３丁目,36.5731844,139.739359,48949.48811005777,5439658933,False
ガーデンシティ湖南,茨城県,阿見町,南平台１丁目,36.0249374,140.2524,48975.05443284569,5440022033,False
赤石,愛知県,田原市,東赤石,34.663164,137.269835,48984.285993224155,5137729141,False
潮見台ニュータウン,高知県,高知市,潮見台１丁目,33.5600985,133.620488,49192.06552980506,5033247921,False
児玉南,埼玉県,本庄市,児玉町児玉南２丁目,36.183472,139.133348,49269.40412836679,5439212021,False
百合が丘ニュータウン,茨城県,水戸市,百合が丘町,36.3454538,140.506878,49314.76110591823,5440441023,False
勝木,広島県,安佐北区,亀山西２丁目,34.533005,132.474496,49403.53493715607,5132633744,False
幸ニュータウン,北海道,小樽市,幸２丁目,43.216096,140.970694,50013.258947353825,6440675743,False
南部第二,静岡県,菊川市,加茂白岩下,34.7464535,138.084217,50039.53331160884,5238009641,False
駒場,北海道,恵庭市,駒場町３丁目,42.869737,141.580982,50135.741458387354,6441244614,False
山王,千葉県,富津市,上飯野,35.319572,139.856,50248.01326274077,,False
氏家駅西部,栃木県,さくら市,卯の里１丁目,36.6824431,139.959375,50357.27522897036,5539071643,False
祝吉郡元,宮崎県,都城市,郡元３丁目,31.7439708,131.085744,50405.18759688843,4731409624,False
中部台地,岐阜県,美濃加茂市,中部台３丁目,35.4624504,137.020272,50460.60042518742,5337105123,False
高間木伊勢崎台地,栃木県,真岡市,高勢町２丁目,36.432229,139.977572,50522.99121606771,5439571833,False
緑ヶ丘団地,長崎県,長与町,三根郷緑ヶ丘,32.8251423,129.890361,50563.89436058878,4929179111,False
ライフタウン名取・相互台、ライフタウン名取・桜坂,宮城県,名取市,相互台１丁目,38.208292,140.811596,50609.69301644758,5740264444,False
レイクサイドヒル,千葉県,東金市,日吉台５丁目,35.571532,140.347413,50627.656878696354,5340228742,False
花ひらくガーデンシティ美咲野,熊本県,大津町,美咲野３丁目,32.8865698,130.884668,50760.14145948935,4930276024,False
高栄,北海道,北見市,高栄西町８丁目,43.814378,143.85777,50845.863009326094,6543567841,False
古田刈,福井県,敦賀市,古田刈,35.629535,136.066339,50996.11028082908,5336305532,False
稲葉団地,岐阜県,大垣市,稲葉北１丁目,35.3759482,136.553139,51145.16343481863,5336045412,False
中水尾川,徳島県,鳴門市,撫養町大桑島,34.186814,134.601338,51161.56172926722,5134242813,False
並木山王,栃木県,上三川町,しらさぎ１丁目,36.436683,139.912004,51169.020932981,5439572224,False
中央,山形県,東根市,中央４丁目,38.433802,140.390939,51193.89175165342,5740532112,False
いわきニュータウン,福島県,いわき市,鹿島町下矢田,37.007042,140.917168,51351.44108400944,5540470334,False
新大平下駅東部,栃木県,栃木市,大平町蔵井,36.347498,139.711377,51397.21466126019,5439451642,False
舟岡,北海道,伊達市,舟岡町,42.458721,140.879442,51442.8366062876,6340575012,False
長谷,静岡県,掛川市,長谷１丁目,34.7669758,137.994451,51473.16272482305,5237172921,False
グリーンタウン上合,茨城県,日立市,かみあい町２丁目,36.628461,140.661174,51493.92221818405,5440755224,False
高栄第二,北海道,北見市,若葉２丁目,43.81019,143.848017,51568.23326818962,6543567722,False
光風台団地,長崎県,長崎市,鳴見台２丁目,32.8214209,129.805791,51664.33750540694,4929168432,False
玉川,福島県,いわき市,小名浜玉川町,36.9845387,140.884004,51901.300983317735,5540378021,False
南向台ハイタウン,福島県,福島市,南向台２丁目,37.7236691,140.479935,51905.866795126916,5640436834,False
豊里ネオポリス,三重県,津市,高野尾町,34.806333,136.468685,51967.305563285205,5236136734,False
吉水駅前第一地区,栃木県,佐野市,吉水町,36.345308,139.577694,51975.43187972602,5439441613,False
花巻駅西第五,岩手県,花巻市,星が丘１丁目,39.4036691,141.106017,52177.81704927074,5941008814,False
コモアしおつ,山梨県,上野原市,コモアしおつ３丁目,35.6185469,139.074634,52188.893262310754,5339304522,False
湯野,広島県,福山市,神辺町大字新湯野,34.5576038,133.389354,52219.488935203335,5133636133,False
佐野見晴台,静岡県,三島市,佐野見晴台１丁目,35.1640744,138.946152,52295.63401193615,5238579541,False
三島ビューティータウン,静岡県,三島市,佐野見晴台１丁目,35.16381,138.944453,52295.63401193615,5238579541,False
山陽団地,岡山県,赤磐市,山陽４丁目,34.7487722,134.005179,52517.83803944901,5234009034,False
沼,岡山県,津山市,沼,35.0783072,134.010785,52554.36624684415,5234409024,False
今古賀,福岡県,遠賀町,大字今古賀,33.84857,130.666173,52652.5128050837,5030651334,False
太陽ヶ丘,石川県,金沢市,太陽が丘３丁目,36.5319607,136.706521,52683.177742885964,5436653643,False
ビックヒルズ飯能大河原,埼玉県,飯能市,茜台２丁目,35.8512961,139.291326,52727.285662864284,,False
小川パークヒル,埼玉県,小川町,東小川４丁目,36.0578884,139.294272,52934.566922677375,5439026343,False
長島,大分県,佐伯市,長島町３丁目,32.9599223,131.908084,52969.51345777927,4931375221,False
学園木花台,宮崎県,宮崎市,学園木花台南２丁目,31.829149,131.423907,53054.02204104252,4731539324,False
下館ニュータウン,茨城県,筑西市,幸町２丁目,36.2847639,139.94331,53213.63818400853,5439374512,False
下館ニュータウン,茨城県,筑西市,幸町２丁目,36.2847639,139.94331,53213.63818400853,5439374512,False
育ヶ丘団地,兵庫県,小野市,育ケ丘町,34.8216489,134.955212,53254.46329389011,5234178632,False
潤井戸,千葉県,市原市,うるいど南３丁目,35.506219,140.170985,53255.09213333795,5340210343,False
原町東部第三,宮城県,若林区,六丁の目北町,38.253954,140.951916,53263.834639233,5740370613,False
東部ニュータウン,福島県,郡山市,緑ケ丘東６丁目,37.3841274,140.435711,53302.93007976855,5640036422,False
宿西,茨城県,つくば市,筑穂２丁目,36.1339359,140.080404,53495.77918625061,5440106612,False
境,神奈川県,中井町,境境原,35.3464649,139.22362,53507.87363424166,,False
北見市第３,北海道,北見市,緑町３丁目,43.806125,143.844938,53513.47569800637,6543566741,False
岡山ネオポリス,岡山県,赤磐市,桜が丘東２丁目,34.780571,134.046636,53513.93495981589,5234103341,False
大在,大分県,大分市,大在浜２丁目,33.2423249,131.734733,53639.429023175275,4931659822,False
瑞穂野,栃木県,宇都宮市,下桑島町,36.506773,139.916875,53757.24528211232,5439670334,False
湘南アミ,茨城県,阿見町,南平台３丁目,36.025527,140.251828,53777.145874198664,5440023011,False
ﾊﾟｰｸﾌﾟﾚｲｽ大分公園通り,大分県,大分市,公園通り３丁目,33.1889583,131.658627,53820.97751463447,4931652241,False
喜々津シーサイドタウン,長崎県,諫早市,多良見町シーサイドシーサイド一,32.8388325,129.989724,53927.17390832482,4929270931,False
ながた野,千葉県,大網白里市,ながた野１丁目,35.505297,140.312423,53995.74879083538,5340220442,False
筑波研究学園都市,茨城県,つくば市,観音台１丁目,36.025154,140.096795,54097.033754975644,5440003721,False
坂ノ市,大分県,大分市,坂ノ市中央４丁目,33.2326058,131.751568,54134.72990415367,4931667033,False
嘉島西部,熊本県,嘉島町,大字鯰滝河原,32.7453827,130.740588,54169.95834544921,4930059913,False
別所,兵庫県,姫路市,別所町別所２丁目,34.807285,134.750941,54195.878009648746,5234166033,False
一ヶ岡,宮崎県,延岡市,南一ケ岡２丁目,32.5223148,131.677308,54236.01050660777,4831652431,False
清里住宅団地,静岡県,藤枝市,清里二丁目,34.8969225,138.26238,54283.661979722885,5238227042,False
幸畑,青森県,青森市,幸畑５丁目,40.78092339056609,140.78361504798215,54463.52706520883,6140163241,False
豊崎タウン,沖縄県,豊見城市,豊崎,26.1572193,127.657908,54549.790407920475,3927158243,False
北袖ヶ浦住宅団地（けやき台）,千葉県,袖ヶ浦市,椎の森,35.45956,140.0222,54658.51643352236,5340105122,False
宇茂佐第二,沖縄県,名護市,宇茂佐の森４丁目,26.6011529,127.961251,54672.73618836199,3927772622,False
野中,埼玉県,加須市,琴寄,36.130977,139.67979,54674.06801106804,5439155432,False
小羽山ニュータウン,山口県,宇部市,北小羽山町２丁目,33.978741,131.258941,54917.68063917879,5031727023,False
北部第一,福井県,鯖江市,丸山町４丁目,35.9823405,136.180079,54937.00428191544,5336717434,False
東鯖江,福井県,鯖江市,柳町３丁目,35.9457092,136.193747,55001.56875065965,5336713514,False
中央西,三重県,名張市,希央台４番町,34.624574,136.102066,55136.03327809276,5136704833,False
森田北東部,福井県,福井市,栗森町浜,36.116436,136.242335,55179.590148672905,5436113934,False
徳田,広島県,福山市,神辺町字徳田,34.551776,133.369768,55293.37123153957,5133626921,False
高附住宅地区,広島県,安佐南区,伴北,34.4842757,132.406432,55484.0901914453,5132538221,False
日和田,福島県,郡山市,日和田町字千峯坦,37.441439,140.385035,55529.054104957504,5640132044,False
東海駅西,茨城県,東海村,大字白方,36.4692345,140.559324,55551.55684748403,5440546423,False
亀崎,宮崎県,日向市,日知屋枝郷亀崎３丁目,32.4343312,131.631828,55553.83523767082,4831552021,False
南部第六,福井県,福井市,下馬２丁目,36.040129,136.236003,55621.42600561026,5436014844,False
穂波の郷,宮城県,大崎市,古川穂波６丁目,38.56518,140.942699,55633.72616729062,5740677534,False
紀見ケ丘,和歌山県,橋本市,紀見ケ丘２丁目,34.3656801,135.610325,55648.912176727375,5135443844,False
ゆいの杜,栃木県,宇都宮市,ゆいの杜３丁目,36.5711682,139.993312,55748.43665892341,5439678932,False
札内北,北海道,幕別町,札内新北町,42.9184276,143.247222,55853.38038132018,6443310922,False
緑が丘,三重県,名張市,緑が丘中,34.641965,136.102238,56019.88409860583,5136707811,False
杜せきのした・美田園,宮城県,名取市,美田園８丁目,38.160611,140.90704,56153.19780763968,5740179223,False
太陽の街,三重県,鈴鹿市,郡山町,34.8132981,136.538579,56324.63633326611,5236147331,False
城北第二,岡山県,津山市,上河原,35.0840932,134.001545,56365.46728436865,5234500011,False
東岡山レイクタウン,岡山県,東区,城東台東１丁目,34.6943553,134.026073,56375.79607131152,5234003213,False
広島中央,北海道,北広島市,共栄町４丁目,42.992563,141.560276,56381.40704989588,6441349422,False
諫早西部団地,長崎県,諫早市,堀の内町,32.854346,130.023889,56458.70736507366,4930202142,False
ニュータウン御野場,秋田県,秋田市,御野場新町４丁目,39.67076111111112,140.12263305555555,56498.84988035415,5940400924,False
東広島ニュータウン,広島県,東広島市,高屋高美が丘５丁目,34.4619587,132.791167,56998.081077112314,5132565314,False
蓬莱第１,福島県,福島市,蓬莱町５丁目,37.696114,140.477285,57003.4172446401,5640433831,False
平原,広島県,尾道市,平原２丁目,34.411442,133.177035,57087.62754208464,5133419413,False
伊覇,沖縄県,八重瀬町,字上田原,26.158818,127.718627,57107.50079162952,3927159712,False
瑞樹団地,石川県,金沢市,みずき３丁目,36.6231886,136.669507,57115.97133106033,5436754343,False
瀬野川,広島県,安芸区,瀬野西４丁目,34.4291222,132.591783,57174.13037349889,5132541714,False
七ヶ浜NT汐見台,宮城県,七ヶ浜町,汐見台２丁目,38.299047,141.054282,57184.54944918606,5741305434,False
南宝来,北海道,音更町,ひびき野仲町２丁目,42.941608,143.21816,57202.55086192317,6443312734,False
和地,静岡県,西区,桜台三丁目,34.7710587,137.670714,57214.97436348865,5237152341,False
富士見ヶ丘団地,大分県,大分市,富士見が丘東５丁目,33.1813833,131.544417,57240.9118096851,4931641343,False
木田余,茨城県,土浦市,木田余東台３丁目,36.1044877,140.218005,57252.846549130816,5440112732,False
朝倉台,奈良県,桜井市,朝倉台西５丁目,34.515486,135.874547,57282.09658072571,5135661944,False
宝泉南部,群馬県,太田市,泉町,36.268770310238,139.3151640839098,57318.029304504846,5439322513,False
利府しらかし台,宮城県,利府町,しらかし台１丁目,38.347917,140.964503,57330.07900061567,5740471733,False
ゆめぽりす伊賀,三重県,伊賀市,ゆめが丘二丁目,34.7347365,136.161351,57428.6241672051,5236018222,False
駅南,京都府,福知山市,惇明西岡町,35.2922894,135.117551,57559.85532480901,5235705912,False
シーアイタウン利府青山,宮城県,利府町,青山２丁目,38.343693,140.968494,57561.413116306794,5740471712,False
宮内西部,新潟県,長岡市,西宮内１丁目,37.425389,138.831984,57687.864125184096,5638161621,False
山寺,福島県,須賀川市,西川,37.30386,140.362787,57713.5516138742,5540726913,False
田向,青森県,八戸市,大字田向字毘沙門平,40.492673943138364,141.51084710754088,57823.011038855446,,False
のぞみ野,千葉県,袖ヶ浦市,のぞみ野,35.41979,140.025628,57855.66973544977,5340100213,False
名鉄東ヶ丘,愛知県,阿久比町,大字阿久比,34.932608,136.915547,58004.648469522224,5236371333,False
ゆうまいニュータウン,北海道,千歳市,勇舞６丁目,42.854233,141.632899,58020.360644768494,6441252041,False
上野町北部,岩手県,北上市,上野町４丁目,39.302325,141.126631,58078.376490895906,5841716013,False
高江,大分県,大分市,高江中央２丁目,33.1647013,131.616468,58099.325391758706,4931549934,False
松原,長野県,松本市,大字松原,36.1772323,137.989209,58115.79685200614,5437271913,False
焼山第３団地,広島県,呉市,焼山東２丁目,34.2949004,132.567088,58124.53887107597,5132345514,False
中城湾港西原与那原地区,沖縄県,西原町,字東崎,26.2113425,127.767192,58132.794498787596,3927265114,False
光陽台,福岡県,福津市,光陽台４丁目,33.771175,130.500047,58139.23344323004,5030542031,False
茂庭団地,宮城県,太白区,茂庭台２丁目,38.234826,140.784559,58165.11818865783,5740268222,False
北広島,北海道,北広島市,松葉町４丁目,42.970523,141.551392,58202.90412885078,6441346413,False
高知南ニュータウン,高知県,高知市,春野町南ヶ丘６丁目,33.5180597,133.519029,58250.26234159255,5033242121,False
神辺町川南,広島県,福山市,神辺町大字川南,34.5370755,133.373441,58311.75721571082,5133624924,False
宗像ネオポリス,福岡県,宗像市,城西ケ丘３丁目,33.8148885,130.552893,58328.57062742901,5030547433,False
南大和田園都市岡,奈良県,五條市,田園４丁目,34.368378,135.685952,58346.9558679761,5135454422,False
岩出紀泉台,和歌山県,岩出市,大字原,34.2826289,135.291087,58358.38134185737,5135323334,False
もみじが丘,長崎県,佐世保市,もみじが丘町,33.1600348,129.77837,58421.0579347218,4929569212,False
長与ニュータウン,長崎県,長与町,三根郷ニュータウン東,32.8162036,129.8913,58455.47098098104,4929177134,False
沼ノ端鉄南第一,北海道,苫小牧市,東開町４丁目,42.667354,141.691948,58566.460341658414,6441050512,False
城山台,和歌山県,橋本市,城山台３丁目,34.3494876,135.612729,58817.38621048934,5135441933,False
みどりが丘,千葉県,大網白里市,みどりが丘３丁目,35.541869,140.31635,58843.41102277366,5340225512,False
東山形,山形県,山形市,東山形１丁目,38.240885,140.371778,58873.28181749339,5740228943,False
北真岡,栃木県,真岡市,荒町２丁目,36.447612,140.014949,58896.40010328491,5440503131,False
百合ヶ丘,三重県,名張市,百合が丘東３番町,34.606239,136.101336,58928.157674294234,5136702831,False
江別太,北海道,江別市,朝日町,43.106717,141.575661,58970.02343821903,6441542633,False
錦ヶ丘ニュ－タウン,宮城県,青葉区,錦ケ丘２丁目,38.255184,140.764475,59052.336764266416,5740360131,False
田園都市 島名,茨城県,つくば市,諏訪Ｃ,36.0584737,140.059706,59053.89787882645,5440007422,False
南部,北海道,帯広市,南の森西１丁目,42.882725,143.176611,59056.734780754494,6443215433,False
水呑三新田,広島県,福山市,水呑町,34.446839,133.385139,59353.757506759684,5133533042,False
戸山団地,青森県,青森市,大字駒込字蛍沢,40.79831105480084,140.8047353671195,59496.68307699787,6140165434,False
ふじと台,和歌山県,和歌山市,中,34.2713905,135.153053,59599.51398268935,5135312231,False
泉地区第一,福島県,いわき市,泉玉露２丁目,36.953253,140.855026,59657.57759874174,5540364814,False
平北部,福島県,いわき市,平字梅香町,37.063533,140.895707,59924.6484867107,5540477141,False
竜角寺台,千葉県,栄町,竜角寺台４丁目,35.827946,140.280706,60017.43295968808,5340529214,False
北大阪ネオポリス,大阪府,豊能町,希望ケ丘３丁目,34.9151376,135.51112,60109.10433528874,5235249044,False
彩りのまち　響きの,福岡県,若松区,ひびきの,33.892111,130.711747,60436.68610585698,,False
豊郷台,栃木県,宇都宮市,豊郷台３丁目,36.6045875,139.885961,60565.73285503198,5439772042,False
長岡ニュータウン,栃木県,宇都宮市,豊郷台３丁目,36.6045875,139.885961,60565.73285503198,5439772042,False
岡山ネオポリス,岡山県,赤磐市,桜が丘西６丁目,34.7786073,134.035779,60638.10424397213,5234103224,False
泉第三,福島県,いわき市,泉玉露１丁目,36.954419,140.862143,60658.52539239771,5540364842,False
犬伏第一,栃木県,佐野市,富岡町,36.316266,139.597392,60670.36524581679,5439347744,False
三石台,和歌山県,橋本市,三石台１丁目,34.355233,135.600596,60676.89280049595,5135442831,False
緑の街,三重県,津市,河辺町,34.744152,136.485254,60711.57046981915,5236039824,False
筑波研究学園都市,茨城県,つくば市,中内,36.04922,140.11199,60788.86366918739,5440005844,False
松園ニュータウン,岩手県,盛岡市,東松園２丁目,39.757055,141.164231,60824.17642973838,5941510333,False
青木,千葉県,富津市,青木三丁目,35.327066,139.846714,60952.03757045768,5239769721,False
いちはら緑園都市,千葉県,市原市,泉台３丁目,35.453847,140.071548,60981.94068701365,5340104523,False
西都,静岡県,西区,志都呂二丁目,34.6984068,137.656152,61014.19731597494,5237053234,False
瑞浪中央,岐阜県,瑞浪市,北小田町３丁目,35.358567,137.242722,61080.76228005636,5337013912,False
千葉東角栄団地,千葉県,緑区,越智町,35.534776,140.239298,61140.512744649546,5340214911,False
春日山ハートタウン,新潟県,上越市,春日野１丁目,37.148978,138.228221,61157.947147248975,5538517834,False
辺見,茨城県,古河市,下辺見,36.1732484,139.73341,61373.24961997016,5439250843,False
つくばテクノパーク桜,茨城県,つくば市,桜１丁目,36.1122094,140.113136,61656.90257828543,5440103913,False
花高,長崎県,佐世保市,花高３丁目,33.1418827,129.811308,61708.39929529354,4929567422,False
雄琴駅周辺,滋賀県,大津市,雄琴２丁目,35.0965994,135.893619,61920.6807788349,,False
五郎台,茨城県,神栖市,深芝南２丁目,35.9084725,140.645653,61941.562619344375,5340659121,False
新発田駅東,新潟県,新発田市,豊町２丁目,37.941964,139.338213,62106.71110857915,5639723711,False
東部,千葉県,茂原市,東部台３丁目,35.422061,140.322463,62282.29462401158,5340120542,False
筑波研究学園都市,茨城県,つくば市,花畑１丁目,36.129834,140.088902,62298.496052900045,5440105731,False
筑波研究学園都市,茨城県,つくば市,高野台３丁目,36.023523,140.12362,62447.81722197761,5440002944,False
川原第三,群馬県,前橋市,川原町２丁目,36.42755389066603,139.04037702002861,62602.10593154056,5439501313,False
松が丘,岐阜県,各務原市,松が丘２丁目,35.408867,136.92387,62647.28242096066,5336079322,False
嶋,山形県,山形市,嶋北２丁目,38.284665,140.321242,62648.32407445446,5740324521,False
妻沼東,埼玉県,熊谷市,妻沼東４丁目,36.2201421,139.385968,62657.4682345466,5439236024,False
三国が丘,福岡県,小郡市,三国が丘４丁目,33.438067,130.566391,62673.76039255977,5030142532,False
あさひが丘コープタウン,広島県,安佐北区,あさひが丘３丁目,34.505849,132.435679,62700.62452190844,5132630442,False
采女地区,三重県,四日市市,釆女が丘２丁目,34.9150976,136.581899,62703.48519665808,5236249643,False
スカイタウン高舘,宮城県,名取市,那智が丘２丁目,38.195258,140.841079,62994.06054801873,5740263714,False
桔梗が丘,三重県,名張市,桔梗が丘６番町,34.6449896,136.123618,63044.93774396565,5136707924,False
蔵上,佐賀県,鳥栖市,蔵上３丁目,33.375158,130.492508,63191.266532465466,5030035912,False
小江原ニュータウン,長崎県,長崎市,小江原４丁目,32.781863,129.830512,63238.67656385881,4929163634,False
ハーモニーシティ木津（木津中央）,京都府,木津川市,城山台七丁目,34.7324774,135.836746,63238.69936224241,5235067644,False
昭和中央,北海道,釧路市,昭和中央４丁目,43.025953,144.36121,63246.735467754756,6444423822,False
菊川,栃木県,佐野市,堀米町,36.3300757,139.569802,63256.73815900054,5439349541,False
祝梅,北海道,千歳市,弥生２丁目,42.8329606,141.68012,63263.01578684427,6441159434,False
新西帯広地区,北海道,帯広市,西２３条南５丁目,42.913786,143.121922,63321.99524491987,6443209942,False
みやこ野,千葉県,大網白里市,みやこ野２丁目,35.518648,140.317233,63358.43422063295,5340222512,False
海上,島根県,出雲市,塩冶有原町２丁目,35.361336,132.744593,63377.27750808266,5332053923,False
リバーサイド,山梨県,中央市,山之神,35.6137069,138.512816,63403.724165471474,,False
道場八多,兵庫県,北区,八多町中,34.8522836,135.219007,63426.137494315626,5235212723,False
岡三沢第一,青森県,三沢市,美野原１丁目,40.68310415822013,141.37681984177985,63536.34706324632,6141031033,False
Ｓｕｎビレッジカムイ,北海道,旭川市,神居三条２０丁目,43.7465506,142.342508,63590.201557209046,6542429732,False
宮崎学園都市住宅,宮崎県,宮崎市,学園木花台南３丁目,31.8294268,131.424323,63612.90142253846,4731539342,False
木下,千葉県,印西市,木下東２丁目,35.840638,140.165484,63682.39012537723,5340610333,False
安芸,広島県,安芸区,船越町,34.384742,132.527733,63696.25575434199,,False
東部第２,茨城県,ひたちなか市,大字馬渡,36.4032952,140.564036,63770.71345942477,5440448513,False
太閤山,富山県,射水市,太閤山１丁目,36.7093522,137.096031,63810.54501374187,5537005721,False
駅東,岐阜県,羽島市,舟橋町,35.3138555,136.689593,63812.19443660967,5236757531,False
吉岡南,宮城県,大和町,吉岡南２丁目,38.442783,140.879703,63848.18954832043,5740573012,False
松島,福井県,敦賀市,中央町２丁目,35.645196,136.055717,63903.18619419632,5336307414,False
黒沢尻東部,岩手県,北上市,黒沢尻２丁目,39.293923,141.128519,63932.481319238956,5841715014,False
東長崎矢上,長崎県,長崎市,矢上町,32.7755841,129.951555,63935.38705992662,4929173611,False
東海駅東,茨城県,東海村,舟石川駅東４丁目,36.4641218,140.567435,64037.69069873051,5440545532,False
中川駅周辺地区,三重県,松阪市,嬉野中川新町４丁目,34.6331048,136.479388,64283.9574526403,5136735834,False
鳥取,北海道,釧路市,鳥取大通５丁目,43.014775,144.346061,64302.0273868465,6444421743,False
桔梗が丘,三重県,名張市,桔梗が丘西３番町,34.645195,136.1111,64337.43674541979,5136707824,False
豊橋富士見台,愛知県,豊橋市,富士見台４丁目,34.677829,137.369306,64357.31390450706,5237021923,False
黒沢尻西部,岩手県,北上市,さくら通り１丁目,39.29658,141.1149,64416.05740279445,5841705931,False
境駅北,群馬県,伊勢崎市,境美原,36.278515678354665,139.262167348341,64484.714834107515,5439323024,False
明王台,広島県,福山市,明王台三丁目,34.4760336,133.339915,64529.57759437608,5133527711,False
泉玉露,福島県,いわき市,泉玉露５丁目,36.958431,140.851636,64609.31060041736,5540365811,False
上鷲別東部,北海道,登別市,若草町４丁目,42.3713497,141.058071,64674.018276255396,6341404441,False
宗像森林都市,福岡県,宗像市,自由ケ丘４丁目,33.7919329,130.575531,64674.45242296791,5030545611,False
阪南スカイタウン,大阪府,阪南市,桃の木台４丁目,34.3275452,135.220235,64764.77532637289,5135319723,False
松浜地区,新潟県,北区,松浜２丁目,37.953639,139.142958,64766.43930122983,5639714114,False
恵庭ニュータウン恵み野,北海道,恵庭市,恵み野北３丁目,42.906777,141.587205,64831.268371274295,6441248644,False
扇町,福島県,会津若松市,扇町,37.513556,139.93672,64835.32507082919,5639271442,False
桜台,和歌山県,岩出市,大字桜台,34.2807489,135.316115,64863.85259992592,5135323532,False
つつじが丘,三重県,名張市,つつじが丘北５番町,34.6064878,136.133408,64897.37069125002,5136712043,False
梅が丘,三重県,名張市,梅が丘北２番町,34.6381768,136.089126,64921.9517024417,5136706731,False
つつじが丘,兵庫県,三田市,つつじが丘北４丁目,34.9464572,135.130172,65010.85675558416,5235313032,False
フローラルヒルズ住吉台,宮城県,泉区,住吉台西４丁目,38.329807,140.78413,65144.40777717361,5740369241,False
久留米東部,福岡県,久留米市,東合川５丁目,33.319914,130.555859,65262.35548361115,4930748414,False
愛の杜・愛の郷,宮城県,名取市,愛の杜２丁目,38.157844,140.859661,65263.8494791447,5740168844,False
泉ヶ丘ハイタウン,福島県,いわき市,泉ケ丘１丁目,36.965821,140.857855,65276.17894016051,5540365843,False
城東第四,青森県,弘前市,大字田園１丁目,40.60421956145175,140.5042272209513,65299.911598711056,6040742032,False
グリーンタウン小山南,栃木県,小山市,美しが丘１丁目,36.267321,139.771879,65315.89331302217,5439362122,False
ポートアイランド,兵庫県,中央区,港島中町７丁目,34.6644942,135.218557,65389.71208595194,,False
ふじえだ駿河台,静岡県,藤枝市,駿河台三丁目,34.862962,138.232366,65557.38663205258,5238213841,False
大藪町,滋賀県,彦根市,旭町,35.274465,136.259624,65566.5010884565,5236722044,False
日夏町,滋賀県,彦根市,旭町,35.274465,136.259624,65566.5010884565,5236722044,False
原町,滋賀県,彦根市,旭町,35.274465,136.259624,65566.5010884565,5236722044,False
泉ビレッジ,宮城県,泉区,館４丁目,38.322703,140.799254,65614.36797799516,5740368342,False
神戸リサーチパーク 赤松台・上津台,兵庫県,北区,上津台８丁目,34.8624714,135.194847,65648.65771705534,5235213523,False
北部（第１、第２）,島根県,出雲市,大津朝倉２丁目,35.374599,132.7613,65703.05500575237,5332064044,False
宝来,北海道,音更町,宝来仲町南２丁目,42.944863,143.218524,65739.41266052438,6443313714,False
西部第三,群馬県,伊勢崎市,宮子町,36.331465311267976,139.15664358525444,65743.9719765861,5439319243,False
青柳海岸,千葉県,市原市,青柳２丁目,35.501909,140.054199,65789.85374044364,5340200412,False
奈良渕,栃木県,佐野市,奈良渕町,36.33409,139.583917,65927.54324949521,5439440621,False
下古山,栃木県,下野市,文教,36.4443333,139.861861,65960.25720797184,5439563824,False
泉ビレッジ,宮城県,泉区,館２丁目,38.312535,140.795585,65991.50222259067,5740367341,False
千代野ニュータウン,石川県,白山市,千代野西４丁目,36.524019,136.53976,66114.11521524741,5436642333,False
千代野ニュータウン,石川県,白山市,千代野西４丁目,36.524019,136.53976,66114.11521524741,5436642333,False
千代野ニュータウン,石川県,白山市,千代野西４丁目,36.524019,136.53976,66114.11521524741,5436642333,False
千代野ニュータウン,石川県,白山市,千代野西４丁目,36.524019,136.53976,66114.11521524741,5436642333,False
（仮称）NISステラヒルズ川西,兵庫県,川西市,長尾町,34.875405,135.427909,66126.94093905804,,False
八千代カルチャータウン地区,千葉県,八千代市,保品,35.759973,140.128788,66160.45436116823,,False
泉パークタウン,宮城県,泉区,寺岡６丁目,38.340057,140.831637,66195.68641630845,5740460643,False
花畔市街,北海道,石狩市,花川北七条２丁目,43.169348,141.320354,66222.02665221468,6441620523,False
蒲郡中部,愛知県,蒲郡市,水竹町下青山,34.8355914,137.23506,66224.92072021052,5237210824,False
みどりが丘,埼玉県,小川町,みどりが丘４丁目,36.070886,139.260289,66227.99077410596,5439028042,False
宝積寺,栃木県,高根沢町,光陽台３丁目,36.6192323,139.990086,66297.03973602735,5439774913,False
春光台,北海道,旭川市,春光台三条３丁目,43.817854,142.354403,66332.36182861857,6542528812,False
小波瀬,福岡県,苅田町,小波瀬２丁目,33.7558024,130.976916,66760.54240392357,5030570831,False
東部第二,宮崎県,宮崎市,稗原町,31.9103698,131.452261,66784.90309356447,4731639611,False
泉ビレッジ,宮城県,泉区,館６丁目,38.318377,140.801143,66786.83082329009,5740368411,False
長峰,滋賀県,東近江市,宮川町,35.0371525,136.161516,66917.22459962234,5236414224,False
舞ヶ丘,福岡県,小倉南区,舞ケ丘４丁目,33.8257285,130.904539,66963.18530764912,5030579212,False
亀ケ崎,山形県,酒田市,みずほ２丁目,38.902756,139.850421,67008.92382344726,5839268813,False
つくばみどりの里,茨城県,つくば市,花島新田,36.0306596,140.054355,67050.54812297145,5440003432,False
早尾台,茨城県,利根町,大字早尾,35.8773972,140.146924,67071.77740430659,5340615124,False
緑ヶ岡北部,北海道,釧路市,貝塚１丁目,42.99239,144.408245,67086.01235216684,6444339221,False
滝呂,岐阜県,多治見市,滝呂町１７丁目,35.3167406,137.153739,67115.61651053732,5237718212,False
桜ヶ丘ハイツ,岐阜県,可児市,桜ケ丘６丁目,35.3778735,137.113753,67117.26077549659,5337005913,False
大塚業務・伴南住宅地区,広島県,安佐南区,大塚西６丁目,34.4475712,132.390991,67124.43109838795,5132533132,False
駒羽根,茨城県,古河市,駒羽根,36.1606696,139.761083,67173.77053831365,5439169024,False
生目台団地,宮崎県,宮崎市,生目台東４丁目,31.9039309,131.376805,67197.877849259,4731638013,False
馬見ケ崎,山形県,山形市,馬見ヶ崎２丁目,38.281599,140.330107,67232.7166416479,5740323634,False
新宇多津都市,香川県,宇多津町,浜四番丁,34.3103079,133.813915,67245.88761275406,5133367511,False
美穂ヶ丘,兵庫県,西区,美穂が丘２丁目,34.75889,135.044696,67259.71165562641,5235101321,False
ダイヤランド,長崎県,長崎市,ダイヤランド２丁目,32.702468,129.858095,67295.60640364683,4929064823,False
昭和,北海道,釧路市,昭和南４丁目,43.023082,144.35414,67427.25165896026,6444422834,False
道明,岩手県,盛岡市,向中野字幅,39.672363,141.144018,67491.74094589385,,False
桜花台,三重県,四日市市,桜花台２丁目,34.9881691,136.527295,67531.80235424111,5236348231,False
西真岡,栃木県,真岡市,上高間木２丁目,36.4400025,139.987288,67581.1821894949,5439572844,False
台原団地,茨城県,日立市,台原町１丁目,36.532916,140.610105,67593.71549692866,5440643844,False
金沢団地,茨城県,日立市,金沢町５丁目,36.5393656,140.609585,67631.77351745707,5440644842,False
天童駅西,山形県,天童市,田鶴町４丁目,38.3582521,140.365902,67720.57218007489,5740422934,False
'フローラルシティ南台,茨城県,石岡市,南台２丁目,36.1819534,140.294838,67789.07235027268,5440221343,False
布佐平和台,千葉県,我孫子市,布佐平和台４丁目,35.857942,140.123475,67791.33871176401,5340602944,False
菅谷,宮城県,利府町,菅谷台３丁目,38.32979,140.953989,67801.18425971306,5740379632,False
南部第三社北,福井県,福井市,加茂緑苑町,36.055232,136.190695,67885.19500480023,5436016532,False
飛香台,愛知県,常滑市,飛香台７丁目,34.8954997,136.853137,67984.0724125213,5236267814,False
五霞原宿台,茨城県,五霞町,原宿台３丁目,36.0969218,139.738323,68124.56106881349,5439151931,False
上勢頭,沖縄県,北谷町,字上勢頭,26.3295336,127.773004,68127.831341997,3927369142,False
南部,埼玉県,熊谷市,船木台３丁目,36.078656,139.418521,68268.17880409026,5439039314,False
旭川駅周辺,北海道,旭川市,宮前一条１丁目,43.761145,142.363286,68306.30318418765,6542521913,False
びわ湖ロ－ズタウン,滋賀県,大津市,花園町,35.1400265,135.912996,68348.60024349301,5235576333,False
小金井駅東,栃木県,下野市,駅東２丁目,36.37325,139.844906,68354.19166145545,5439464743,False
桜台,千葉県,市原市,桜台３丁目,35.441477,140.04799,68505.99791310231,5340102344,False
東金駅東口,千葉県,東金市,東上宿,35.5565293,140.364586,68527.35565771128,5340226933,False
イトーピア彩都　室見が丘,福岡県,西区,室見が丘３丁目,33.518714,130.31755,68533.15416911265,5030222512,False
泉パークタウン,宮城県,泉区,紫山２丁目,38.34795,140.825887,68541.11619106212,5740461633,False
出北,宮崎県,延岡市,出北１丁目,32.5753469,131.68085,68549.24639051539,4831659412,False
箕面森町,大阪府,箕面市,森町中１丁目,34.8909353,135.460786,68556.47351747748,5235236644,False
緑苑台ニュータウン,北海道,石狩市,緑苑台東二条２丁目,43.162024,141.341922,68581.28106672705,6441529714,False
イトーピア名取,宮城県,名取市,ゆりが丘５丁目,38.203588,140.83035,68627.9221723653,5740264614,False
グリーンタウン小山南,栃木県,小山市,美しが丘３丁目,36.2639342,139.773584,68642.68092817966,5439361142,False
中央第二,群馬県,高崎市,棟高町,36.39210155276334,139.00442125829503,68767.65889158615,5439407012,False
泉台,千葉県,八街市,泉台２丁目,35.681427,140.295593,68874.91231341733,5340421343,False
イトーピア藤の木,広島県,佐伯区,藤の木３丁目,34.421567,132.363582,69007.66160773743,5132520931,False
下長（石堂）,青森県,八戸市,石堂１丁目,40.528921316440254,141.47539620889935,69040.52103124285,6041633813,False
内ノ目,宮城県,利府町,皆の丘,38.339115,140.972614,69105.71798114345,5740470742,False
茂呂第二,群馬県,伊勢崎市,南千木町,36.29476418209938,139.2136829075722,69116.63511077792,5439315713,False
つばさが丘,大阪府,熊取町,つばさが丘北２丁目,34.3840635,135.371205,69169.70320298974,5135426921,False
グリーンヒルパーク名取,宮城県,名取市,みどり台２丁目,38.19976,140.836809,69254.8846835461,5740263644,False
乃木,島根県,松江市,浜乃木７丁目,35.440568,133.060355,69271.25449022352,5333102444,False
Pal Town城西の社,群馬県,太田市,城西町,36.31074694612733,139.33683481279567,69326.89408410329,5439327624,False
葉鹿熊野,栃木県,足利市,葉鹿町２丁目,36.3651503,139.389156,69328.85628286647,5439433133,False
鳩山ＮＴ３,埼玉県,鳩山町,松ヶ丘３丁目,35.9929386,139.354389,69437.92180800157,5339729812,False
光風台,千葉県,市原市,光風台３丁目,35.447677,140.106282,69540.66468025761,5340103841,False
さくら坂,大阪府,河南町,さくら坂３丁目,34.4775957,135.646179,69596.41955770235,5135557123,False
さくら坂,大阪府,河南町,さくら坂３丁目,34.4775957,135.646179,69596.41955770235,5135557123,False
南部第三社南,福井県,福井市,渕２丁目,36.040233,136.188927,69743.56215877249,5436014533,False
第二西桑名ネオポリス,三重県,東員町,城山３丁目,35.094192,136.603811,69839.59744030931,5236541814,False
北部第七,福井県,福井市,灯明寺３丁目,36.0965034,136.213061,70073.42897627212,5436111731,False
若木台,福岡県,福津市,若木台４丁目,33.7738074,130.517558,70176.15453630412,5030542134,False
西帯広,北海道,帯広市,西２２条南４丁目,42.912246,143.13647,70406.39590425738,6443219024,False
塩屋,兵庫県,赤穂市,加里屋上町,34.754945,134.390307,70407.97339423743,5234130131,False
上江別南,北海道,江別市,ゆめみ野南町,43.100858,141.56534,70660.83226536225,6441542511,False
小森野,福岡県,久留米市,小森野２丁目,33.3384926,130.51224,70703.14662133048,5030040042,False
明日花,福岡県,福津市,福間南１丁目,33.7570042,130.491521,70721.87897941118,5030530934,False
郡,千葉県,君津市,郡１丁目,35.306466,139.916567,70798.08647671947,5239776334,False
岩瀬,埼玉県,羽生市,西３丁目,36.1675482,139.528513,70803.66874670691,5439240212,False
宮川,青森県,弘前市,大字宮川２丁目,40.6130793754193,140.4851246561452,70889.8989055912,6040733842,False
沼ノ端鉄北,北海道,苫小牧市,拓勇東町３丁目,42.672844,141.677872,71101.88671640257,6441050431,False
労住加茂ニュータウン,京都府,木津川市,南加茂台５丁目,34.737733,135.871389,71113.29208633046,5235068941,False
小浜,千葉県,木更津市,小浜,35.353181,139.911447,71126.523964309,5339072224,False
観月坂,高知県,高知市,みづき２丁目,33.5822962,133.518874,71159.51596616009,5033249143,False
野木駅周辺,栃木県,野木町,大字丸林,36.231639,139.74103,71199.74711149171,5439257934,False
茂呂第一,群馬県,伊勢崎市,北千木町,36.3018945139,139.21532288388633,71221.14238669592,5439316711,False
姉崎住宅団地（有秋台）,千葉県,市原市,有秋台東２丁目,35.450878,140.053408,71304.64931792338,5340104412,False
成田,宮城県,富谷町,成田１丁目,38.361412,140.892792,71379.69603802102,5740473114,False
富士中部,静岡県,富士市,青葉町,35.1613894,138.660684,71434.36402865581,5238559224,False
四季が丘,広島県,廿日市市,四季が丘７丁目,34.34786,132.293231,71474.95618542189,5132421332,False
松陵ニュータウン,宮城県,泉区,松森,38.312973,140.917584,71522.49932890938,,False
垢田,山口県,下関市,新垢田西町１丁目,33.987637,130.914459,71525.15121202572,5030778331,False
緑苑,岐阜県,各務原市,緑苑西２丁目,35.4129684,136.946724,71662.38752694106,5336079541,False
能部赤尾,三重県,桑名市,東正和台二丁目,35.049357,136.63432,71699.54978490403,5236455043,False
双葉台,茨城県,水戸市,双葉台２丁目,36.3940024,140.395113,71823.1445615991,5440437123,False
竜ヶ崎ニュータウン龍ヶ岡,茨城県,龍ケ崎市,城ノ内４丁目,35.92527,140.201769,71823.18144307756,5340711611,False
南羽生,埼玉県,羽生市,南羽生,36.1500511,139.558555,71884.10945685404,5439148421,False
藤ヶ丘パークタウン,北海道,南区,藤野四条６丁目,42.958386,141.294862,71900.12580665562,6441325321,False
桜台,三重県,四日市市,桜台２丁目,34.985211,136.533957,71900.87526756761,5236348221,False
天願,沖縄県,うるま市,みどり町１丁目,26.3792374,127.857675,71922.02487111877,3927465841,False
名鉄多治見緑台,岐阜県,多治見市,西坂町２丁目,35.3545203,137.110737,71931.52190135607,5337002842,False
シーアイタウン,千葉県,木更津市,大久保２丁目,35.342993,139.934232,71977.45681973668,5339071421,False
けやき台,佐賀県,基山町,けやき台３丁目,33.4354827,130.529657,72225.68769922086,5030142214,False
東部第１,茨城県,ひたちなか市,大字中根,36.3917819,140.554554,72315.06537343808,5440447412,False
福島,福島県,福島市,松浪町,37.76488,140.478226,72358.19218921187,5640531834,False
西真岡第二,栃木県,真岡市,上高間木１丁目,36.4475371,139.990592,72377.73807434492,5439573931,False
稲里中央,長野県,長野市,稲里町中央２丁目,36.603179,138.169083,72410.36047319537,5438712323,False
朝霧台,石川県,金沢市,朝霧台２丁目,36.5362595,136.695749,72485.80206861912,5436654523,False
桜井,千葉県,木更津市,桜井新町１丁目,35.364709,139.92269,72531.9895777561,5339073344,False
神立第二,茨城県,土浦市,中神立町,36.11823,140.235887,72556.95692407117,5440114822,False
大善寺宮本,福岡県,久留米市,大善寺南１丁目,33.270807,130.476587,72560.58735197711,4930732813,False
佐倉てらさき,千葉県,佐倉市,六崎,35.713207,140.218117,72593.75805227218,5340415732,False
灘南部,兵庫県,姫路市,白浜町宇佐崎中２丁目,34.7813216,134.71554,72634.76551445863,5234153733,False
依田原新田,静岡県,富士市,永田町,35.1623096,138.672512,72707.87515546415,5238559324,False
錦岡,北海道,苫小牧市,澄川町２丁目,42.622276,141.513935,72723.8823661683,6341744131,False
研究学園葛城,茨城県,つくば市,研究学園５丁目,36.0866091,140.083813,72745.49976937746,5440100623,False
安原第二,青森県,弘前市,大字泉野２丁目,40.574294,140.49352220889938,72765.36050172614,6040638934,False
小林団地,千葉県,印西市,小林浅間２丁目,35.8266373,140.192523,72783.69948456861,5340519512,False
堀越,静岡県,袋井市,堀越２丁目,34.753249,137.911842,72908.57139653705,5237170224,False
飯能美杉台めぐみの丘,埼玉県,飯能市,美杉台６丁目,35.8462434,139.299537,72926.92568156145,5339621342,False
乙戸,茨城県,土浦市,乙戸南２丁目,36.0312311,140.147886,72950.97272563534,5440013142,False
いずみ中山,宮城県,泉区,北中山２丁目,38.31703,140.816767,73114.98146046254,5740368512,False
安食台,千葉県,栄町,安食台３丁目,35.844013,140.242388,73119.63175268684,5340611914,False
八山田,福島県,郡山市,八山田５丁目,37.4274374,140.378335,73179.26128656503,5640131014,False
栗東新都心,滋賀県,栗東市,上鈎,35.029153,135.993619,73184.33838513166,5235473914,False
矢上団地,長崎県,長崎市,かき道５丁目,32.770398,129.961022,73390.64657302582,4929172624,False
鞍月,石川県,金沢市,鞍月５丁目,36.6007867,136.621998,73492.91809716761,5436742922,False
元野幌,北海道,江別市,野幌屯田町,43.098351,141.510932,73494.07124514623,6441541044,False
江陽,新潟県,長岡市,江陽１丁目,37.4767908,138.835949,73593.17751916267,5638167622,False
うらら花高坂,埼玉県,東松山市,あずま町２丁目,36.0052161,139.408284,73636.7422958567,5439030241,False
二島畠田,福岡県,若松区,鴨生田４丁目,33.8998136,130.739408,73845.92835427904,5030657933,False
西部第二,群馬県,館林市,富士原町,36.2386477139,139.516471651659,73899.7836183539,5439248132,False
西茂呂,栃木県,鹿沼市,西茂呂３丁目,36.5507935,139.769677,73903.21079927578,5439666121,False
グリーンタウンしもつけ,栃木県,下野市,緑３丁目,36.3871256,139.855902,73920.4665507634,5439466814,False
若松,三重県,鈴鹿市,神戸１丁目,34.88183,136.584203,73973.86813083966,5236245643,False
大堀,千葉県,富津市,大堀二丁目,35.333228,139.855919,73992.88036633992,5239769834,False
千鳥パークタウン,福岡県,古賀市,舞の里４丁目,33.7442522,130.493382,74058.81176766231,5030439914,False
一万城,宮崎県,都城市,一万城町,31.7227062,131.093815,74087.12967518807,4731406741,False
神戸リサーチパーク 鹿の子台,兵庫県,北区,鹿の子台北町８丁目,34.8592652,135.216432,74226.79122720094,5235213712,False
五日市町倉重,広島県,佐伯区,観音台４丁目,34.388638,132.341309,74260.53205345964,5132426732,False
黄金,北海道,恵庭市,黄金中央３丁目,42.886687,141.592692,74382.16232780697,6441246714,False
竜内,群馬県,太田市,龍舞町,36.27921090503806,139.40782952721548,74564.87629883594,5439333241,False
結城南部第一,茨城県,結城市,大字結城新福寺,36.291512,139.867555,74593.53936434962,5439364934,False
大洞緑,岐阜県,岐阜市,大洞桐が丘３丁目,35.4605423,136.868087,74606.55060444093,5336165914,False
青山（松が丘ネオポリス）,兵庫県,三木市,志染町青山３丁目,34.7794524,135.035208,74636.95519730294,5235103242,False
上烏田団地（八幡台ニュータウン）,千葉県,木更津市,八幡台４丁目,35.34128,139.950821,74653.30680663123,5339070633,False
糸井鉄北第二,北海道,苫小牧市,川沿町５丁目,42.622907,141.526724,74803.03296723594,6341744231,False
古河駅東部,茨城県,古河市,下辺見,36.194435,139.733246,74808.623869067,5439253823,False
東新涯,広島県,福山市,高西町川尻,34.433532,133.237117,74973.05257925119,5133512822,False
取手ゆめみ野,茨城県,取手市,ゆめみ野４丁目,35.924001,140.040976,75019.65562022333,5340700334,False
山手,北海道,苫小牧市,花園町４丁目,42.636358,141.569138,75020.86193136938,6341746523,False
周南,山口県,周南市,周陽１丁目,34.0458689,131.829846,75031.33926592566,5131065632,False
隈西小田,福岡県,筑紫野市,光が丘四丁目,33.4504648,130.558385,75036.98204057294,5030144421,False
城沼,埼玉県,羽生市,東９丁目,36.172924,139.553039,75106.96781358904,5439240433,False
岩国駅前,山口県,岩国市,麻里布町６丁目,34.170198,132.218914,75117.95251494719,5132210723,False
グリーンタウン月が丘,兵庫県,西区,月が丘５丁目,34.7611516,135.052562,75202.71324154208,5235101413,False
さくら学園ニュータウン山王,千葉県,佐倉市,太田,35.685176,140.210092,75267.14484829166,5340412622,False
富塚,群馬県,伊勢崎市,富塚町,36.27624972276194,139.1939154727845,75381.53631296202,5439313521,False
佐和駅中央,茨城県,ひたちなか市,大字高場,36.4282357,140.53664,75538.50691680987,5440541224,False
日の里,福岡県,宗像市,日の里２丁目,33.7941629,130.536998,75555.75203008839,5030545224,False
菊陽第一,熊本県,菊陽町,大字津久礼,32.863277,130.822705,75596.54576786073,4930263542,False
糸井団地,北海道,苫小牧市,日新町２丁目,42.627439,141.540746,75598.72531306084,6341745314,False
筑波研究学園都市,茨城県,つくば市,並木３丁目,36.064156,140.149234,75654.24698153035,5440017142,False
グリーンフィールド桜が丘,茨城県,取手市,桜が丘３丁目,35.9020018,140.125605,75730.10248588135,5340618011,False
横浜ニュータウン,高知県,高知市,横浜新町４丁目,33.5172849,133.535827,75758.52736726138,5033242222,False
有野第２住宅団地,兵庫県,北区,東有野台２丁目,34.808571,135.236331,75803.93379063513,5235117822,False
東郊,北海道,千歳市,住吉２丁目,42.8311327,141.664633,75825.99074647336,6441159331,False
大学町,千葉県,八千代市,大学町４丁目,35.773867,140.103718,75840.01776297498,5340502834,False
多治見ホワイトタウン,岐阜県,多治見市,脇之島町４丁目,35.3170475,137.113959,75849.48472317784,5237708911,False
郷ケ丘団地,福島県,いわき市,郷ケ丘２丁目,37.0265678,140.907464,75892.6077939033,5540473221,False
弥生が丘,佐賀県,鳥栖市,弥生が丘５丁目,33.405239,130.520957,75898.01632092564,5030048141,False
中島,愛知県,岡崎市,中島東町,34.88961,137.122911,75991.00165509472,5237206944,False
みずほ台,千葉県,大網白里市,みずほ台１丁目,35.5149,140.304339,76021.88636118475,5340221434,False
犬伏新町（佐野）,栃木県,佐野市,米山南町,36.322559,139.607731,76077.39143081979,5439348841,False
宮園,広島県,廿日市市,宮園４丁目,34.3523055,132.302108,76093.21533104518,5132422413,False
北子安,千葉県,君津市,北子安,35.33563,139.918361,76104.04774697605,5339070314,False
糸井鉄北第一,北海道,苫小牧市,桜木町３丁目,42.630801,141.552731,76133.01708194247,6341745431,False
早岐東部,長崎県,佐世保市,権常寺,33.132268,129.800438,76183.08215329332,4929565433,False
大矢船町,大阪府,河内長野市,大矢船中町,34.4192543,135.560222,76262.41727527393,5135540424,False
宮園第２団地,青森県,弘前市,大字青山３丁目,40.621497891070085,140.48077064603524,76289.68654036953,6040734832,False
利根フレッシュタウン,茨城県,利根町,大字布川,35.8603171,140.142123,76296.75767736448,5340613112,False
神楽岡,北海道,旭川市,緑が丘二条３丁目,43.733647,142.379036,76347.10756336921,6542438012,False
二重池団地,三重県,津市,半田,34.694838,136.495661,76396.1407589693,5236033923,False
常代,千葉県,君津市,常代３丁目,35.309139,139.922226,76439.96100014346,5239777322,False
緑が丘,北海道,旭川市,緑が丘四条２丁目,43.735116,142.377496,76546.60889865331,6542438011,False
大町,山形県,酒田市,末広町,38.9093834,139.850882,76610.38704946675,5839269811,False
金沢西部,石川県,金沢市,鞍月１丁目,36.5941037,136.624574,76618.91092315411,,False
五ヶ丘,愛知県,豊田市,五ケ丘３丁目,35.0636122,137.195846,76711.38472622303,5237417541,False
鍋島,佐賀県,佐賀市,鍋島３丁目,33.2809456,130.267124,76821.82264237053,4930723132,False
向栗崎第五,石川県,内灘町,字向陽台２丁目,36.638397,136.634038,76863.12027268855,5436756041,False
福島北,福島県,福島市,笹谷字中屋敷,37.7907196,140.451799,76930.38649364994,5640534633,False
南部,栃木県,佐野市,若宮上町,36.296173,139.589189,77002.07776296002,5439345731,False
あけの平,宮城県,富谷町,あけの平２丁目,38.377949,140.877103,77012.74501391541,5740475013,False
竹鼻西,岐阜県,羽島市,竹鼻町丸の内１０丁目,35.328431,136.69683,77055.41285408674,5236759523,False
北部第三,群馬県,前橋市,荒牧町４丁目,36.429469534438994,139.05300994865252,77234.54002554418,5439501431,False
大谷（真岡）,栃木県,真岡市,大谷台町,36.435647,139.991956,77252.04561837306,5439572914,False
屋島,香川県,高松市,屋島西町,34.3526661,134.08993,77261.98485704085,5134402713,False
南部第四,福井県,福井市,板垣４丁目,36.045213,136.228102,77311.2780768907,5436015813,False
豊橋牛川西部,愛知県,豊橋市,牛川通２丁目,34.7806866,137.416528,77357.12609674339,5237133332,False
梶毛東住宅地区,広島県,安佐南区,伴南４丁目,34.448635,132.379888,77394.22394934013,5132533034,False
浜田,青森県,青森市,浜田１丁目,40.801223777992696,140.747305,77405.30266934182,6140156922,False
平東部,福島県,いわき市,平字作町３丁目,37.049526,140.905788,77436.49263371632,5540475234,False
総社中央,岡山県,総社市,中央３丁目,34.6721625,133.748421,77441.18745068488,5233050942,False
城東、東部第二,栃木県,小山市,犬塚４丁目,36.31018,139.831967,77499.43820976691,5439367621,False
南上原,沖縄県,中城村,字南上原,26.2500607,127.773161,77797.9386119555,3927360122,False
阿保,兵庫県,姫路市,阿保,34.8218543,134.704459,77913.94080450956,5234158632,False
青葉台,福岡県,若松区,青葉台西１丁目,33.9004869,130.687923,77923.32800542888,5030658511,False
朝里北,北海道,小樽市,新光２丁目,43.172869,141.055655,77936.34896165307,6441600432,False
西十三奉行,茨城県,ひたちなか市,東石川２丁目,36.396678,140.534679,78057.03504203031,5440447242,False
唐櫃台,兵庫県,北区,唐櫃台３丁目,34.786686,135.213997,78186.25863821432,5235114713,False
同志社山手,京都府,京田辺市,同志社山手１丁目,34.7921342,135.773186,78276.35138369707,5235165122,False
つつじが丘住宅地,兵庫県,猪名川町,つつじが丘２丁目,34.88557,135.367216,78286.45131008461,5235226914,False
星ヶ丘,福岡県,八幡西区,星ヶ丘２丁目,33.7731739,130.751856,78315.94489322632,5030562033,False
目白台,埼玉県,毛呂山町,目白台２丁目,35.9607418,139.32446,78369.48406358891,5339725524,False
安久路第二,静岡県,磐田市,安久路,34.7240529,137.870906,78754.05275436267,5237066943,False
北青葉台,大阪府,河内長野市,北青葉台,34.4227605,135.568989,78846.99000221411,5135540541,False
小山東部第二,栃木県,小山市,犬塚８丁目,36.3013273,139.833512,79107.60553379873,5439366621,False
田間,千葉県,東金市,田間２丁目,35.564839,140.369718,79115.98582850496,5340227943,False
南海団地,大阪府,阪南市,尾崎町,34.359586,135.239668,79141.5927398262,5135413911,False
花崎,埼玉県,加須市,花崎２丁目,36.111861,139.623259,79174.7689793604,5439143924,False
伊敷,鹿児島県,鹿児島市,西伊敷３丁目,31.640302,130.530367,79178.47827110972,4730346234,False
小名浜第二,福島県,いわき市,小名浜花畑町,36.955345,140.898235,79262.24846135422,5540374142,False
常総ニュータウンきぬの里,茨城県,常総市,内守谷町きぬの里１丁目,35.9818866,139.96483,79395.50492471692,5339777733,False
高岡南部,富山県,高岡市,東上関南田町,36.7339302,137.017403,79400.89542311057,5537008112,False
新下関駅周辺,山口県,下関市,秋根南町１丁目,34.007411,130.950346,79479.66614554635,5130070633,False
竜ヶ崎ニュータウン北竜台,茨城県,龍ケ崎市,中根台１丁目,35.930761,140.166128,79665.84625302153,5340711332,False
北方柱本,岐阜県,北方町,柱本１丁目,35.427228,136.68981,79671.57260159799,5336151513,False
第一西桑名ネオポリス,三重県,東員町,笹尾東２丁目,35.099915,136.597867,79758.16122191049,5236541744,False
下条西,山形県,山形市,西田２丁目,38.265874,140.314602,79826.20690112354,5740321533,False
東部第二,群馬県,伊勢崎市,下植木町,36.31598287835466,139.21059911611368,79841.32242627552,5439317644,False
西武飯能日高ニュータウン,埼玉県,日高市,横手１丁目,35.872228,139.287608,79893.61104019913,5339624331,False
泉パークタウン,宮城県,泉区,高森１丁目,38.338694,140.8464,79922.73488200994,5740460741,False
寺本台,愛知県,知多市,寺本台２丁目,34.991877,136.883662,80002.09133480654,5236379021,False
利根ニュータウン,茨城県,利根町,大字布川,35.855927,140.145933,80018.3030222523,5340612141,False
東方,埼玉県,深谷市,東方町３丁目,36.1879066,139.316292,80031.32313613204,5439222532,False
阪南ネオポリス,大阪府,河南町,大宝,34.500438,135.638216,80063.68886237318,5135650111,False
箕輪,千葉県,君津市,外箕輪４丁目,35.316141,139.923736,80103.90339903018,5239777344,False
東部,群馬県,館林市,松原３丁目,36.23410347049025,139.54206956433651,80127.44813737662,5439248312,False
宮田,埼玉県,羽生市,南７丁目,36.165755,139.543284,80307.14993241546,5439149334,False
戸磯,北海道,恵庭市,住吉町３丁目,42.875775,141.587407,80401.22035308581,6441245622,False
兵庫北,佐賀県,佐賀市,兵庫北２丁目,33.2721332,130.308621,80402.99892478753,4930722441,False
野木ローズタウン,栃木県,野木町,大字丸林,36.2286689,139.735832,80430.97137894641,5439257824,False
東西野幌,北海道,江別市,緑ヶ丘,43.082587,141.531694,80433.93215943775,6441449243,False
柏木中島,北海道,恵庭市,中島町５丁目,42.896623,141.579002,80533.87929742654,6441247632,False
類家南,青森県,八戸市,南類家３丁目,40.5025854863126,141.50787341674726,80537.38699277808,6041640023,False
尾崎団地,岐阜県,各務原市,尾崎南町３丁目,35.424169,136.831023,80569.98550463631,5336160634,False
東部,群馬県,大泉町,朝日２丁目,36.25513185493771,139.425249130005,80763.21637091332,5439330431,False
長与東部,長崎県,長与町,丸田郷皆前,32.825185,129.874939,80790.69179048837,4929169922,False
阿品台,広島県,廿日市市,阿品台５丁目,34.3293437,132.309174,80793.95773113376,5132329441,False
吉原,山形県,山形市,若宮１丁目,38.228084,140.310001,80951.66706073609,5740227424,False
月輪,埼玉県,滑川町,月の輪６丁目,36.0448173,139.342064,81025.1329789211,5439025714,False
ふじが丘ニュータウン,大分県,大分市,大字田尻ふじが丘東,33.1785082,131.597351,81131.72902195588,4931641724,False
五月ヶ丘,広島県,佐伯区,五月が丘５丁目,34.424611,132.402849,81225.09889061042,5132530233,False
光風台山の手,大阪府,豊能町,新光風台２丁目,34.9073999,135.430702,81248.74190501803,5235238434,False
新光風台,大阪府,豊能町,新光風台２丁目,34.907208,135.430548,81248.74190501803,5235238434,False
筑紫駅西口,福岡県,筑紫野市,大字筑紫,33.4606312,130.552291,81250.85020141632,5030145413,False
グリーンタウン栗生,宮城県,青葉区,栗生５丁目,38.26723,140.790567,81315.13528391662,5740362311,False
南あいの里,北海道,北区,南あいの里５丁目,43.153704,141.398807,81402.05491846835,6441538124,False
中尾・伊豆島,千葉県,木更津市,東太田３丁目,35.378446,139.965171,81491.85714900472,5339075713,False
請西第一,千葉県,木更津市,真舟１丁目,35.360557,139.933632,81514.34798278385,5339073423,False
八山田第二,福島県,郡山市,富田町字下堰,37.422526,140.338862,81514.4980844381,5640120731,False
富田第二,福島県,郡山市,富田町字下堰,37.4228781,140.339169,81514.4980844381,5640120731,False
人見,千葉県,君津市,人見１丁目,35.334525,139.869896,81548.89255803176,5339060921,False
敷戸団地,大分県,大分市,敷戸北町,33.1879255,131.62243,81640.4566565473,4931642942,False
安城桜井駅周辺,愛知県,安城市,姫小川町,34.9178699,137.086111,81823.43679006757,5237300622,False
安積第一、第二、第三,福島県,郡山市,安積町長久保１丁目,37.359345,140.361708,81847.88935067607,5640023822,False
希みが丘,福岡県,小郡市,希みが丘１丁目,33.4374885,130.545656,81864.93392103836,5030142323,False
高坂ニュータウン,埼玉県,東松山市,松風台,35.9931417,139.382944,81868.73152069071,5339739021,False
美加の台,大阪府,河内長野市,美加の台７丁目,34.4251014,135.583821,81870.18217243072,5135541621,False
近江八幡駅南部,滋賀県,近江八幡市,鷹飼町東２丁目,35.124568,136.105905,81960.10921563116,5236504834,False
青葉台（６・７丁目）,千葉県,市原市,青葉台６丁目,35.467289,140.0498,82202.13572631199,5340106322,False
佐鳴湖西岸,静岡県,西区,大平台二丁目,34.71332,137.682147,82233.05800731553,5237055441,False
三重,三重県,四日市市,三重２丁目,34.9898457,136.587215,82286.2820240611,5236348644,False
愛国,北海道,釧路市,美原４丁目,43.022659,144.406185,82407.039065251,6444432232,False
北新宿第二,埼玉県,鴻巣市,北新宿,36.109831,139.441867,82441.79715711731,5439133512,False
焼津市南部,静岡県,焼津市,与惣次,34.8431928,138.311833,82456.92469848055,5238221422,False
陽光台,広島県,廿日市市,陽光台３丁目,34.3548089,132.310493,82498.60596209348,5132422442,False
平新川北第二（一）,福島県,いわき市,平字五色町,37.05367,140.901497,82505.54587707332,5540476213,False
御前南,福島県,郡山市,御前南５丁目,37.383594,140.330812,82601.61609768531,5640026612,False
長門石,福岡県,久留米市,長門石２丁目,33.3297455,130.487836,82698.79098746122,4930739931,False
奈良阪,奈良県,奈良市,青山５丁目,34.706199,135.838802,82731.02301294552,5235064731,False
新富,北海道,旭川市,新富二条１丁目,43.788442,142.382475,82777.31393401203,6542534041,False
富田東,福島県,郡山市,富田町字田向,37.422236,140.36871,82799.85918242748,5640120932,False
野田梅郷団地,千葉県,野田市,二ツ塚,35.940355,139.912315,82856.99588863998,5339772244,False
つつじが丘,岐阜県,各務原市,つつじが丘５丁目,35.4099216,136.932654,82862.1447512279,5336079421,False
グリーンヒルズ二日市天拝坂,福岡県,筑紫野市,天拝坂６丁目,33.4949448,130.499839,82874.28029046323,5030139924,False
名取ヶ丘ニュータウン,宮城県,名取市,名取が丘４丁目,38.156629,140.875475,82960.40408630193,5740178033,False
パルタウン大富,宮城県,富谷町,日吉台２丁目,38.37874,140.862751,83131.76227111058,5740465913,False
ハーモニータウン富吉台,宮城県,富谷町,杜乃橋２丁目,38.386292,140.869124,83134.76720128302,5740466923,False
近江八幡中央,滋賀県,近江八幡市,中村町,35.126335,136.095794,83182.6952484903,5236505721,False
佐保山,奈良県,奈良市,佐保台３丁目,34.7082026,135.816117,83183.53397938843,5235064534,False
湊高台第一,青森県,八戸市,湊高台４丁目,40.50755331644025,141.53935451915726,83201.09547113092,6041640333,False
女堀,埼玉県,本庄市,緑１丁目,36.228073,139.178152,83252.24124530121,5439217414,False
阿久比宮津板山,愛知県,阿久比町,陽なたの丘三丁目,34.9362077,136.933162,83299.65241028869,5236372423,False
みそらニュータウン,千葉県,四街道市,みそら２丁目,35.670336,140.199642,83339.03576891805,5340410524,False
樽川中央,北海道,石狩市,樽川六条２丁目,43.15091,141.281691,83365.95432566668,6441528221,False
本郷第一,茨城県,阿見町,本郷３丁目,36.0245625,140.177346,83371.46892283451,5440012433,False
文苑,北海道,釧路市,文苑４丁目,43.022682,144.390628,83419.7635743445,6444432132,False
城東、小山駅東,栃木県,小山市,城北５丁目,36.323424,139.817327,83479.3701013257,5439368534,False
赤尾,三重県,桑名市,赤尾台七丁目,35.0490786,136.625793,83524.41709138326,5236455033,False
学研都市　ひびきの,福岡県,若松区,ひびきの,33.889869,130.713304,83558.2781895028,,False
美鈴が丘,福岡県,小郡市,美鈴が丘１丁目,33.433907,130.550986,83631.75683367705,5030142411,False
ガーデニングタウン西中山,宮城県,青葉区,中山台西,38.306709,140.807126,83675.9800617736,5740366443,False
福王台,千葉県,袖ヶ浦市,奈良輪２丁目,35.429484,139.961615,83729.34568457387,5339171642,False
大塚台団地,宮崎県,宮崎市,大塚台西２丁目,31.9149244,131.382501,83885.7453090394,4731639043,False
豊田,埼玉県,久喜市,南栗橋８丁目,36.1111806,139.708272,83907.22970944933,5439153623,False
宮浦,広島県,三原市,宮浦４丁目,34.397101,133.063917,83940.26157863885,5133407531,False
新鵜沼台,岐阜県,各務原市,新鵜沼台５丁目,35.4047795,136.952032,83999.17286373285,5336078631,False
北部（川津）,島根県,松江市,学園１丁目,35.477691,133.067129,84080.21246001872,5333107514,False
日吉台,宮城県,富谷町,日吉台２丁目,38.376957,140.865276,84128.17873218015,5740465911,False
南部,群馬県,高崎市,福島町,36.367069716923545,139.0011247862824,84135.9836895415,5439404011,False
新涯西部,広島県,福山市,新涯町三丁目,34.459579,133.395983,84212.52176864802,5133535121,False
東部,愛知県,半田市,瑞穂町９丁目,34.8881599,136.943086,84232.05797681802,5236276532,False
北六甲台,兵庫県,西宮市,北六甲台２丁目,34.8339438,135.248074,84238.2397744914,5235210922,False
新県庁南,新潟県,中央区,新光町,37.899375,139.018929,84383.30198030491,,False
鳥取,大阪府,阪南市,舞３丁目,34.342905,135.233288,84386.7803739895,5135411821,False
久下東部,埼玉県,熊谷市,久下３丁目,36.117216,139.429979,84441.6425555219,5439134412,False
稲田徳間,長野県,長野市,稲田２丁目,36.6751919,138.227556,84478.91722508497,5538011811,False
小比内,青森県,弘前市,大字川先１丁目,40.588138,140.49075157601888,84552.8331383399,6040730932,False
白石花尻,岡山県,北区,白石東新町,34.657039,133.872365,84556.2445252606,5133768944,False
烏田,千葉県,木更津市,羽鳥野６丁目,35.345334,139.943695,84560.59226530719,5339071514,False
堀川西,富山県,富山市,根塚町１丁目,36.6751334,137.205682,84792.22415784151,5537011612,False
栗橋駅西（栗橋地区）,埼玉県,久喜市,伊坂,36.1339783,139.689204,84974.6641570499,5439156511,False
パークシティ南吉成,宮城県,青葉区,南吉成３丁目,38.286383,140.815995,85179.24183605514,5740364514,False
大野,青森県,青森市,西大野３丁目,40.80188515783746,140.7257211111111,85186.76288334733,6140156811,False
野々市町北西部,石川県,野々市市,二日市町,36.5377029,136.59387,85258.15464022876,5436644741,False
啓西,北海道,帯広市,西１９条南３丁目,42.915326,143.15432,85423.76737688809,6443219234,False
猪名川パークタウン,兵庫県,猪名川町,白金３丁目,34.898005,135.36551,85499.44753021619,5235227933,False
レークピア大津 仰木の里,滋賀県,大津市,仰木の里東３丁目,35.1049645,135.893758,85697.96520901624,5235572141,False
千代ニュータウン,福岡県,八幡西区,千代３丁目,33.808499,130.742901,85704.29902982074,5030557912,False
坂田,千葉県,君津市,西坂田３丁目,35.337965,139.885772,85911.98131627787,5339070042,False
蒲田,兵庫県,姫路市,広畑区蒲田３丁目,34.8266972,134.642902,85934.71745580278,5234159112,False
新西方,三重県,桑名市,新西方四丁目,35.0719075,136.658474,85968.17625052876,5236458241,False
英賀保駅周辺,兵庫県,姫路市,苫編,34.816895,134.650379,86008.13235292287,5234158211,False
きらりタウン浜北,静岡県,浜北区,染地台４丁目,34.7906123,137.745081,86023.76696481761,5237154943,False
中央,宮城県,石巻市,中里５丁目,38.442531,141.296024,86047.79611278104,5741523321,False
馬場・生津,岐阜県,瑞穂市,馬場小城町１丁目,35.4095282,136.687952,86120.83800561714,5336059511,False
下長（河原木）,青森県,八戸市,高州１丁目,40.536260316440256,141.47947394313837,86128.34887678486,6041634814,False
東平第一特定,埼玉県,東松山市,殿山町,36.0585152,139.413384,86247.52614311744,5439037311,False
住崎,愛知県,西尾市,住崎一丁目,34.8585326,137.044562,86282.03537854763,5237203321,False
東山,奈良県,平群町,菊美台２丁目,34.6468738,135.711252,86287.92969333626,5135757642,False
白銀ニュータウン,千葉県,佐倉市,白銀３丁目,35.712129,140.248222,86291.47343182543,5340415924,False
ハーモニーシティ木津,京都府,木津川市,市坂高座,34.7164575,135.829486,86391.28656718919,5235065634,False
原田駅前,福岡県,筑紫野市,原田七丁目,33.4527566,130.5423,86437.88747011602,5030144314,False
石津,静岡県,焼津市,石津中町,34.841369,138.324155,86508.35967862871,5238220544,False
ハートタウン前原 南風台,福岡県,糸島市,南風台４丁目,33.5507151,130.196896,86511.87404040755,5030216522,False
大谷台,広島県,福山市,大谷台三丁目,34.5145213,133.443501,86513.7520530377,5133631532,False
千鳥パークタウン,福岡県,古賀市,舞の里２丁目,33.747323,130.483135,86540.32573395019,5030439841,False
高坂駅東口第一,埼玉県,東松山市,大字高坂,36.0027037,139.40137,86563.86362589205,5439030213,False
奈良青山,奈良県,奈良市,青山５丁目,34.707716,135.837615,86589.48486568891,5235064733,False
西部第二,群馬県,伊勢崎市,田中島町,36.32130062715663,139.16461239125755,86692.27544487227,5439318331,False
兵庫,佐賀県,佐賀市,兵庫南３丁目,33.2631647,130.317061,86704.7260842417,4930721532,False
真伝特定,愛知県,岡崎市,真伝町,34.9754063,137.191663,86772.5748399312,5237317512,False
泉パークタウン,宮城県,泉区,高森８丁目,38.339334,140.853996,86793.79366542495,5740460832,False
緑ヶ丘,大阪府,河内長野市,緑ケ丘中町,34.447052,135.541806,86837.65746888681,5135543332,False
西藤,群馬県,太田市,西本町,36.293454019414625,139.3611011925317,86889.8151828249,5439325822,False
島,岐阜県,岐阜市,西中島７丁目,35.4300526,136.724665,86901.8462511704,5336151742,False
秋葉台,兵庫県,西区,秋葉台３丁目,34.7448934,135.066922,86965.07892396123,5235009514,False
豊岡第三,北海道,旭川市,豊岡十四条４丁目,43.771915,142.40515,87187.01530948596,6542532232,False
ゆいとぴあ盛南,岩手県,盛岡市,向中野２丁目,39.682734,141.135693,87389.63649016882,5941411044,False
あいタウンたけくま,宮城県,岩沼市,たけくま１丁目,38.10959,140.856718,87395.95839609168,5740163821,False
筑波研究学園都市,茨城県,つくば市,東２丁目,36.054963,140.136881,87400.59387628258,5440016042,False
栗橋駅西（大利根地区）,埼玉県,久喜市,伊坂,36.141375,139.688201,87426.72437116846,5439156533,False
浜町新井,群馬県,太田市,新井町,36.28933592276194,139.36775874493938,87500.91935841087,5439324932,False
星ヶ峯ニュータウン,鹿児島県,鹿児島市,星ヶ峯６丁目,31.5769579,130.493228,87528.3883924769,4730239912,False
西諫早,長崎県,諫早市,白岩町,32.846946,130.021581,87604.27191763742,4930201141,False
鳩山ＮＴ２,埼玉県,鳩山町,楓ヶ丘１丁目,35.985924,139.356974,87637.33999531729,5339728823,False
大麻,北海道,江別市,大麻ひかり町,43.069687,141.479713,87693.89886313165,6441438814,False
中山台,宮城県,青葉区,中山台２丁目,38.301119,140.813692,87928.78248260863,5740366511,False
上山口丸山,兵庫県,西宮市,山口町上山口３丁目,34.8272483,135.24704,88047.78588372777,5235119924,False
富士見台,静岡県,富士市,富士見台６丁目,35.18256,138.713998,88059.82579518088,5238651733,False
西部第一,群馬県,伊勢崎市,連取本町,36.322909408269155,139.17504842410685,88175.91998160591,5439318431,False
原郷,埼玉県,深谷市,常盤町,36.19743,139.299946,88214.71998192706,5439223342,False
請西第三,千葉県,木更津市,請西南２丁目,35.359941,139.942877,88228.12794003318,5339073512,False
第一あけぼの,栃木県,小山市,神鳥谷２丁目,36.2986568,139.791868,88447.20513668208,5439365334,False
狭山台,埼玉県,入間市,大字狭山ケ原,35.808763,139.363193,88493.52973985283,,False
グリーンタウン新栄台,北海道,江別市,新栄台,43.108749,141.5139,88582.13808882871,6441543111,False
蔵王桜田,山形県,山形市,桜田西２丁目,38.220583,140.318584,88706.86156556949,5740226514,False
新保・日高,群馬県,高崎市,東貝沢町３丁目,36.35030061058199,139.037310651659,88966.77524444115,5439402222,False
成田第一,千葉県,成田市,美郷台１丁目,35.792886,140.309682,89021.82388386373,5340525422,False
青柳,千葉県,市原市,千種６丁目,35.495373,140.057552,89081.98685856952,5340109423,False
中里町,兵庫県,北区,中里町１丁目,34.715495,135.155783,89113.67042486974,5235015234,False
みらい平,茨城県,つくばみらい市,紫峰ヶ丘１丁目,35.99927,140.038404,89197.3630171795,5340709333,False
久保,千葉県,君津市,南久保１丁目,35.328799,139.901941,89236.45151780471,5239779213,False
加茂団地,宮城県,泉区,加茂２丁目,38.31607,140.854069,89294.97745737451,5740367834,False
中野,千葉県,君津市,中野４丁目,35.331993,139.8903,89337.47529606192,5239779133,False
ウィンズタウン西神戸,兵庫県,西区,宮下２丁目,34.6901401,134.976796,89403.97694959042,5234072833,False
東ときわ台,大阪府,豊能町,東ときわ台６丁目,34.9016664,135.449102,89512.97408521661,5235238522,False
東矢島,群馬県,太田市,南矢島町,36.26359993162388,139.38262258164644,89611.72911836753,5439331041,False
西部,群馬県,伊勢崎市,連取本町,36.316815346127335,139.18041388388633,89666.57796600454,5439318412,False
三好ケ丘第三,愛知県,みよし市,黒笹いずみ３丁目,35.1296089,137.098753,89692.01452716881,5237505742,False
みどりが丘,福岡県,東区,みどりが丘１丁目,33.6479962,130.471773,89693.22408491491,5030337743,False
高屋南部,岐阜県,北方町,高屋条里２丁目,35.414874,136.690069,89723.2353783239,5336059533,False
鶴ヶ丘ニュータウン,宮城県,泉区,鶴が丘１丁目,38.320363,140.923176,89742.81458066074,5740378324,False
東山丘陵,大阪府,貝塚市,東山４丁目,34.4135482,135.390249,89757.59693029289,5135439131,False
三本柳,長野県,長野市,三本柳西２丁目,36.6172168,138.165614,89800.23693290078,5438714311,False
こま武蔵台,埼玉県,日高市,武蔵台３丁目,35.876204,139.301404,89963.84084318747,5339625411,False
花崎さつき野,埼玉県,加須市,花崎北２丁目,36.1134862,139.631778,90070.88107569033,5439153041,False
大山田ニュータウン蓮花寺,三重県,桑名市,藤が丘六丁目,35.074508,136.649709,90187.18141793083,5236458144,False
西尾平坂東部,愛知県,西尾市,寺津町,34.8507236,137.02177,90190.10992696491,5237202121,False
寒田,大分県,大分市,大字寒田寒田北町,33.1861118,131.60697,90205.41201625546,4931642823,False
安原中央,石川県,金沢市,上安原２丁目,36.5674863,136.587862,90228.38327154309,5436648711,False
半田,静岡県,東区,半田山四丁目,34.776429,137.741647,90495.8239258647,5237153912,False
二宮団地,神奈川県,二宮町,百合が丘２丁目,35.3115362,139.241238,90694.83688901852,5239717914,False
弥右衛門,高知県,高知市,南御座,33.5687375,133.561326,90739.05056054308,5033248422,False
猪名川パークタウン,兵庫県,猪名川町,白金２丁目,34.901595,135.360396,90899.77139695207,5235228822,False
藤原台,兵庫県,北区,藤原台中町１丁目,34.822086,135.21853,90964.70302342305,,False
江原台,千葉県,佐倉市,江原台１丁目,35.735131,140.202852,90970.30245321212,5340418611,False
貝渕,千葉県,木更津市,幸町１丁目,35.371896,139.926818,91172.64047089085,5339074431,False
常総ニュータウン絹の台,茨城県,つくばみらい市,絹の台２丁目,35.976409,139.978609,91178.57006604859,5339777812,False
西地区第二,北海道,帯広市,西１６条南４丁目,42.909889,143.176353,91222.6943689187,6443219411,False
花山東,兵庫県,北区,花山東町,34.764814,135.187089,91283.67905144888,5235111444,False
花山東,兵庫県,北区,花山東町,34.7652321,135.185668,91283.67905144888,5235111444,False
小江原団地,長崎県,長崎市,小江原２丁目,32.779887,129.841252,91382.82485931441,4929163732,False
泉ヶ丘ニュータウン,宮城県,富谷町,富ケ丘２丁目,38.363397,140.867594,91395.86959271661,5740463932,False
生松台,福岡県,西区,生松台３丁目,33.5550864,130.299403,91571.39316749279,5030226342,False
人人ニュータウンひたち野中央,茨城県,牛久市,ひたち野東４丁目,36.0025828,140.167659,91571.65229213407,5440010314,False
五色園ハイランド,愛知県,日進市,五色園３丁目,35.1553952,137.061127,91805.11520008225,5237508442,False
福島西,福島県,福島市,野田町字上高野,37.769493,140.437821,91917.84935008184,5640532513,False
中野若松東,大阪府,富田林市,中野町東１丁目,34.510641,135.613965,91935.87967640813,5135641913,False
明野,大分県,大分市,明野南３丁目,33.220393,131.651332,92036.21468754455,4931656213,False
新野幌第二,北海道,江別市,文京台東町,43.06587,141.498435,92153.63332150762,6441437944,False
緑ヶ丘ネオポリス,兵庫県,三木市,緑が丘町中１丁目,34.770666,135.030807,92309.65582841828,5235102214,False
花鶴ケ丘,福岡県,古賀市,花鶴丘１丁目,33.726548,130.468574,92378.29804241023,5030437712,False
人人ニュータウンひたち野中央,茨城県,牛久市,ひたち野東１丁目,36.0079379,140.159849,92398.30910244964,5440010244,False
阪神花山,兵庫県,北区,花山中尾台１丁目,34.76781,135.192883,92421.44237637712,5235112512,False
第三,北海道,江別市,向ヶ丘,43.102299,141.534054,92450.00004225908,6441542223,False
東雁来第２,北海道,東区,東雁来十条３丁目,43.096,141.431208,92486.6764217021,6441531432,False
三ツ井,愛知県,一宮市,三ツ井５丁目,35.2760926,136.83483,92702.89176810141,5236763622,False
新木駅南側,千葉県,我孫子市,南新木２丁目,35.860583,140.104265,92704.67508522159,5340603814,False
皇徳寺,鹿児島県,鹿児島市,皇徳寺台４丁目,31.562484,130.486672,92764.41694414888,4730237824,False
南山手,福岡県,大野城市,つつじケ丘４丁目,33.492556,130.480585,92907.06024334177,5030139812,False
大宝,大阪府,河南町,大宝,34.503851,135.634761,92956.91906338197,5135650024,False
志段味ヒューマンサイエンスタウン,愛知県,守山区,大字上志段味,35.25282,137.038222,92976.24912372336,5237700313,False
城東,青森県,弘前市,大字城東４丁目,40.594941,140.49002768770967,92976.55059701414,6040731913,False
鵜沼台,岐阜県,各務原市,鵜沼台４丁目,35.4059611,136.945732,93037.447651247,5336078541,False
長浦駅前,千葉県,袖ヶ浦市,長浦駅前６丁目,35.448083,140.004914,93054.89419234023,5340103034,False
元江別,北海道,江別市,見晴台,43.112188,141.52266,93092.490318188,6441543124,False
山の田,山口県,下関市,山の田中央町,33.988056,130.927109,93163.19464609365,5030778431,False
畑沢第二,千葉県,木更津市,畑沢南２丁目,35.343369,139.905205,93314.82600229858,5339071212,False
五所・君塚,千葉県,市原市,白金町４丁目,35.527834,140.102549,93380.19757557941,5340203813,False
ときわ台,大阪府,豊能町,ときわ台６丁目,34.904076,135.439839,93452.38940432778,5235238513,False
筑波研究学園都市,茨城県,つくば市,竹園２丁目,36.077754,140.118856,93528.06472919731,5440009923,False
都南中央第一,岩手県,盛岡市,津志田中央１丁目,39.6636214,141.155067,93549.25843938242,5941319232,False
黒埼北部,新潟県,西区,ときめき西２丁目,37.8786346,139.010691,93706.31639414608,5639605024,False
市川西,兵庫県,姫路市,北条梅原町,34.8132355,134.695184,93780.63041866032,5234157541,False
高須,福岡県,若松区,高須東４丁目,33.890439,130.691507,93790.84915565237,5030656534,False
阪急日生ニュータウン,兵庫県,川西市,美山台１丁目,34.908106,135.396874,94004.41070862464,5235238143,False
平野台,福岡県,大野城市,平野台３丁目,33.4950492,130.466943,94042.37698827322,5030139714,False
逗子グリーンヒル,神奈川県,逗子市,沼間５丁目,35.292378,139.616563,94253.81351168484,5239745912,False
豊橋牟呂,愛知県,豊橋市,牟呂公文町,34.753458,137.357324,94279.11535738282,5237120823,False
筑波研究学園都市,茨城県,つくば市,春日１丁目,36.090031,140.104737,94368.49393835403,5440100834,False
山内,沖縄県,沖縄市,山内３丁目,26.327518,127.781639,94437.6915491605,3927369223,False
戸ヶ崎,愛知県,西尾市,戸ケ崎三丁目,34.8815218,137.065525,94686.56906624854,5237205533,False
刈谷,茨城県,牛久市,刈谷町５丁目,35.9717367,140.127463,94901.12242443352,5340716031,False
西方,三重県,桑名市,松並町二丁目,35.065095,136.673656,94969.69305603001,5236457344,False
北神星和台第一次,兵庫県,北区,西山１丁目,34.836702,135.216315,95006.29532064538,5235210714,False
桜が丘,兵庫県,西区,桜が丘東町４丁目,34.7452637,135.059444,95155.55073692792,5235009424,False
幕山台,広島県,福山市,幕山台七丁目,34.5128466,133.435414,95215.69459479894,5133631442,False
西の台団地,大分県,大分市,にじが丘３丁目,33.2279699,131.583065,95249.363989179,4931647623,False
札幌ニュータウンあいの里,北海道,北区,あいの里三条５丁目,43.163057,141.399944,95288.91958605757,6441539142,False
飛島グリーンヒル大津,滋賀県,大津市,青山６丁目,34.9786825,135.971481,95410.8090035375,5235377723,False
大宮団地,千葉県,若葉区,大宮台４丁目,35.593176,140.181878,95438.84291701023,5340311421,False
八木山南団地,宮城県,太白区,八木山南４丁目,38.235332,140.835929,95451.07234626275,5740268622,False
柏田,茨城県,牛久市,上柏田２丁目,35.989709,140.156873,95476.21514619462,5340718243,False
上柴,埼玉県,深谷市,上柴町西４丁目,36.1802706,139.298888,95863.9439717658,5439221342,False
戸板第二,石川県,金沢市,戸板２丁目,36.5792017,136.623305,95876.45503921392,5436649942,False
請西第二,千葉県,木更津市,請西東５丁目,35.366898,139.948426,95896.3430796606,5339074522,False
豊岡第二,北海道,旭川市,十条通２３丁目,43.769544,142.389432,95908.47300995224,6542532113,False
鶴田第二,栃木県,宇都宮市,鶴田町,36.5549967,139.854187,96126.72334184166,5439666832,False
豊橋南部,愛知県,豊橋市,八町通２丁目,34.769226,137.391516,96176.71438402815,,False
松が枝町,兵庫県,北区,松が枝町２丁目,34.7592232,135.151262,96840.88571513961,5235111211,False
佐貫駅東,茨城県,龍ケ崎市,佐貫３丁目,35.9313165,140.140387,96852.84738812322,5340711133,False
原田,福岡県,筑紫野市,美しが丘南二丁目,33.4447981,130.545038,96854.80324828663,5030143323,False
高陽,広島県,安佐北区,真亀１丁目,34.4828858,132.51908,96944.7565664826,5132547143,False
陽だまりの丘,三重県,桑名市,陽だまりの丘七丁目,35.0889825,136.640122,97066.98041792297,5236550131,False
青葉台,千葉県,市原市,青葉台５丁目,35.468921,140.055036,97177.24524912608,5340106414,False
祇園山本地区,広島県,安佐南区,山本新町３丁目,34.4441478,132.438543,97260.41392865304,5132533513,False
太田第二,香川県,高松市,伏石町,34.3110018,134.061007,97345.47341114402,5134307424,False
加茂地区,静岡県,三島市,加茂,35.134988,138.931848,97503.38073926388,5238576421,False
阪急日生ニュータウン,兵庫県,川西市,美山台３丁目,34.9090277,135.402933,97563.49290233498,5235239211,False
永犬丸・則松,福岡県,八幡西区,八枝４丁目,33.846407,130.729506,97576.49881824615,5030651832,False
筑波研究学園都市,茨城県,つくば市,天久保２丁目,36.092459,140.103321,97587.13426175181,5440101812,False
野々市町御経塚第二,石川県,野々市市,御経塚２丁目,36.5480906,136.598139,97615.25272296961,5436645744,False
座生,千葉県,野田市,桜の里二丁目,35.954695,139.845808,97687.94904035056,,False
アートヒル三好ヶ丘,愛知県,みよし市,三好丘旭１丁目,35.1237933,137.115741,97824.75587795413,5237504934,False
光風台,大阪府,豊能町,光風台２丁目,34.898234,135.436513,97997.1891487382,5235237444,False
大山田ニュータウン,三重県,桑名市,筒尾八丁目,35.079548,136.642478,98042.74394336282,5236459132,False
伊勢吉成,宮城県,青葉区,吉成３丁目,38.290947,140.820737,98099.82798993227,5740364543,False
西坂戸団地,埼玉県,坂戸市,西坂戸５丁目,35.930405,139.33198,98191.13620139223,5339721641,False
日東町,大阪府,河内長野市,日東町,34.440469,135.577469,98232.01473474524,5135542633,False
杢師,千葉県,君津市,杢師３丁目,35.3218,139.913096,98391.48383586064,5239778331,False
岡場,兵庫県,北区,藤原台北町１丁目,34.8252331,135.224643,98404.22467384713,5235119722,False
大坪,宮崎県,宮崎市,花山手東２丁目,31.9028823,131.401823,98456.36247875453,4731638213,False
武蔵ケ丘東ニュータウン,熊本県,菊陽町,光の森３丁目,32.8606516,130.781416,98603.81724596095,4930263223,False
中山ニュータウン,宮城県,泉区,南中山２丁目,38.308629,140.826738,98680.3524931298,5740367611,False
筑波研究学園都市,茨城県,つくば市,松代３丁目,36.066897,140.103149,98681.69917226792,5440008812,False
上津藤光,福岡県,久留米市,藤光,33.287059,130.514732,98697.49363777497,4930744113,False
内浜,愛媛県,松山市,内浜町,33.865516,132.72735,98747.22357830926,5032653833,False
取手中央タウン,茨城県,取手市,西２丁目,35.902668,140.04734,98797.46958902638,5340608324,False
清見台,大阪府,河内長野市,清見台２丁目,34.4363774,135.581323,98834.61058053574,5135542623,False
武蔵高萩駅北,埼玉県,日高市,大字女影新田,35.9044134,139.370648,98835.47968923065,5339628941,False
野々市町中南部,石川県,野々市市,粟田４丁目,36.5166259,136.609949,98841.64269505527,5436641844,False
六供,群馬県,前橋市,六供町,36.36884449336101,139.07771015404245,98985.3538898525,5439404613,False
つくばエクスプレスタウン,千葉県,柏市,小青田,35.912984,139.956186,99017.52989207832,5339679632,False
笹川,三重県,四日市市,笹川５丁目,34.9467051,136.574154,99045.65201925959,5236343542,False
南海くまとりニュータウン,大阪府,熊取町,希望が丘２丁目,34.4041114,135.362807,99060.33013885206,5135428913,False
ベリータウンもねの里,千葉県,四街道市,もねの里２丁目,35.688575,140.189667,99200.37955053532,5340412531,False
星川（２）,三重県,桑名市,星見ヶ丘九丁目,35.0731671,136.632523,99453.91038127153,5236458043,False
志段味ヒューマンサイエンスタウン,愛知県,守山区,大字中志段味,35.2463932,137.028989,99532.72208783844,5237609232,False
日吉台ニュータウン,千葉県,富里市,日吉台４丁目,35.767647,140.320419,99796.33637645215,5340522521,False
篠路地区住宅団地,北海道,北区,篠路三条１０丁目,43.143489,141.374259,99812.77636562058,6441527922,False
文苑第二,北海道,釧路市,文苑１丁目,43.018847,144.38623,99888.90743715593,6444432024,False
小山東部第一,栃木県,小山市,大字土塔,36.301949,139.824328,100298.15660183498,5439366522,False
白浜東,兵庫県,姫路市,白浜町宇佐崎北２丁目,34.788766,134.718064,100646.90683934352,5234154732,False
岩岡,兵庫県,西区,竜が岡３丁目,34.7111728,134.936975,100687.27798432454,5234075424,False
藤松,福岡県,門司区,藤松３丁目,33.887075,130.924276,100743.93280020345,5030676324,False
清見台第三,千葉県,木更津市,太田４丁目,35.375444,139.946455,100749.91405079022,5339075521,False
西武狭山ニュータウン柏原,埼玉県,狭山市,柏原,35.884426,139.412599,100871.69240468199,5339636311,False
蔵波台,千葉県,袖ヶ浦市,蔵波台２丁目,35.442281,139.993629,101585.26181061051,5339173912,False
西山,大阪府,太子町,聖和台２丁目,34.525758,135.638579,101751.64958531452,5135653111,False
酒々井中央台,千葉県,酒々井町,中央台２丁目,35.730419,140.272426,101763.26734282459,5340427142,False
門井,埼玉県,行田市,門井町１丁目,36.120533,139.439521,101773.29461513908,5439134513,False
南子安,千葉県,君津市,南子安５丁目,35.327068,139.91993,101811.92137525145,5239779321,False
手倉田,宮城県,名取市,大手町４丁目,38.168574,140.878669,101873.46239772324,5740270012,False
矢野,広島県,安芸区,矢野南２丁目,34.3400264,132.530552,101927.7445227881,5132440234,False
西谷,愛知県,知多市,にしの台２丁目,34.97885,136.875762,101972.38916401645,5236377013,False
南花台,大阪府,河内長野市,南花台３丁目,34.4291477,135.55625,102067.47250297807,5135541414,False
千代田,千葉県,四街道市,千代田４丁目,35.69394,140.184292,102188.53475555191,5340413423,False
金沢駅西第二,石川県,金沢市,西念３丁目,36.5894142,136.634454,102196.06460552012,5436750042,False
小川第二,静岡県,焼津市,西小川３丁目,34.856408,138.307697,102206.3142215641,5238222443,False
鷹尾山けやき坂,兵庫県,川西市,けやき坂１丁目,34.86132,135.38263,102245.71205191856,5235233023,False
上地第二特定,愛知県,岡崎市,上地５丁目,34.90844,137.171685,102258.49989921587,5237219321,False
坂戸ニューシティにっさい,埼玉県,坂戸市,にっさい花みず木４丁目,35.9706506,139.368212,102410.93319412592,5339726914,False
平島,愛知県,一宮市,平島２丁目,35.2843372,136.832055,102616.79705833049,5236764621,False
伊敷,鹿児島県,鹿児島市,伊敷台５丁目,31.628391,130.537821,103054.54173214095,4730345313,False
愛国西,北海道,釧路市,愛国西１丁目,43.011508,144.38675,103121.47975576618,6444431024,False
若葉台レークタウン,神奈川県,緑区,若葉台４丁目,35.5959344,139.291745,103291.57866722143,5339321332,False
北摂三田ウッディタウン,兵庫県,三田市,けやき台１丁目,34.9092992,135.185314,103326.45227712374,5235219422,False
パークシティ守谷,茨城県,守谷市,みずき野四丁目,35.937154,140.013192,103347.51341312302,5340702113,False
城北、小山駅東、犬塚、東部第一,栃木県,小山市,城東２丁目,36.311114,139.818442,103565.59073985628,5439367514,False
城南、神鳥谷、雨ヶ谷,栃木県,小山市,西城南４丁目,36.294115,139.805614,103573.55901735795,5439365414,False
亀岡,京都府,亀岡市,西つつじヶ丘大山台２丁目,35.000771,135.587413,103903.78911878672,5235440622,False
古川,広島県,安佐南区,川内６丁目,34.474333,132.488937,103950.21894468964,5132536933,False
別府,埼玉県,熊谷市,別府５丁目,36.1829289,139.337117,104112.31952754104,5439221644,False
高美台,福岡県,東区,高美台３丁目,33.689764,130.444536,104305.82354341121,5030432543,False
筑波研究学園都市,茨城県,つくば市,二の宮３丁目,36.065804,140.118792,104321.81565981796,5440007943,False
比屋根,沖縄県,沖縄市,比屋根１丁目,26.3164468,127.824818,104340.01104829846,3927367544,False
乙子高野,茨城県,守谷市,美園四丁目,35.9246705,140.000612,104341.39711680093,5340700033,False
公津西,千葉県,成田市,はなのき台２丁目,35.777014,140.28246,104665.88508274089,5340523221,False
西部,愛知県,半田市,南二ツ坂町１丁目,34.8877591,136.911824,104733.7671618056,5236276242,False
五井西,千葉県,市原市,五井西５丁目,35.514703,140.071494,104753.08584274996,5340201543,False
富田第一,福島県,郡山市,新屋敷２丁目,37.4192909,140.355242,104826.973989278,5640120814,False
高浜東,兵庫県,姫路市,飾磨区上野田６丁目,34.803127,134.688882,105172.63794093445,5234156513,False
愛国北部,北海道,釧路市,芦野２丁目,43.013591,144.395625,105277.82493046408,6444431141,False
ラフィーナ幸手イトーピア,埼玉県,幸手市,香日向１丁目,36.086407,139.698007,105288.74095228415,5439150524,False
長命ヶ丘ニュータウン,宮城県,泉区,長命ケ丘４丁目,38.312905,140.83786,105386.45422265992,5740367731,False
手賀の杜,千葉県,柏市,手賀の杜４丁目,35.846363,140.024719,105451.44395356417,5340601142,False
西部第一,福島県,郡山市,鳴神１丁目,37.3972802,140.3401,105568.63409554462,5640027731,False
千葉ニュータウン,千葉県,印西市,中央南１丁目,35.801047,140.118481,105617.95918755926,,False
牛久駅東,茨城県,牛久市,中央３丁目,35.9807317,140.146276,105636.25320891234,5340717141,False
鶴舞団地,埼玉県,坂戸市,鶴舞４丁目,35.9485059,139.369738,105753.81572999123,5339723943,False
あすみが丘東,千葉県,緑区,あすみが丘東２丁目,35.5243056,140.277582,105772.33554943686,5340222233,False
大井川,兵庫県,姫路市,飾磨区今在家北３丁目,34.811918,134.655122,106006.38093256789,5234157214,False
浅川学園台,福岡県,八幡西区,浅川学園台３丁目,33.8840157,130.707412,106020.11946629554,5030656621,False
旭ヶ丘第１グリーンタウン,千葉県,四街道市,旭ケ丘３丁目,35.663474,140.186435,106056.01927855147,5340319442,False
奥野第一,青森県,青森市,緑３丁目,40.80676991411771,140.75030008594553,106110.69302615397,6140166033,False
下郡,大分県,大分市,下郡中央２丁目,33.2266206,131.633388,106116.07958791975,4931657021,False
浄水特定,愛知県,豊田市,浄水町,35.1217989,137.138292,106155.12004028597,5237514131,False
高陽第一,広島県,安佐北区,落合３丁目,34.47635,132.511382,106290.13503309048,5132547022,False
厚木ニューシティ森の里,神奈川県,厚木市,森の里１丁目,35.4454632,139.310486,106308.40294474812,,False
秦野南が丘,神奈川県,秦野市,南が丘４丁目,35.3556792,139.228561,106368.17896800072,5339012832,False
勝田,青森県,青森市,勝田２丁目,40.81829401854715,140.75860831025787,106386.54071400802,6140168021,False
辰巳団地　辰巳台,千葉県,市原市,辰巳台東１丁目,35.519757,140.153253,106452.73507821125,5340212214,False
簗瀬下栗,栃木県,宇都宮市,東簗瀬,36.540278,139.899001,106482.36569531115,5439674144,False
美鈴ヶ丘,広島県,佐伯区,美鈴が丘西２丁目,34.3941816,132.383011,106488.18467348149,5132437023,False
泡瀬,沖縄県,沖縄市,泡瀬２丁目,26.316921,127.833844,106496.22679464589,3927368621,False
米野木駅前,愛知県,日進市,藤枝町,35.1269531,137.065822,106571.54585106485,5237505512,False
二色の浜パークタウン,大阪府,貝塚市,二色２丁目,34.446485,135.34255,106571.84138832346,5135523732,False
アートヒル三好ヶ丘,愛知県,みよし市,三好丘緑１丁目,35.112498,137.113224,106589.52085140845,5237503913,False
観世音寺,福岡県,太宰府市,観世音寺４丁目,33.512524,130.516756,106732.41994404432,5030241132,False
清見台,千葉県,木更津市,清見台東１丁目,35.383959,139.947698,106814.23752742755,5339076522,False
半田乙川中部,愛知県,半田市,小神町,34.9108967,136.949451,106880.05479213803,5236279524,False
創造の丘　ナシオン,兵庫県,西宮市,東山台２丁目,34.8307726,135.312514,106888.7575273168,5235129531,False
常総ニュータウン北守谷,茨城県,守谷市,松前台二丁目,35.9701776,139.967058,106985.38651616726,5339776714,False
けいはんな学研都市［精華・西木津地区］,京都府,精華町,精華台三丁目,34.7499301,135.779395,107020.19575793206,5235069234,False
勢野北部,奈良県,三郷町,勢野北３丁目,34.6092384,135.691138,107043.1291580585,5135753512,False
ビックヒルズ飯能美杉台,埼玉県,飯能市,美杉台４丁目,35.8455825,139.307799,107071.92849133413,5339621423,False
千葉ニュータウン,千葉県,船橋市,小室町,35.792836,140.071831,107257.1547034721,5340505521,False
明石台,宮城県,富谷町,明石台６丁目,38.347277,140.894036,107340.16315496952,5740471141,False
自由ヶ丘,兵庫県,三木市,志染町中自由が丘１丁目,34.7830212,135.013332,107425.99773637162,5235103133,False
ポッタリタウン SETO みずの坂,愛知県,瀬戸市,みずの坂５丁目,35.2449533,137.064583,107459.20925987508,5237609513,False
将監ニュータウン,宮城県,泉区,将監殿３丁目,38.342531,140.876134,107779.44072695498,5740471011,False
ライブヒルズ,北海道,清田区,平岡公園東１０丁目,43.002513,141.472915,108062.55731247977,6441430724,False
伝法寺,愛知県,一宮市,丹陽町伝法寺字飯守神,35.2653283,136.843713,108109.82677791819,5236761734,False
久下第二特定,埼玉県,加須市,久下１丁目,36.119018,139.610524,108399.79642494564,5439144824,False
桜丘,福岡県,志免町,桜丘２丁目,33.5697489,130.482174,108933.72956223329,5030238823,False
大額第一,石川県,金沢市,大額３丁目,36.514534,136.624578,109060.90438179755,5436641942,False
茨木サニータウン,大阪府,茨木市,大字福井,34.8633889,135.552884,109114.5136868032,5235243431,False
二子山,群馬県,前橋市,文京町３丁目,36.37611674612733,139.0862061161137,109572.83395047979,5439405622,False
泉パークタウン,宮城県,泉区,桂３丁目,38.337768,140.862601,109660.60986377823,5740460931,False
花畔,北海道,石狩市,花川南二条２丁目,43.152603,141.298369,109930.60986210624,6441528324,False
豊橋飯村,愛知県,豊橋市,飯村南２丁目,34.7449641,137.42279,110048.31632817164,5237039324,False
屯田中部,北海道,北区,屯田九条７丁目,43.142174,141.328425,110093.60309818714,6441527612,False
東坂戸団地,埼玉県,坂戸市,東坂戸２丁目,35.953672,139.444889,110141.91078531583,5339734523,False
上野古ヶ場,埼玉県,岩槻区,上野５丁目,35.975158,139.696226,110182.83173965699,5339757521,False
高尾第三,石川県,金沢市,高尾台２丁目,36.5227021,136.632131,110255.39504517535,5436652041,False
城東,群馬県,高崎市,高関町,36.32910432904905,139.0280195691915,110329.94171381104,5439309213,False
青山,愛知県,半田市,青山３丁目,34.8789611,136.910471,110406.64832511653,5236275224,False
光明台,大阪府,和泉市,光明台３丁目,34.454979,135.487855,110411.56182625823,5135534931,False
新田,埼玉県,鶴ヶ島市,新町４丁目,35.9349881,139.37139,110778.7965388063,5339722921,False
西賀茂,京都府,北区,柊野西賀茂井ノ口町,35.0693703,135.741658,110875.61841047752,5235458914,False
湘南テラス,神奈川県,平塚市,北金目１丁目,35.3678867,139.284026,111008.40602133391,5339024221,False
ひよどり台,兵庫県,北区,ひよどり台３丁目,34.697978,135.122459,111167.6968806368,5235003944,False
君塚,千葉県,市原市,君塚３丁目,35.521478,140.103461,111217.31431809024,5340202832,False
籠原中央第二,埼玉県,熊谷市,籠原南３丁目,36.171054,139.327397,111543.8209788633,5439220631,False
古江上田方,広島県,西区,古田台２丁目,34.3935834,132.404869,111600.85127493276,5132437212,False
八木山団地,宮城県,太白区,八木山本町１丁目,38.240186,140.84492,111618.20078929627,5740268743,False
加茂川特定,愛知県,豊田市,東山町１丁目,35.0869422,137.184159,111639.32417920993,5237510423,False
御成台研究学園都市開発,千葉県,四街道市,鷹の台２丁目,35.632683,140.19605,111651.80833985464,5340315543,False
栄町,茨城県,牛久市,栄町３丁目,35.9855504,140.150741,111664.81942142741,5340718213,False
若宮,千葉県,市原市,若宮５丁目,35.527686,140.13525,111740.79673865296,5340213024,False
阪急伏尾台,大阪府,池田市,伏尾台３丁目,34.861778,135.438595,111751.61607300462,5235233513,False
公津東,千葉県,成田市,公津の杜４丁目,35.760017,140.294498,111944.08980454266,5340521321,False
井野東,千葉県,佐倉市,宮ノ台３丁目,35.740946,140.147387,112029.54140960952,5340418144,False
柏の葉,千葉県,柏市,柏の葉４丁目,35.8969098,139.939911,112031.2574321822,,False
城東、城南、城北,栃木県,小山市,駅東通り２丁目,36.311252,139.809991,112039.05656397561,5439367424,False
森,愛知県,あま市,森四丁目,35.212207,136.810797,112068.63190721208,5236665424,False
東酒々井,千葉県,酒々井町,東酒々井３丁目,35.728446,140.276501,112106.1340350066,5340427213,False
清見台第二,千葉県,木更津市,清見台南４丁目,35.383041,139.956137,112253.61592682605,5339075634,False
そめい野・みずきが丘,千葉県,佐倉市,染井野５丁目,35.71978,140.190386,112400.54587690036,5340416513,False
府中ニュータウン,広島県,府中町,瀬戸ハイム２丁目,34.390231,132.520502,112499.4935312304,5132446143,False
西条第一,広島県,東広島市,西条中央６丁目,34.4168315,132.73886,112693.47453685896,5132550911,False
アイランドシティ地区,福岡県,東区,香椎照葉１丁目,33.6644247,130.421876,112719.23791250138,5030339342,False
野々市西部,石川県,野々市市,野代１丁目,36.538554,136.6037,112917.45756529702,5436644832,False
フラワータウン・カルチャータウン,兵庫県,三田市,弥生が丘６丁目,34.8857764,135.198716,112954.26206935014,5235216524,False
国分寺台,千葉県,市原市,国分寺台中央３丁目,35.499354,140.117628,113087.23588327918,5340109934,False
茶屋新田,愛知県,港区,西茶屋２丁目,35.105237,136.823405,113108.4382341988,5236562542,False
高浜中部,愛知県,高浜市,神明町１丁目,34.9383339,136.999562,113153.14420022529,5236372942,False
パークヒルズ田原,大阪府,四條畷市,田原台５丁目,34.7230313,135.693157,113289.95981366467,5235056534,False
本通中央,北海道,函館市,本通２丁目,41.799471,140.769925,113380.0052151882,6240565143,False
武岡,鹿児島県,鹿児島市,武岡２丁目,31.5925948,130.514722,113399.93673360758,4730341111,False
国見ヶ丘,宮城県,青葉区,国見ケ丘３丁目,38.290863,140.828547,113463.24222777734,5740364634,False
筑波研究学園都市,茨城県,つくば市,竹園１丁目,36.083234,140.118685,113548.62824495624,5440009934,False
泉南一丘,大阪府,泉南市,信達大苗代,34.3689803,135.290252,113551.09692641803,5135424313,False
田尻,福岡県,西区,泉２丁目,33.5783864,130.242675,113941.24682167724,5030219914,False
志段味ヒューマンサイエンスタウン,愛知県,守山区,大字下志段味,35.2435027,137.017728,114037.41607031385,5237609112,False
小山駅東、東部第一、城南第二,栃木県,小山市,駅南町３丁目,36.303402,139.810846,114044.72807262203,5439366424,False
毘沙門台（１期）,広島県,安佐南区,毘沙門台２丁目,34.4738448,132.464012,114137.97820748459,5132536733,False
東急ニュータウン柏ビレッジ,千葉県,柏市,大室,35.904746,139.966357,114166.04139643491,5339678732,False
橿原ニュータウン,奈良県,橿原市,白橿町二丁目,34.476668,135.789206,114303.15941792884,5135567311,False
西郷（２工区）,鹿児島県,鹿児島市,西陵５丁目,31.581277,130.507615,114538.32664312374,4730249043,False
南部第一,熊本県,南区,江越１丁目,32.776035,130.703033,114821.87589458807,4930153611,False
長沢グリーンハイツ,神奈川県,横須賀市,グリーンハイツ,35.205303,139.672288,115253.6871721542,5239654342,False
上重原特定,愛知県,知立市,上重原二丁目,34.9986606,137.02847,115267.11887422529,5237309234,False
乙川北部,愛知県,半田市,大伝根町１丁目,34.9212948,136.942299,115396.10557313649,5236370532,False
伊勢原なるせ 大山ガーデン,神奈川県,伊勢原市,高森２丁目,35.4087723,139.32327,115604.04969970307,5339029522,False
西武ぶしニュータウン,埼玉県,入間市,大字新光,35.8556594,139.359037,115695.7401731865,5339622841,False
五所第二,千葉県,市原市,東五所,35.527393000000004,140.114195,115769.22154124177,5340203913,False
岩田第二,愛知県,豊橋市,東岩田４丁目,34.7518993,137.42843,115781.27791908644,5237130412,False
桂坂ニュータウン,京都府,西京区,桂坂御陵大枝山町六丁目,34.9840672,135.661605,115966.63911987569,5235358222,False
王寺ニュータウン,奈良県,王寺町,太子２丁目,34.580012,135.691341,115993.05260687869,5135659532,False
あすみが丘,千葉県,緑区,あすみが丘３丁目,35.5276018,140.265347,116016.5974474918,5340223113,False
イーストタウン高砂,宮城県,宮城野区,高砂１丁目,38.270178,140.971091,116103.4474326056,5740372723,False
岩崎山前,愛知県,小牧市,大字岩崎,35.3096246,136.935309,116624.73817042152,5236777422,False
屯田東,北海道,北区,屯田九条３丁目,43.142879,141.342995,116661.85179627546,6441527712,False
わし宮,埼玉県,久喜市,上内,36.089245,139.661396,116808.31978642498,5439150242,False
ニュータウンやなぎう,宮城県,太白区,柳生１丁目,38.196961,140.870497,116828.31459690942,5740263941,False
南ヶ丘2区,福岡県,大野城市,南ケ丘７丁目,33.498532,130.478518,116973.42584042191,5030139834,False
佐野,福岡県,太宰府市,大佐野２丁目,33.50331,130.494983,117016.50287571496,5030230923,False
物見山,新潟県,東区,幸栄１丁目,37.94347,139.101613,117023.78061439515,5639703811,False
東区東部,北海道,東区,伏古十四条５丁目,43.103364,141.407797,117038.04333488039,6441532223,False
住友北鈴蘭台第二,兵庫県,北区,泉台５丁目,34.737769,135.13449,117123.73941216101,5235018042,False
上地第一特定,愛知県,岡崎市,上地２丁目,34.911361,137.168251,117132.56179274702,5237219314,False
緑丘,愛知県,岡崎市,緑丘２丁目,34.9169115,137.179956,117343.17425920123,5237310412,False
日生鈴蘭台,兵庫県,北区,星和台３丁目,34.7195208,135.125788,117356.09240058876,5235016013,False
もみじ台,北海道,厚別区,もみじ台東１丁目,43.031694,141.49425,117542.58167142751,6441433943,False
東白川台,兵庫県,須磨区,東白川台３丁目,34.694256,135.106666,117629.22832750886,5235003823,False
洛北第一,京都府,左京区,岩倉南岩倉南桑原町,35.0651617,135.784104,117665.68847428494,5235467243,False
南北田原,奈良県,生駒市,西白庭台２丁目,34.7275649,135.707725,117682.7452722862,5235057623,False
西白庭台ガーデンヒルズ,奈良県,生駒市,西白庭台２丁目,34.7275672,135.707731,117682.7452722862,5235057623,False
City&Cityちはら台,千葉県,市原市,ちはら台西６丁目,35.529293,140.184259,117700.61663242943,5340213441,False
みそのウィングシティ,埼玉県,岩槻区,大字尾ヶ崎新田,35.902548,139.731631,118021.8317028516,5339658823,False
余野,愛知県,大口町,余野四丁目,35.3408494,136.90798,118118.70851213692,5336070243,False
太田第一,香川県,高松市,上福岡町,34.3271681,134.064685,118360.25309311756,5134309513,False
阪急北ネオポリス,兵庫県,川西市,大和東３丁目,34.88924,135.421851,118573.25924734215,5235236341,False
光台,京都府,精華町,光台五丁目,34.7411851,135.757238,118620.62926440939,5235068043,False
東部,埼玉県,東松山市,六軒町,36.0330074,139.417849,118631.6410907682,5439033334,False
鳶尾,神奈川県,厚木市,鳶尾４丁目,35.491312,139.326531,118792.0323677512,5339128633,False
本城西部,福岡県,八幡西区,折尾３丁目,33.8678574,130.712277,118808.6663583027,5030654622,False
湘南めぐみが丘,神奈川県,平塚市,めぐみが丘１丁目,35.3491366,139.294307,118970.8349292788,5339021343,False
原良,鹿児島県,鹿児島市,明和４丁目,31.603284,130.522893,119134.94183756394,4730342124,False
七光台駅西,千葉県,野田市,光葉町二丁目,35.967279,139.849734,119301.57600895304,5339766722,False
洛北第二,京都府,左京区,明徳岩倉大鷺町,35.0698421,135.784973,119464.30676803608,5235468224,False
香芝市高山台,奈良県,香芝市,高山台２丁目,34.5481027,135.679015,119479.50050440064,5135655434,False
生駒イトーピア,奈良県,生駒市,鹿ノ台南２丁目,34.7350289,135.748757,119604.05837530374,5235058922,False
大久保東,兵庫県,明石市,大久保町高丘１丁目,34.70245,134.949026,119710.83091863123,5234074524,False
馬堀シーハイツ,神奈川県,横須賀市,馬堀海岸３丁目,35.2620516,139.706468,119802.02972237323,5239751623,False
馬堀海岸分譲地,神奈川県,横須賀市,馬堀海岸３丁目,35.2620516,139.706468,119802.02972237323,5239751623,False
箕田赤見台,埼玉県,鴻巣市,赤見台１丁目,36.085523,139.480362,120287.2200042271,5439130814,False
日向岡,神奈川県,平塚市,日向岡２丁目,35.3406148,139.299405,120287.98348416078,5339020344,False
いずみ向陽台,宮城県,泉区,向陽台２丁目,38.338795,140.896719,120347.869146898,5740470141,False
玉里,鹿児島県,鹿児島市,玉里団地１丁目,31.619474,130.546331,120355.70223360023,4730344323,False
桂台,北海道,清田区,里塚二条２丁目,42.990287,141.463974,120462.27237204116,6441338733,False
西崎地区,沖縄県,糸満市,西崎２丁目,26.143727,127.666533,120499.14400661185,3927157312,False
美和台,福岡県,東区,美和台７丁目,33.701743,130.428357,120622.13457900439,5030434412,False
幕張新都心,千葉県,美浜区,浜田２丁目,35.652903,140.03427,120674.47019873951,,False
真志喜,沖縄県,宜野湾市,真志喜３丁目,26.2745826,127.735911,120728.1236905897,3927352844,False
武蔵ヶ丘第２,熊本県,北区,武蔵ケ丘５丁目,32.853346,130.769914,121062.93039913158,4930262123,False
春田野,愛知県,港区,春田野２丁目,35.114977,136.814691,121065.50321643692,5236563533,False
野田瑞季の街,千葉県,野田市,みずき三丁目,35.921817,139.886287,121121.93744924155,5339770042,False
向洋,広島県,南区,向洋新町２丁目,34.363542,132.509018,121123.8900961624,5132443041,False
新知,愛知県,知多市,新知東町１丁目,34.982296,136.866324,121204.76258336815,5236367934,False
米本,千葉県,八千代市,米本団地,35.756177,140.11405,121411.55107109879,5340500931,False
若松鈴見,石川県,金沢市,もりの里２丁目,36.5547693,136.686648,121422.15667125727,5436656442,False
虹の丘,宮城県,泉区,虹の丘２丁目,38.304655,140.868888,121523.31037750974,5740366941,False
若草町,兵庫県,須磨区,車,34.688028,135.113232,121619.10763666358,5235002931,False
高良内ニュータウン,福岡県,久留米市,城南町,33.319249,130.508367,121700.10081048036,4930748023,False
惣山町,兵庫県,北区,惣山町３丁目,34.735088,135.154281,121702.73998124075,5235018212,False
伊都,福岡県,西区,西都２丁目,33.5774271,130.262929,121987.67671002132,5030229113,False
常総ニュータウン南守谷,茨城県,守谷市,けやき台六丁目,35.939517,139.990705,122007.13901298575,5339772932,False
乙金第二,福岡県,大野城市,乙金１丁目,33.5452393,130.493116,122159.82817316371,5030235914,False
紫竹石山,新潟県,東区,東明２丁目,37.9015038,139.084127,122324.13643239117,5639608621,False
立野,奈良県,三郷町,立野南２丁目,34.5935283,135.686619,122791.64958035397,5135751422,False
野牛・高岩,埼玉県,白岡市,新白岡８丁目,36.0361342,139.670985,122830.76085285742,5439054323,False
けいはんな学研都市［精華・西木津地区］,京都府,木津川市,木津川台６丁目,34.743692,135.785919,122865.88653435613,5235069222,False
美里,沖縄県,沖縄市,美原４丁目,26.3486614,127.819735,123229.0877776199,3927461543,False
杉戸高野台,埼玉県,杉戸町,高野台西３丁目,36.050799,139.71193,123346.07446255801,5439056622,False
北大和,奈良県,生駒市,北大和１丁目,34.7251832,135.72993,123490.26048879526,5235057812,False
安城新幹線駅周辺,愛知県,安城市,三河安城南町１丁目,34.9682569,137.062314,123561.09913506222,5237306422,False
生の松原,福岡県,西区,西の丘３丁目,33.5659848,130.298867,123562.91055569489,5030227344,False
梅の里,大阪府,富田林市,梅の里１丁目,34.526624,135.595726,123576.60080848346,5135643721,False
舘ヶ丘,東京都,八王子市,館町,35.627094,139.2875,123680.98244307515,5339325224,False
尾生久米田,大阪府,岸和田市,尾生町４丁目,34.4495811,135.41216,123810.44499690646,5135533244,False
阪急宝塚山手台,兵庫県,宝塚市,山手台西３丁目,34.8348,135.377477,124083.389622056,5235230011,False
宝塚サングリーン,兵庫県,宝塚市,山手台西３丁目,34.8348,135.377477,124083.389622056,5235230011,False
高塚山地区開発事業,兵庫県,垂水区,小束山手１丁目,34.674053,135.064455,124192.12513825648,5235000533,False
広陵町・筑紫が丘・小倉台,兵庫県,北区,筑紫が丘１丁目,34.747572,135.164452,124319.7309826186,5235019331,False
羊ヶ丘通,北海道,清田区,美しが丘三条５丁目,42.982235,141.455712,124621.2557086575,6441337634,False
西大輪,埼玉県,久喜市,西大輪２丁目,36.09168,139.6775,124908.23283213125,5439151411,False
山の街ニュータウン,兵庫県,北区,桂木３丁目,34.7537664,135.143932,125120.18164968437,5235110123,False
八千代緑が丘 はぐみの杜,千葉県,八千代市,西八千代北部特定区画整理事業地内,35.737996,140.070593,125182.54899172852,5340408541,False
大高南,愛知県,緑区,南大高２丁目,35.0552614,136.944745,125258.09152058595,5236476541,False
み春野翼の丘,千葉県,花見川区,み春野２丁目,35.693273,140.138176,125406.1810431386,5340413111,False
押野第一,石川県,野々市市,押野１丁目,36.542437,136.616958,125475.80964356007,5436645912,False
野々市町押野第一,石川県,野々市市,押野１丁目,36.542437,136.616958,125475.80964356007,5436645912,False
将監団地,宮城県,泉区,将監７丁目,38.335244,140.878179,125682.64059127805,5740470012,False
桃花台,愛知県,小牧市,古雅１丁目,35.3024575,136.983706,125790.9108278724,5236776823,False
下上津役永犬丸,福岡県,八幡西区,三ケ森４丁目,33.834909,130.739139,125889.71789302063,5030650911,False
荒井,宮城県,若林区,伊在,38.244753,140.940599,125959.4554664593,5740279513,False
青葉台,大阪府,和泉市,青葉台１丁目,34.4442001,135.468291,126107.28116508474,5135533714,False
-（長浦町1－31）,神奈川県,横須賀市,小川町,35.281358,139.672064,126112.4787067575,5239753344,False
浦和東部第一,埼玉県,緑区,大字南部領辻,35.895969,139.722083,126275.87648906147,5339657742,False
第百野比,神奈川県,横須賀市,粟田１丁目,35.227725,139.679356,126302.4591446205,5239657414,False
東部,愛知県,豊田市,美里１丁目,35.0794277,137.18331,126452.58291711702,5237419441,False
江南,愛知県,江南市,藤ケ丘４丁目,35.3543909,136.855205,126569.22936310683,5336062832,False
志段味ヒューマンサイエンスタウン,愛知県,守山区,笹ヶ根３丁目,35.2346298,137.002314,126610.21223788368,5237608011,False
青梅東部三ツ原,東京都,青梅市,藤橋３丁目,35.797766,139.308781,126635.33284447901,5339525441,False
有野,兵庫県,北区,有野台５丁目,34.813028,135.229812,126661.7523390368,5235117832,False
鈴ヶ峰,広島県,西区,鈴が峰町,34.3809048,132.393746,126709.25256561367,5132435132,False
多田グリーンハイツ,兵庫県,川西市,向陽台３丁目,34.873503,135.403404,126912.96607688231,5235234234,False
中山台ニュータウン,兵庫県,宝塚市,中山桜台２丁目,34.8346032,135.365606,127219.45399141544,5235220911,False
赤池箕ノ手,愛知県,日進市,赤池町,35.1158889,137.023898,127220.63295743847,5237503144,False
大留,愛知県,春日井市,大留町７丁目,35.2593737,137.023559,127231.77701568473,5237701122,False
梅の里,大阪府,富田林市,梅の里３丁目,34.527967,135.591477,127306.51334426523,5135643714,False
千城台,千葉県,若葉区,千城台南１丁目,35.619942,140.192971,127351.21756520482,5340314514,False
水野,愛知県,瀬戸市,はぎの台１丁目,35.239556,137.071774,127486.59778557814,5237608541,False
夢前川,兵庫県,姫路市,佃町,34.815327,134.685515,127551.61943001045,5234157444,False
浅羽野,埼玉県,坂戸市,浅羽野１丁目,35.956454,139.383738,127581.09561451244,5339734043,False
朝倉,愛知県,知多市,つつじが丘１丁目,34.985583,136.871088,127632.27963862722,5236368923,False
あすか野,奈良県,生駒市,あすか野南１丁目,34.712214,135.718875,127738.63111983023,5235055723,False
富士見ヶ丘,栃木県,宇都宮市,旭１丁目,36.555143,139.882609,127983.52176459924,5439676041,False
常総ニュータウン,茨城県,取手市,戸頭３丁目,35.923741,140.012595,128011.42287360529,5340700133,False
津嘉山北,沖縄県,南風原町,字津嘉山,26.1908564,127.714748,128038.79932614838,3927252733,False
登美ヶ丘10次,奈良県,奈良市,東登美ヶ丘４丁目,34.7201846,135.756414,128063.26320745356,5235066023,False
西大和ニュータウン,奈良県,河合町,中山台１丁目,34.5806304,135.720189,128340.0890929043,5135659741,False
南ヶ丘2区,福岡県,大野城市,南ケ丘３丁目,33.501503,130.48007,128498.93017509651,5030230812,False
長町恵通苑,宮城県,青葉区,貝ケ森１丁目,38.282795,140.840433,128550.3529221145,5740363733,False
豊橋福岡東部,愛知県,豊橋市,佐藤１丁目,34.7460779,137.403058,128740.14844566025,5237039231,False
東郷諸輪,愛知県,東郷町,白鳥３丁目,35.1118153,137.057478,128801.3272699717,5237503423,False
中部（第２工区）,兵庫県,姫路市,飾磨区中野田１丁目,34.805752,134.680192,129064.14211389523,5234156432,False
出川中部,愛知県,春日井市,出川町３丁目,35.264701,137.021887,129236.0170047988,5237701144,False
宝町団地,宮城県,青葉区,川平３丁目,38.304453,140.838547,129332.49843285595,5740366731,False
清和台,兵庫県,川西市,清和台西２丁目,34.8739646,135.387208,129548.57265239843,5235234044,False
四街道南,千葉県,若葉区,若松台１丁目,35.651577,140.169582,129577.91838136998,5340318321,False
本地ヶ原北部,愛知県,尾張旭市,北本地ケ原町３丁目,35.198483,137.038947,129630.04979590153,5237603333,False
瑞穂町西部,東京都,瑞穂町,長岡一丁目,35.775138,139.333162,129735.08152005763,5339523621,False
イーステーション新田東,宮城県,宮城野区,新田東３丁目,38.277035,140.934613,129980.86704644164,5740373422,False
豊橋柳生川南部,愛知県,豊橋市,柱五番町,34.7479705,137.369218,130142.57236875064,5237029943,False
下市場,愛知県,春日井市,下市場町６丁目,35.2574459561406,137.004228317564,130357.0541567577,5237700034,False
真弓住宅地,奈良県,生駒市,真弓２丁目,34.721906,135.730557,130503.93553491024,5235056832,False
北別府,兵庫県,西区,北別府３丁目,34.6738481,135.01272,130511.11429683719,5235000133,False
安城南部,愛知県,安城市,城南町１丁目,34.9500068,137.078827,130704.6340161942,5237304612,False
労信葉桜団地,神奈川県,逗子市,桜山７丁目,35.2883508,139.588827,130861.97743064561,5239744731,False
白岡ＮＴ,埼玉県,白岡市,新白岡２丁目,36.0356442,139.67652,130917.28570799266,5439054413,False
半城土,愛知県,刈谷市,半城土中町２丁目,34.9774816,137.019416,130941.39924709481,5237307123,False
池田,静岡県,駿河区,曲金７丁目,34.9820149,138.421548,131018.62510741617,5238337343,False
湖北台,千葉県,我孫子市,湖北台７丁目,35.863604,140.068954,131127.59577598036,5340603541,False
江端,愛知県,大府市,江端町４丁目,35.0106046,136.954181,131238.5726067094,5236471614,False
幸手,埼玉県,幸手市,栄,36.0570669,139.720915,131280.55722411376,5439056743,False
美里第二,沖縄県,沖縄市,美里仲原町,26.3440773,127.825099,131375.0479623421,3927461613,False
臼井生谷,千葉県,佐倉市,王子台４丁目,35.72457,140.181733,131585.12474847244,5340416443,False
白井・沼南,千葉県,白井市,西白井２丁目,35.798288,140.030494,131816.8537390467,5340505234,False
御笠川東部,福岡県,大野城市,筒井４丁目,33.5449,130.483833,132001.32511489678,5030235823,False
しおだ,神奈川県,中央区,田名塩田２丁目,35.5340236,139.354234,132204.95140921252,5339224812,False
西浦,三重県,四日市市,安島１丁目,34.967526,136.613359,132210.61659185623,5236346911,False
伊奈町中部,埼玉県,伊奈町,大字小室,36.0004029,139.618237,132309.7579522863,5439040912,False
あかね団地,神奈川県,伊勢原市,高森３丁目,35.4137543,139.327845,132386.14852742062,5339029631,False
多加木,愛知県,一宮市,多加木３丁目,35.2805829,136.814787,132658.32378057935,5236763531,False
野添,兵庫県,播磨町,西野添３丁目,34.719692,134.877176,132704.40694492136,5234076013,False
南気噴,愛知県,春日井市,気噴町４丁目,35.2629036,137.031489,132773.8701655496,5237701241,False
青毛特定,埼玉県,久喜市,青毛２丁目,36.0747863,139.701965,132808.2106288426,5439058633,False
牛頚,福岡県,大野城市,畑ケ坂２丁目,33.502183,130.462554,132998.76535093065,5030230713,False
ポッタリタウン SETO やまて坂,愛知県,瀬戸市,やまて坂２丁目,35.2335267,137.069338,133109.5321178997,5237608521,False
南ヶ丘1区,福岡県,大野城市,緑ケ丘４丁目,33.5040865,130.486003,133206.85478989026,5030230824,False
さつき野,大阪府,美原区,さつき野西３丁目,34.531132,135.581113,133267.75660996392,5135643632,False
北刈谷第二,愛知県,刈谷市,築地町２丁目,35.0133199,137.018612,133473.97046398613,5237401132,False
西秋留駅北口,東京都,あきる野市,秋川４丁目,35.731965,139.288461,133481.37583907993,5339427333,False
富雄,奈良県,奈良市,鳥見町４丁目,34.6948903,135.721473,133815.1774577358,5235053723,False
安城北部,愛知県,安城市,里町１丁目,34.9922131,137.092003,133970.79562748972,5237309712,False
北刈谷,愛知県,刈谷市,稲場町１丁目,35.0021221,136.998696,134119.50444549142,5236470924,False
清洲西部,愛知県,清須市,西市場三丁目,35.219048,136.833858,134212.75552243012,5236666623,False
西部第二,岡山県,北区,今２丁目,34.6493116,133.89881,134492.99266743707,5133777144,False
白庭台,奈良県,生駒市,白庭台４丁目,34.7222552,135.715071,134569.74099755954,5235056731,False
（仮称）白庭駅前,奈良県,生駒市,白庭台４丁目,34.7222552,135.715071,134569.74099755954,5235056731,False
（仮称）白庭駅前（１工区）,奈良県,生駒市,白庭台４丁目,34.7222552,135.715071,134569.74099755954,5235056731,False
伊奈,埼玉県,伊奈町,内宿台３丁目,36.0141384,139.60237,134740.70437711556,5439041831,False
黒浜,埼玉県,蓮田市,緑町１丁目,35.985907,139.6661,134849.8766050334,5339758314,False
南新宿,埼玉県,蓮田市,西新宿３丁目,36.004014,139.65241,134872.5158079401,5439050213,False
住友北鈴蘭台第一,兵庫県,北区,泉台３丁目,34.739602,135.141363,135187.14338753343,5235018134,False
川間駅南,千葉県,野田市,岩名二丁目,35.974334,139.836463,135206.24158574952,5339766644,False
知立第三,愛知県,知立市,鳥居一丁目,35.0049544,137.033643,135344.9474056761,5237400241,False
高蔵寺ニュータウン,愛知県,春日井市,岩成台４丁目,35.2787678,137.037618,135477.7154923001,5237703313,False
ユーカリが丘ニュータウン,千葉県,佐倉市,ユーカリが丘２丁目,35.72994,140.155404,136144.25604022088,5340417232,False
北・南貴望ヶ丘,大阪府,河内長野市,北貴望ケ丘,34.467876,135.557792,136182.35799588755,5135546421,False
東野,愛知県,春日井市,東野町２丁目,35.266593,136.983408,136333.3111132634,5236771843,False
屯田,北海道,北区,屯田七条７丁目,43.135989,141.32997,136357.7574034776,6441526614,False
伊奈町北部,埼玉県,伊奈町,寿３丁目,36.0063535,139.603988,136371.8098509661,5439040834,False
平城・相楽ニュータウン,京都府,木津川市,相楽台１丁目,34.7263358,135.789364,136451.98242386492,5235067311,False
徳力,福岡県,小倉南区,徳力３丁目,33.8260766,130.866351,136511.9267233403,5030569912,False
安城東部,愛知県,安城市,法連町,34.9562499,137.09588,136550.56553263983,5237304741,False
こてはし,千葉県,花見川区,こてはし台３丁目,35.687,140.12156,136561.22551728517,5340402923,False
西広島,広島県,西区,高須台３丁目,34.3994363,132.413945,136715.88722532845,5132437333,False
平城・相楽ニュータウン,奈良県,奈良市,朱雀３丁目,34.7227028,135.793001,136738.1095755698,5235066332,False
登美ヶ丘11次１期,奈良県,奈良市,中登美ヶ丘３丁目,34.721192,135.751398,136758.65513339735,5235066031,False
藤ヶ丘,兵庫県,川西市,湯山台１丁目,34.8498705,135.401071,136765.32355001435,5235231233,False
北部第二（三地区）,神奈川県,藤沢市,土棚,35.4016921,139.448861,137210.81743929075,5339038522,False
竹の山南部,愛知県,日進市,岩崎町神明,35.1550337,137.035627,137245.09586152065,5237508242,False
森本,愛知県,一宮市,森本３丁目,35.289573,136.813722,137330.43225799536,5236764531,False
花住坂,京都府,京田辺市,花住坂３丁目,34.831947,135.736549,137576.9331234545,5235159844,False
松井ケ丘,京都府,京田辺市,花住坂２丁目,34.833109,135.731811,137645.80064236725,5235159843,False
七里ヶ浜,神奈川県,鎌倉市,七里ガ浜東４丁目,35.310783,139.516232,138251.04786267134,5239747114,False
Liv-Field西大宮,埼玉県,西区,大字高木,35.927425,139.576921,138529.0760293763,5339741613,False
鎌倉逗子ハイランド,神奈川県,逗子市,久木８丁目,35.3100462,139.573451,138557.83178806576,5239747522,False
東郷西部特定,愛知県,東郷町,三ツ池４丁目,35.0922238,137.023565,138651.55236740704,5237501122,False
今泉台,神奈川県,鎌倉市,今泉台２丁目,35.3405177,139.559899,138685.57112130098,5339040444,False
仲畑,福岡県,大野城市,仲畑２丁目,33.5553706,130.469037,138714.63392556834,5030236741,False
君影町,兵庫県,北区,君影町３丁目,34.716923,135.138509,138954.74831070434,5235016111,False
柏北部中央,千葉県,柏市,十余二,35.88938,139.950843,139169.9093150632,5339676631,False
京阪平尾,京都府,宇治市,平尾台４丁目,34.9258678,135.814259,139377.58235541775,5235361511,False
駅東第三,栃木県,宇都宮市,中今泉３丁目,36.5685718,139.908749,139587.40861138544,5439678221,False
第２勝山（東勝山）,宮城県,青葉区,東勝山３丁目,38.29738,140.865537,139622.94124110634,5740365931,False
西原,沖縄県,浦添市,西原１丁目,26.25017,127.74082,139663.69799277498,3927350912,False
City&Cityおゆみ野,千葉県,緑区,おゆみ野中央５丁目,35.55641,140.173343,139898.02467955774,5340216344,False
今,岡山県,北区,今５丁目,34.6438834,133.894411,139966.90283756622,5133777123,False
安城作野,愛知県,安城市,住吉町７丁目,34.9835857,137.0757,139975.28279066447,5237308611,False
大和真美ヶ丘ニュータウン,奈良県,香芝市,真美ヶ丘６丁目,34.543331,135.719575,140168.53355307924,5135655721,False
大住ケ丘,京都府,京田辺市,大住ケ丘３丁目,34.8300274,135.741453,140292.97070493447,5235159932,False
桜ヶ丘,鹿児島県,鹿児島市,桜ヶ丘４丁目,31.5501711,130.51619,140434.07921664504,4730246112,False
緑ヶ丘,大阪府,和泉市,緑ヶ丘１丁目,34.4459427,135.456963,140586.66564776536,5135533641,False
桃山台,兵庫県,垂水区,桃山台３丁目,34.6562144,135.08185,140617.42736251574,5135708641,False
桜ヶ丘団地,宮城県,青葉区,桜ケ丘５丁目,38.301085,140.849483,140633.9114965567,5740366722,False
白山,愛知県,春日井市,白山町２丁目,35.269759,137.035443,140650.79585453213,5237702224,False
菱野,愛知県,瀬戸市,八幡台３丁目,35.2070971,137.095968,140673.63218229893,5237604743,False
城山,神奈川県,横須賀市,大矢部４丁目,35.23605,139.670753,140941.65615673203,5239658323,False
京阪東ローズタウン,京都府,八幡市,欽明台西,34.839256,135.716297,141320.38525513103,5235250732,False
石井,埼玉県,坂戸市,柳町,35.965659,139.410964,141750.24633738035,5339735244,False
須磨ニュータウン,兵庫県,須磨区,高倉台３丁目,34.6560309,135.104271,142955.16320534635,5135708832,False
井口台パークタウン,広島県,西区,井口台１丁目,34.3790276,132.379395,142960.00149286844,5132435014,False
浦添南第一,沖縄県,浦添市,字前田,26.2382798,127.726904,143885.51369324778,3927258831,False
旭ケ丘,奈良県,香芝市,旭ケ丘３丁目,34.5543398,135.691437,143905.47105570236,5135656532,False
南部第二,愛知県,春日井市,森山田町,35.2227496,136.95396,144143.8208710638,5236676632,False
西神ニュータウン,兵庫県,西区,学園東町５丁目,34.6845753,135.064276,144309.1489544176,5235002511,False
福田,愛知県,港区,七反野１丁目,35.114116,136.82068,144527.3880595542,5236563541,False
臼井駅南,千葉県,佐倉市,王子台３丁目,35.727294,140.180172,144713.03274189346,5340417414,False
成田ニュータウン,千葉県,成田市,赤坂２丁目,35.7777962,140.291661,144753.78662897012,,False
南平野,埼玉県,岩槻区,南平野４丁目,35.955201,139.716732,144774.08836962015,5339754732,False
岩戸,神奈川県,横須賀市,岩戸４丁目,35.2314963,139.670093,144888.1429882324,5239657343,False
玉津,兵庫県,西区,曙町,34.6688231,134.979798,145420.6735522395,5234070814,False
春日,福岡県,春日市,春日６丁目,33.517855,130.466423,145569.6599216905,5030232712,False
学園緑ケ丘,兵庫県,垂水区,小束山２丁目,34.671794,135.066712,145648.2820966433,5235000532,False
松井山手,京都府,京田辺市,山手南１丁目,34.83008,135.722252,145741.44134511452,5235159742,False
吉羽,埼玉県,久喜市,吉羽４丁目,36.0656133,139.69057,145759.83454473026,5439057533,False
ていね稲積,北海道,手稲区,前田四条６丁目,43.118481,141.259954,145830.31510642992,6441524022,False
鶴ヶ谷団地,宮城県,宮城野区,鶴ケ谷２丁目,38.287747,140.915279,146091.5380418914,5740374331,False
南ヶ丘1区,福岡県,大野城市,南ケ丘１丁目,33.507139,130.484555,146452.8614591698,5030230844,False
狭山ニュータウン,大阪府,大阪狭山市,大野台２丁目,34.479816,135.541842,146530.51033794938,5135547332,False
西神ニュータウン,兵庫県,西区,竹の台６丁目,34.7175798,135.014524,146592.42524946216,5235006111,False
渦ケ森,兵庫県,東灘区,渦森台３丁目,34.739373,135.247683,146725.21560775742,5235018942,False
滑石団地,長崎県,長崎市,上町,32.750307,129.877901,146798.2395724247,4929170011,False
横尾団地,長崎県,長崎市,上町,32.750307,129.877901,146798.2395724247,4929170011,False
三重地区住宅団地,長崎県,長崎市,上町,32.750307,129.877901,146798.2395724247,4929170011,False
伏見西部第二,京都府,伏見区,下鳥羽下鳥羽平塚町,34.9359613,135.746178,146997.93994906248,5235352923,False
富沢駅南,宮城県,太白区,南大野田,38.211192,140.869682,147231.04599467717,5740265923,False
中田第一,宮城県,太白区,西中田５丁目,38.193942,140.878115,147515.61395267484,5740273013,False
須磨ニュータウン,兵庫県,須磨区,友が丘８丁目,34.6688222,135.094654,147821.81356531166,5235000723,False
青梅東部新町,東京都,青梅市,新町７丁目,35.78577,139.309602,148102.67726750975,5339524424,False
伏見西部第一,京都府,伏見区,下鳥羽中島前山町,34.9467788,135.745789,148416.3201343606,5235353941,False
東川下,北海道,白石区,川下三条４丁目,43.050764,141.446614,148995.49160403686,6441436521,False
松河戸,愛知県,春日井市,松河戸町,35.2224486,136.96605,149357.08102413337,5236676732,False
富丘北,北海道,手稲区,富丘一条５丁目,43.111526,141.250191,149786.63731937078,6441523013,False
泉中央,宮城県,泉区,泉中央３丁目,38.324673,140.882578,150033.6537023736,5740378043,False
平沼,埼玉県,久喜市,青葉１丁目,36.0696433,139.69669,150092.14377386877,5439058523,False
湘南ハイランド,神奈川県,横須賀市,ハイランド４丁目,35.2238484,139.689563,150222.7640963726,5239656533,False
名谷つつじが丘,兵庫県,垂水区,つつじが丘４丁目,34.659299,135.076282,150262.80068510448,5135709611,False
卓ヶ洞東部,愛知県,尾張旭市,桜ケ丘町３丁目,35.2167403,137.013856,150292.78435222022,5237606111,False
潮芦屋,兵庫県,芦屋市,陽光町,34.711181,135.314759,150474.4139854156,5235025513,False
西宮の沢,北海道,手稲区,西宮の沢二条３丁目,43.102612,141.262872,150558.582301974,6441522113,False
沓掛,愛知県,豊明市,二村台５丁目,35.0650932,137.00738,150727.10091197296,5237407043,False
ガーデンシティ舞多聞,兵庫県,垂水区,舞多聞西５丁目,34.6654955,135.049089,150885.6107750995,5135709344,False
成瀬第一,神奈川県,伊勢原市,東成瀬,35.4100336,139.343308,151170.73644631414,5339029712,False
東鷲宮,埼玉県,久喜市,桜田１丁目,36.09447,139.680347,151203.5917090552,5439151414,False
湘南鷹取台,神奈川県,横須賀市,湘南鷹取２丁目,35.30658,139.619748,151528.27681721334,5239746943,False
津田くにみ坂,大阪府,枚方市,津田山手１丁目,34.8068927,135.70823,151645.84623914093,5235156643,False
よこすか海辺ニュータウン,神奈川県,横須賀市,平成町１丁目,35.2717092,139.683018,151988.88887715142,5239752441,False
野田第一,愛知県,刈谷市,東刈谷町２丁目,34.9756559,137.038066,152166.83724203598,5237307311,False
長湫東部,愛知県,長久手市,東狭間,35.1711304,137.040863,152374.4436966044,5237600332,False
上日出谷南,埼玉県,桶川市,大字上日出谷,36.0041717,139.543906,152407.54356606252,5439040341,False
折戸東部,愛知県,日進市,栄３丁目,35.1208884,137.051714,152499.23049039813,5237504431,False
彩都,大阪府,茨木市,彩都あさぎ五丁目,34.8511446,135.526474,152562.15887457348,5235242211,False
野村,滋賀県,草津市,野村１丁目,35.028696,135.956583,152628.99414363553,5235473623,False
徳力,福岡県,小倉南区,徳力団地,33.8307842,130.864666,153440.30895468444,5030569931,False
浦添南第二,沖縄県,浦添市,字沢岻,26.2385831,127.71464,153582.35546303843,3927258731,False
鈴蘭台,兵庫県,北区,北五葉１丁目,34.7262358,135.134826,153786.31985899652,5235017022,False
弥生町,大阪府,和泉市,弥生町２丁目,34.469964,135.442819,153861.313241211,5135536514,False
厚木毛利台団地,神奈川県,厚木市,毛利台２丁目,35.439327,139.329911,154066.8560105728,5339122632,False
伊奈南部,埼玉県,伊奈町,栄３丁目,35.9804636,139.639911,154151.52549763964,5339757131,False
足立,福岡県,小倉北区,足立２丁目,33.8676826,130.898652,154318.6679418297,5030674122,False
柴崎,千葉県,我孫子市,柴崎台２丁目,35.875496,140.043607,154325.42972590032,5340605312,False
長湫南部,愛知県,長久手市,市が洞二丁目,35.162184,137.030135,154366.43182371926,5237509214,False
湘南鷹取台,神奈川県,横須賀市,追浜南町３丁目,35.309907,139.616011,154551.45591301238,5239747912,False
学園前ネオポリス,奈良県,奈良市,学園大和町１丁目,34.6879121,135.747159,154554.77342900296,5235052942,False
甲栄台・若葉台,兵庫県,北区,甲栄台３丁目,34.741225,135.149517,154700.35727125013,5235018144,False
甲栄台・若葉台,兵庫県,北区,甲栄台３丁目,34.741225,135.149517,154700.35727125013,5235018144,False
甲栄台・若葉台,兵庫県,北区,甲栄台３丁目,34.741225,135.149517,154700.35727125013,5235018144,False
甲栄台・若葉台,兵庫県,北区,甲栄台３丁目,34.741225,135.149517,154700.35727125013,5235018144,False
グリーンヒル寺田,東京都,八王子市,寺田町,35.62296,139.305761,155154.42720934493,5339324434,False
トリヴェール和泉,大阪府,和泉市,はつが野２丁目,34.4484635,135.459784,156363.81370179745,5135533644,False
川越ニューシティいせはら,埼玉県,川越市,的場新町,35.920298,139.428064,156750.32387821062,5339730413,False
運動公園周辺,千葉県,流山市,後平井,35.8575005,139.917486,156956.33263197952,5339672334,False
万場川東,愛知県,中川区,万場４丁目,35.153477,136.829372,156991.50675022995,5236568614,False
厚別西区,北海道,厚別区,厚別西三条３丁目,43.049165,141.46348,157032.62781149894,6441435733,False
徳重南部,愛知県,緑区,徳重２丁目,35.089478,136.99936,157225.07153116484,5236570942,False
的場,埼玉県,川越市,的場１丁目,35.913494,139.428375,157320.8617384468,5339639432,False
相模吉岡団地,神奈川県,綾瀬市,綾西１丁目,35.432771,139.4135,157787.2369426668,5339131333,False
長湫中部,愛知県,長久手市,坊の後,35.1809179,137.037857,157995.44666451315,5237601331,False
那覇第一地区,沖縄県,那覇市,松山１丁目,26.218788,127.677698,158585.6526656166,3927256413,False
ラ・ビスタ宝塚,兵庫県,宝塚市,すみれガ丘２丁目,34.8230473,135.343033,158912.45147716865,5235128734,False
東知立,愛知県,知立市,昭和９丁目,34.9931058,137.065294,159300.49643838665,5237309511,False
狭山ニュータウン,大阪府,大阪狭山市,西山台２丁目,34.486096,135.545325,159873.71090596635,5135548323,False
深谷中央,神奈川県,綾瀬市,深谷,35.4376294,139.428571,160461.89223272493,5339132432,False
第二阪和中央,大阪府,岸和田市,小松里町,34.4619922,135.397715,160496.31918009682,5135535124,False
村上,千葉県,八千代市,村上団地,35.729877,140.123483,160764.46071286875,5340407942,False
北都,北海道,白石区,北郷三条１３丁目,43.051031,141.437581,160833.37819298636,6441436511,False
早川城山住宅地,神奈川県,綾瀬市,早川城山４丁目,35.4401644,139.421686,160892.23829516507,5339132343,False
香椎ｱﾘｰﾅ跡地開発事業,福岡県,東区,香椎浜３丁目,33.657058,130.42854,161092.91914485054,5030338434,False
岩倉,愛知県,岩倉市,東新町,35.2795949,136.884098,161107.22484907124,5236773041,False
鶴甲山,兵庫県,灘区,鶴甲４丁目,34.734771,135.235409,161154.94865337497,5235018822,False
萩原台,兵庫県,川西市,萩原台西１丁目,34.8450947,135.410728,161168.91514064072,5235231224,False
エステシティ,埼玉県,所沢市,中富南３丁目,35.8136218,139.495819,161221.91793334731,5339537941,False
西大袋,埼玉県,越谷市,大字大道,35.9224901,139.762042,161713.40411840682,5339760042,False
梅森西部,愛知県,日進市,梅森台５丁目,35.1349447,137.011818,161736.46503817278,5237506022,False
森崎,神奈川県,横須賀市,森崎４丁目,35.246714,139.673277,162078.47332210402,5239659342,False
札幌東部ニュータウン,北海道,厚別区,大谷地西６丁目,43.019208,141.454547,162089.84570918634,6441432614,False
湘南鷹取台,神奈川県,横須賀市,湘南鷹取５丁目,35.311833,139.614212,162606.91312393808,5239747913,False
大谷北部第四,埼玉県,上尾市,大字壱丁目,35.9574792,139.570685,162989.9222777033,5339744543,False
清水山,愛知県,緑区,桶狭間森前,35.049111,136.96318,163019.99669519116,5236475733,False
豊明西部,愛知県,豊明市,新栄町六丁目,35.0543076,136.987273,163154.34614441896,5236476842,False
岩戸,福岡県,那珂川町,片縄３丁目,33.516352,130.423787,163390.6658474768,5030231344,False
武蔵野操車場跡地,埼玉県,吉川市,美南,35.870517,139.854069,163463.5234936386,5339664814,False
水広下,愛知県,緑区,水広３丁目,35.0783171,136.996578,163466.208006891,5236479923,False
天王台,千葉県,我孫子市,天王台６丁目,35.868578,140.042481,163735.89058222965,5340604312,False
印場,愛知県,尾張旭市,印場元町５丁目,35.209947,137.017987,163802.9559453158,5237605112,False
春日御供田,福岡県,春日市,春日公園３丁目,33.525869,130.474877,164078.73099566798,5030233722,False
小禄金城,沖縄県,那覇市,金城５丁目,26.1993493,127.665655,164093.4124194245,3927253334,False
三郷インタ-Ａ,埼玉県,三郷市,ピアラシティ１丁目,35.8436577,139.859195,164502.3371827692,5339661821,False
神ノ倉,愛知県,緑区,神の倉３丁目,35.101969,137.012815,164744.75917346415,5237502111,False
北部第二（一地区）,神奈川県,藤沢市,石川５丁目,35.3861987,139.449784,164765.75683287767,5339036524,False
弥勒寺,愛知県,北名古屋市,弥勒寺西一丁目,35.2513866,136.868347,164886.8230686971,5236760912,False
柏原,福岡県,南区,檜原３丁目,33.534858,130.399325,165148.25669457746,5030234122,False
大津ヶ丘,千葉県,柏市,大津ケ丘２丁目,35.840612,139.999766,165265.154026298,5339670944,False
前高,愛知県,春日井市,西高山町１丁目,35.255572,136.947134,165372.18745102084,5236770542,False
みそのウィングシティ,埼玉県,緑区,大字下野田,35.895412,139.728713,165609.8387663964,5339657814,False
かわつるグリーンタウン,埼玉県,鶴ヶ島市,松ケ丘４丁目,35.9244335,139.412796,165808.27576230062,5339730333,False
日進香久山,愛知県,日進市,香久山２丁目,35.1416418,137.027029,165827.7264032363,5237506233,False
服部,愛知県,中川区,服部４丁目,35.1501584,136.813431,165846.3913797546,5236568511,False
第二阪和南部,大阪府,岸和田市,土生町,34.4507059,135.382487,166092.8398476278,5135534021,False
南光台団地,宮城県,泉区,南光台７丁目,38.29797,140.901418,166582.18705857894,5740375233,False
神ノ倉東部,愛知県,緑区,神の倉１丁目,35.105954,137.009679,166630.46263214468,5237502042,False
青葉町,北海道,厚別区,青葉町３丁目,43.031271,141.476762,166771.3588867371,6441433833,False
ポエムノールひらかた北山,大阪府,枚方市,北山,34.8407427,135.700525,166831.0666410682,5235250633,False
米里南,北海道,白石区,菊水元町七条３丁目,43.07022,141.411574,166908.1666973572,6441438224,False
第一住宅団地,埼玉県,坂戸市,清水町,35.963367,139.4053,166944.07733002226,5339735232,False
都,千葉県,中央区,都町２丁目,35.6121126,140.139123,167073.75273187557,5340313113,False
安岡寺町,大阪府,高槻市,安岡寺町４丁目,34.877834,135.604763,167215.43587071483,5235245814,False
むさし緑園都市,埼玉県,坂戸市,末広町,35.9730155,139.394255,167283.61792669908,5339736143,False
赤松,愛知県,緑区,赤松,35.1018927,137.017676,167369.4678427107,5237502112,False
伏屋,愛知県,中川区,伏屋４丁目,35.141371,136.826153,167538.68652527087,5236566633,False
池上,兵庫県,西区,大津和３丁目,34.670382,135.025363,167834.3837627317,5235000213,False
外前野特定,埼玉県,松伏町,ゆめみ野５丁目,35.9238116,139.824622,168328.11185745077,5339760544,False
徳重北部,愛知県,緑区,鳴海町字姥子山,35.0961412,137.002482,168475.18359406805,5237501031,False
戸田,愛知県,中川区,戸田明正２丁目,35.144645,136.805936,168480.19468670269,5236567414,False
西鎌倉,神奈川県,鎌倉市,西鎌倉１丁目,35.3223929,139.501817,169346.63591875715,5239748031,False
鳥飼中部,大阪府,摂津市,鳥飼本町１丁目,34.781558,135.586309,169359.9189356252,5235143644,False
羽曳野ネオポリス,大阪府,羽曳野市,羽曳が丘６丁目,34.5414121,135.590731,169470.37720072377,5135644734,False
柴原,鹿児島県,鹿児島市,紫原４丁目,31.5602407,130.53085,171256.33170069047,4730247212,False
江川,埼玉県,岩槻区,大字南辻,35.9640226,139.696984,171357.0716149696,5339755542,False
片江,福岡県,城南区,南片江６丁目,33.542825,130.371838,171992.61759109536,5030225921,False
野村住宅,神奈川県,金沢区,釜利谷西二丁目,35.34324,139.59795,173052.3577204007,5339041722,False
洛西ニュータウン,京都府,西京区,境谷大原野東境谷町二丁目,34.963261,135.67547,173166.19667933526,5235355431,False
春日井如稲,愛知県,春日井市,如意申町３丁目,35.247196,136.947455,173178.0986501838,5236679542,False
徳重中部,愛知県,緑区,亀が洞３丁目,35.094218,137.010475,173203.76599999424,5237501024,False
壺川,沖縄県,那覇市,泉崎２丁目,26.2083392,127.680717,173318.85199100405,3927255412,False
西宮マリナパークシティ,兵庫県,西宮市,西宮浜４丁目,34.713308,135.329608,173664.66637574672,5235025632,False
四街道美しが丘,千葉県,四街道市,美しが丘３丁目,35.656041,140.161943,173814.3226418409,5340318242,False
鳴海姥子山,愛知県,緑区,鎌倉台２丁目,35.071777,136.985133,173901.42538655255,5236478842,False
菊水元町,北海道,白石区,菊水元町二条４丁目,43.06663,141.40136,173986.93271500035,6441437233,False
須磨ニュータウン,兵庫県,須磨区,竜が台２丁目,34.676235,135.091063,174415.78512992954,5235001712,False
川越狭山（住宅）,埼玉県,川越市,南台３丁目,35.88912,139.4533,174667.784563812,5339636632,False
中登美第三,奈良県,奈良市,西登美ヶ丘２丁目,34.7174637,135.746875,174890.8191496736,5235056921,False
馬込・下蓮田,埼玉県,蓮田市,蓮田２丁目,35.974655,139.655435,175121.49345966367,5339756234,False
須磨ニュータウン,兵庫県,須磨区,白川台２丁目,34.6915682,135.099549,175473.93540392365,5235002744,False
吉川きよみ野,埼玉県,吉川市,きよみ野１丁目,35.896814,139.853883,175481.00108282256,5339667832,False
コモンシティ星田,大阪府,寝屋川市,打上元町,34.7535235,135.661617,176727.52431008447,5235150224,False
鶴山台,大阪府,和泉市,鶴山台２丁目,34.501924,135.450633,177110.2582440281,5135630611,False
東急八王子片倉台,東京都,八王子市,片倉町,35.630808,139.345329,177206.10972650678,5339325741,False
富沢長町,宮城県,太白区,泉崎１丁目,38.220481,140.869575,177658.84465541193,5740266923,False
黒松団地,宮城県,泉区,黒松３丁目,38.306633,140.885485,177660.4309129822,5740376044,False
北柏駅南口,千葉県,柏市,北柏３丁目,35.872731,139.988286,177774.42968847012,5339674931,False
港南台,神奈川県,金沢区,東朝比奈三丁目,35.326155,139.600482,177795.35888823261,5239749811,False
-(金沢区六浦町、朝比奈町),神奈川県,金沢区,東朝比奈三丁目,35.326155,139.600482,177795.35888823261,5239749811,False
安徳,福岡県,那珂川町,中原３丁目,33.51603,130.432005,178112.53701122603,5030231443,False
青葉の森の街,千葉県,中央区,千葉寺町,35.592592,140.135985,178249.34637072624,5340311022,False
丸山・大平山,神奈川県,鎌倉市,寺分１丁目,35.3342832,139.524683,178766.82402725195,5339040122,False
多聞,兵庫県,垂水区,多聞台４丁目,34.6611282,135.042496,178833.92616353926,5135709314,False
下之一色大蟷螂,愛知県,中川区,一色新町１丁目,35.129877,136.830958,179390.86520154684,5236565632,False
徳重西部,愛知県,緑区,乗鞍２丁目,35.0933448,136.994225,180042.36716237856,5236571921,False
国分寺台,神奈川県,海老名市,国分寺台２丁目,35.4390047,139.405016,180552.86095147164,5339132232,False
城間・伊祖,沖縄県,浦添市,城間４丁目,26.2565999,127.715104,180581.31561570504,3927350733,False
須磨ニュータウン,兵庫県,須磨区,北落合２丁目,34.6872279,135.091417,181131.34705198105,5235002714,False
味美新開,愛知県,春日井市,知多町２丁目,35.2301557,136.943958,181262.76138734986,5236677541,False
南陽台,東京都,八王子市,南陽台３丁目,35.634192,139.376373,181338.27403767273,5339336011,False
所沢ニュータウン,埼玉県,所沢市,中新井５丁目,35.817684,139.477819,181481.827348403,5339538811,False
西武打越,東京都,八王子市,北野台２丁目,35.6280677,139.353427,181657.55382655055,5339325814,False
湘南ライフタウン,神奈川県,藤沢市,遠藤,35.3678829,139.435863,181712.19924563306,5339034422,False
小泉,埼玉県,上尾市,大字小泉,35.9732194,139.565548,181759.33890999865,5339746533,False
日吉台,大阪府,高槻市,日吉台二番町,34.871708,135.614505,181966.2904067075,5235244931,False
羽村小作台,東京都,羽村市,小作台１丁目,35.776396,139.300117,182442.2027345078,5339523411,False
つくし野,千葉県,我孫子市,つくし野２丁目,35.879719,140.011791,182465.74484017014,5340605042,False
中部,大阪府,東大阪市,川田４丁目,34.687816,135.629697,182914.65404107427,5235052032,False
菅田,愛知県,天白区,保呂町,35.116688,136.965832,183033.9862945318,5236574712,False
上賀茂,京都府,北区,上賀茂上賀茂土門町,35.0559232,135.759949,183304.36101298276,5235466042,False
イトーピア手稲,北海道,中央区,北一条西２丁目,43.062084,141.354372,183424.74371995102,,False
上野幌ニュータウン,北海道,中央区,北一条西２丁目,43.062084,141.354372,183424.74371995102,,False
桜台ベニータウン,北海道,中央区,北一条西２丁目,43.062084,141.354372,183424.74371995102,,False
森林公園パークタウン,北海道,中央区,北一条西２丁目,43.062084,141.354372,183424.74371995102,,False
片瀬山ニュータウン,神奈川県,藤沢市,片瀬山４丁目,35.3224186,139.493253,183675.96741358383,5239738932,False
むさし緑園都市,埼玉県,坂戸市,千代田２丁目,35.9566636,139.408156,183693.61175688577,5339734243,False
浜見平,神奈川県,茅ヶ崎市,浜見平,35.3228758,139.38715,183872.34178118018,5239738042,False
宇津木台,東京都,八王子市,久保山町２丁目,35.687244,139.358375,183974.13787818933,5339422823,False
西上尾第二,埼玉県,上尾市,大字小敷谷,35.9547434,139.562401,183989.8383926352,5339744442,False
深作東部,埼玉県,見沼区,深作３丁目,35.952355,139.664598,184414.3370665418,5339754313,False
大宮（住宅）,埼玉県,北区,吉野町１丁目,35.952233,139.613142,184708.81517599485,5339744913,False
三輪野山第２,千葉県,流山市,三輪野山２丁目,35.865543,139.908153,184763.5553932266,5339673243,False
金剛東ニュータウン,大阪府,富田林市,向陽台３丁目,34.5013922,135.580018,185089.05922610863,5135640612,False
平手北部,愛知県,緑区,細口２丁目,35.086168,136.988737,185486.45253520095,5236570913,False
石川東部,神奈川県,藤沢市,天神町２丁目,35.3779353,139.461603,185871.1910300728,5339035624,False
長湫西部,愛知県,長久手市,打越,35.1756847,137.032158,185925.86312639844,5237601221,False
椚田,東京都,八王子市,椚田町,35.6350931,139.31265,185942.17069480356,5339326511,False
村上南,千葉県,八千代市,村上南１丁目,35.722955,140.11773,186215.10616722933,5340406934,False
竹田,京都府,伏見区,竹田竹田段川原町,34.9595826,135.756818,186882.65635260582,5235365021,False
香椎浜,福岡県,東区,香椎浜３丁目,33.6548841,130.429832,186889.68450430938,5030338432,False
ジェームス山,兵庫県,垂水区,青山台４丁目,34.641965,135.074004,186914.29222380614,5135707522,False
岩崎西部,愛知県,日進市,岩崎台４丁目,35.1509556,137.025493,186930.04943089577,5237508211,False
越谷レイクタウン,埼玉県,越谷市,レイクタウン８丁目,35.876254,139.822655,187129.30509550558,5339665522,False
新鎌ケ谷,千葉県,鎌ケ谷市,新鎌ケ谷２丁目,35.780134,140.001719,187204.4345607113,5340503031,False
西神ニュータウン,兵庫県,西区,井吹台西町２丁目,34.699307,135.029086,187712.65627804011,5235003234,False
小野原西,大阪府,箕面市,小野原西４丁目,34.8300301,135.512171,187837.55411978214,5235149042,False
江戸川台団地,千葉県,流山市,江戸川台西２丁目,35.897377,139.909773,188179.26267270968,5339677242,False
鴨川,埼玉県,上尾市,井戸木１丁目,35.9897544,139.560949,188401.96367613622,5339748444,False
厚別駅前,北海道,厚別区,厚別中央三条４丁目,43.041653,141.466076,189253.16738933657,6441434734,False
西武北野台,東京都,八王子市,北野台４丁目,35.629396,139.353526,190138.90508013288,5339325832,False
宮の森山の手南,北海道,西区,山の手一条１０丁目,43.064561,141.296003,190470.69582035358,6441427341,False
吉川第一,埼玉県,吉川市,木売３丁目,35.875802,139.843898,190804.236087906,5339665721,False
東寺山,千葉県,若葉区,みつわ台２丁目,35.6382523,140.134182,190824.77409281218,5340316041,False
須磨ニュータウン,兵庫県,須磨区,横尾８丁目,34.6721177,135.108812,190846.4877449201,5235000841,False
吉川駅みなみ,埼玉県,吉川市,美南,35.8685111,139.852077,191127.46500995397,5339664811,False
泉北ニュータウン,大阪府,南区,原山台１丁,34.4865535,135.49108,191175.66842001938,5135538914,False
緑ケ丘,愛知県,緑区,鳥澄３丁目,35.0768783,136.972615,191963.52140130443,5236479722,False
吉川中央,埼玉県,吉川市,大字吉川,35.8911557,139.855512,192169.8846558884,5339666834,False
真嘉比古島第一地区,沖縄県,那覇市,古島２丁目,26.2279269,127.706391,192232.62413613987,3927257623,False
木,千葉県,流山市,大字木,35.833147,139.895788,192618.71725962008,5339579143,False
箱崎南部,福岡県,東区,社領２丁目,33.612546,130.433464,192982.15511569197,5030333441,False
八千代ゆりのき台,千葉県,八千代市,ゆりのき台５丁目,35.732649,140.104051,193073.87303091065,5340407834,False
六甲アイランド,兵庫県,東灘区,向洋町中６丁目,34.6891835,135.268084,193118.96917951206,5235022132,False
ひなた山,神奈川県,瀬谷区,南瀬谷二丁目,35.4436746,139.485207,193596.59654604548,5339133822,False
油山,福岡県,城南区,堤２丁目,33.541886,130.379487,193695.10082533152,5030235012,False
東苗穂,北海道,東区,伏古六条３丁目,43.088205,141.393614,193838.5959595515,6441530132,False
金沢シーサイドタウン,神奈川県,金沢区,並木二丁目,35.363016,139.640136,194123.0928321041,5339053131,False
狭山ニュータウン,大阪府,大阪狭山市,西山台４丁目,34.486325,135.539225,194569.48702372407,5135548313,False
多摩ニュータウン,東京都,多摩市,南野２丁目,35.608516,139.433928,194593.7073156593,5339333421,False
東浅川,東京都,八王子市,東浅川町,35.645632,139.293466,194954.28031884966,5339327314,False
勝田台団地,千葉県,八千代市,勝田台３丁目,35.709309,140.129483,195086.5288079877,5340415012,False
那覇新都心,沖縄県,那覇市,銘苅２丁目,26.231694,127.693838,195261.2873150119,3927257543,False
湘南桂台,神奈川県,栄区,桂台南一丁目,35.3536059,139.56768,195377.3557997401,5339042514,False
吉井池田,神奈川県,横須賀市,吉井３丁目,35.2498444,139.699279,195478.73003592363,5239659544,False
新多聞,兵庫県,垂水区,学が丘２丁目,34.656545,135.05059,195681.49394236525,5135708433,False
大谷北部第二,埼玉県,上尾市,大字今泉,35.9649105,139.572992,195876.90257687107,5339745544,False
元町中央,北海道,東区,北二十五条東２０丁目,43.095899,141.384221,195932.89450678477,6441531041,False
平手南部,愛知県,緑区,八つ松１丁目,35.079144,136.987192,196678.80685224378,5236479824,False
滝ノ水,愛知県,緑区,滝ノ水４丁目,35.0843768,136.97349,198492.23680257436,5236570722,False
船橋美し学園 芽吹の杜,千葉県,船橋市,坪井東２丁目,35.732736,140.06017,198693.62248916953,5340407444,False
地行・百道地区,福岡県,早良区,百道浜１丁目,33.590742,130.354199,199335.9629382231,5030320834,False
紙敷,千葉県,松戸市,東松戸１丁目,35.771329,139.944529,199777.08467434344,5339572541,False
朝日,埼玉県,桶川市,朝日２丁目,35.990947,139.570088,200580.24336890233,5339748543,False
狭山台,埼玉県,狭山市,狭山台３丁目,35.8551355,139.433839,200854.003983192,5339632441,False
アートアベニュー箕面おのはら,大阪府,箕面市,小野原東６丁目,34.830009,135.524683,201125.63951273522,5235149142,False
金剛,大阪府,富田林市,高辺台３丁目,34.4963388,135.56727,201161.25443286815,5135549532,False
村岡東部,神奈川県,藤沢市,村岡東２丁目,35.342619,139.508091,201865.61363637832,5339041021,False
大門第二特定,埼玉県,緑区,大字大門,35.877558,139.735837,202062.12532261794,5339655824,False
大谷北部第三,埼玉県,上尾市,向山３丁目,35.9620775,139.580738,202125.76790382373,5339745614,False
西平山,東京都,日野市,西平山３丁目,35.649006,139.371786,202328.61602910692,5339327943,False
中島新町西部,愛知県,中川区,中島新町３丁目,35.126771,136.85248,202426.24546500223,5236565811,False
室住,福岡県,早良区,有田７丁目,33.5623646,130.328207,202498.5115249662,5030227614,False
千草台,千葉県,稲毛区,千草台２丁目,35.636965,140.120831,202669.11738807888,5340306923,False
新検見川北,千葉県,花見川区,瑞穂２丁目,35.663729,140.070105,202916.59490877512,5340309541,False
明舞団地,兵庫県,垂水区,南多聞台２丁目,34.6544062,135.032955,203100.70982862866,5135708241,False
さつきが丘,千葉県,花見川区,さつきが丘１丁目,35.665787,140.095661,203442.48270813946,5340309743,False
流山おおたかの森,千葉県,流山市,東初石６丁目,35.871981,139.925475,204311.1356550751,5339674431,False
旭,愛知県,緑区,上旭１丁目,35.09205,136.972493,204656.3308894308,5236571722,False
北部第二（二地区）,神奈川県,藤沢市,石川３丁目,35.3768724,139.45178,204664.0187728527,5339035611,False
北柏,千葉県,柏市,松葉町４丁目,35.889159,139.970477,204917.60063997674,5339676741,False
深作西部,埼玉県,見沼区,春岡２丁目,35.948915,139.659641,204918.1264250379,5339753244,False
志津,千葉県,佐倉市,西志津４丁目,35.7111816,140.137908,205155.90840356707,5340415113,False
山科南部,京都府,山科区,小野大宅烏田町,34.9682741,135.815619,205332.5660495754,5235366511,False
明舞団地,兵庫県,垂水区,神陵台２丁目,34.6607396,135.033997,205354.66921293794,5135709223,False
八王子みなみ野シティ,東京都,八王子市,みなみ野３丁目,35.630019,139.323989,205821.1432937566,5339325542,False
浦安Ⅱ期,千葉県,浦安市,高洲４丁目,35.635291,139.914659,205883.00921110125,5339376311,False
小山田桜台,東京都,町田市,小山田桜台２丁目,35.590999,139.40173,206047.72902020343,5339330233,False
西平井・鰭ヶ崎,千葉県,流山市,大字西平井,35.847585,139.907799,206429.32149626222,5339671241,False
吉川,埼玉県,吉川市,吉川団地,35.8911402,139.847193,207565.07280533604,5339666744,False
南山東部,東京都,稲城市,百村,35.63097,139.505854,207663.77358665067,,False
青梅東部霞台,東京都,青梅市,野上町４丁目,35.788794,139.287533,207715.044669151,5339524331,False
清瀬台田,東京都,清瀬市,中里６丁目,35.791187,139.527977,208145.9230091868,5339544233,False
京葉港,千葉県,習志野市,香澄６丁目,35.6681068,140.019345,208422.42703404577,5340400121,False
めじろ台,東京都,八王子市,めじろ台２丁目,35.643696,139.307134,208917.56418032185,5339327421,False
善行,神奈川県,藤沢市,善行団地,35.3672632,139.464633,209095.2610553769,5339034711,False
荒牧,兵庫県,伊丹市,荒牧４丁目,34.811724,135.383724,209125.6068623578,5235137023,False
新本牧,神奈川県,中区,本牧和田,35.422442,139.660054,209135.45325685982,5339150242,False
高倉,東京都,八王子市,高倉町,35.665595,139.365381,209243.11377408772,5339329933,False
加,千葉県,流山市,加４丁目,35.860483,139.905095,209647.9196867005,5339673214,False
岡本（大船）,神奈川県,鎌倉市,玉縄２丁目,35.3558366,139.521406,209973.09714581788,,False
三輪,東京都,町田市,三輪緑山１丁目,35.57247,139.489417,210168.3050144178,5339238931,False
北所沢,埼玉県,入間市,久保稲荷１丁目,35.827417,139.394525,210468.29727825866,5339539123,False
扇,埼玉県,入間市,久保稲荷１丁目,35.8274,139.395003,210468.29727825866,5339539123,False
鳴海黒石,愛知県,緑区,神沢２丁目,35.095122,136.986251,210644.93473582962,5236571824,False
鉄東,北海道,東区,本町一条２丁目,43.079934,141.381351,210821.79412628768,6441439041,False
東舞子,兵庫県,垂水区,舞子台４丁目,34.639175,135.037097,210997.61530797012,5135706242,False
八潮南部東,埼玉県,八潮市,大字木曽根,35.8135483,139.852493,212062.16725372928,5339567831,False
旭ヶ丘団地,宮城県,青葉区,国分町３丁目,38.268081,140.869471,212480.67176542914,5740362921,False
常盤台,宮城県,青葉区,国分町３丁目,38.268081,140.869471,212480.67176542914,5740362921,False
緑ヶ丘,宮城県,青葉区,国分町３丁目,38.268081,140.869471,212480.67176542914,5740362921,False
西上尾第一,埼玉県,上尾市,大字今泉,35.9646869,139.563807,212552.83197148217,5339745533,False
多摩ニュータウン,東京都,多摩市,落合６丁目,35.6085562,139.426785,212554.66246918944,5339333411,False
石神西立野,埼玉県,川口市,大字西立野,35.8583279,139.745168,212834.02573567012,5339652943,False
平針,愛知県,天白区,平針２丁目,35.1240617,137.004014,213384.55518809916,5237504034,False
五月ヶ丘,大阪府,池田市,五月丘２丁目,34.82809,135.435675,213501.15009531568,5235139424,False
秋山,千葉県,松戸市,高塚新田,35.766032,139.933682,213546.0214575387,5339571443,False
白石本通北,北海道,白石区,平和通８丁目北,43.047989,141.419213,213730.5825466736,6441435343,False
松ヶ丘,埼玉県,所沢市,松が丘１丁目,35.7740978,139.460824,213854.83489750614,5339532644,False
東越谷,埼玉県,越谷市,東越谷８丁目,35.895618,139.804091,214138.8175595133,5339667414,False
六会東部,神奈川県,藤沢市,亀井野１丁目,35.3842882,139.47028,214512.60338254904,5339036721,False
柄沢,神奈川県,藤沢市,柄沢,35.352511,139.500667,214994.03925453572,5339042013,False
元町北,北海道,東区,北三十条東１８丁目,43.100231,141.37531,216079.99098915787,6441532011,False
武蔵藤沢駅周辺,埼玉県,入間市,大字下藤沢,35.8196857,139.408561,216344.98410283748,5339538223,False
元町南,北海道,東区,北十九条東２１丁目,43.086097,141.384065,216686.1431124116,6441530023,False
鳴子,愛知県,緑区,鳴子町４丁目,35.0968533,136.967401,216975.86270571253,5236571732,False
大和田特定,埼玉県,見沼区,大和田町１丁目,35.92593,139.651219,217535.72241499554,5339751211,False
安倉,兵庫県,宝塚市,安倉南１丁目,34.798158,135.377845,217695.7547819945,5235135033,False
平針中央,愛知県,天白区,中平２丁目,35.1176827,136.998933,218018.76907276842,5236574922,False
芝原,埼玉県,緑区,芝原２丁目,35.881631,139.691688,218276.91811789546,5339655534,False
下山門,福岡県,中央区,天神１丁目,33.590143,130.401682,218365.0941146546,5030330233,False
男山団地,京都府,八幡市,男山（四）石城,34.8624068,135.696484,218577.10664082933,5235253523,False
島田東部,愛知県,天白区,高島１丁目,35.1080252,136.998638,218712.68943770762,5236572944,False
東一社,愛知県,名東区,貴船２丁目,35.1665164,137.011089,218777.2390953425,5237509044,False
日の丸,北海道,東区,北四十三条東１２丁目,43.11386,141.362243,218853.2711861015,6441523842,False
花田,埼玉県,越谷市,花田４丁目,35.9054956,139.801645,219315.29761185154,5339668431,False
天神山,兵庫県,東灘区,御影山手４丁目,34.727417,135.244853,219972.42556447888,5235017923,False
植田中央,愛知県,天白区,植田本町１丁目,35.135721,136.992942,220259.9784135903,5236576914,False
多摩ニュータウン,東京都,稲城市,百村,35.6345225,139.495395,220824.07366718864,5339336921,False
しいの木台,千葉県,柏市,しいの木台２丁目,35.804549,139.982268,221285.47363988802,5339576841,False
忠生,東京都,町田市,忠生４丁目,35.577117,139.412277,221356.25780146223,5339239224,False
明舞団地,兵庫県,明石市,松が丘２丁目,34.653968,135.027916,221408.55794185805,5135708213,False
多摩ニュータウン,東京都,多摩市,永山６丁目,35.614832,139.444264,221476.33503289317,5339333543,False
浜甲子園,兵庫県,西宮市,枝川町,34.7111398,135.360669,222826.15546406113,5235025824,False
手稲東,北海道,西区,西町南１２丁目,43.082446,141.283493,223359.93342768122,6441429243,False
小野原,大阪府,箕面市,小野原東５丁目,34.82978,135.52067,223434.21501271997,5235149141,False
長尾（長住）,福岡県,南区,長住４丁目,33.546331,130.395012,223667.8711730705,5030235141,False
栗木第一,神奈川県,麻生区,栗木台５丁目,35.610503,139.475463,223883.61793579994,5339333813,False
緑黒石,愛知県,緑区,桃山２丁目,35.1023424,136.992639,224247.5804280007,5236572914,False
椿峰ニュータウン,埼玉県,所沢市,小手指南５丁目,35.7813,139.432917,224371.07449017267,5339533443,False
つくばエクスプレスタウン,埼玉県,三郷市,中央３丁目,35.8268665,139.879151,224944.94783841236,5339579012,False
北野,東京都,八王子市,北野町,35.651037,139.353011,224961.6404221882,5339328811,False
湘南ライフタウン,神奈川県,藤沢市,大庭,35.3676114,139.445793,225864.6214073559,5339034521,False
多摩ニュータウン,東京都,稲城市,長峰２丁目,35.630647,139.481429,225984.07384920894,5339335841,False
いずみ野,神奈川県,泉区,和泉町,35.431232,139.494156,225993.7176805727,5339131941,False
鶴川台,東京都,町田市,真光寺２丁目,35.601023,139.469424,226652.95000953443,5339332721,False
名戸ケ谷前,千葉県,柏市,新柏３丁目,35.841334,139.972687,226904.23061864806,5339670744,False
高幡台,東京都,日野市,程久保１丁目,35.653408,139.414583,227545.51383406375,5339338313,False
多摩ニュータウン,東京都,稲城市,百村,35.637261,139.491091,227622.73497657926,5339336914,False
清瀬旭が丘,埼玉県,新座市,あたご３丁目,35.795443,139.540851,227792.59125059977,5339545314,False
百草,東京都,日野市,三沢,35.650658,139.419562,228676.14872717255,5339338321,False
みさと,埼玉県,三郷市,彦成３丁目,35.8567917,139.85806,229801.08571133993,5339662843,False
善行,神奈川県,藤沢市,善行２丁目,35.3651401,139.470735,230064.27476867498,5339033743,False
弥生台,神奈川県,泉区,弥生台,35.427674,139.506764,232490.11182986962,5339141023,False
箕面中部,大阪府,箕面市,牧落３丁目,34.825852,135.472584,232772.01632894936,5235139722,False
向ヶ丘,大阪府,西区,神野町３丁,34.537866,135.477691,232782.7282931398,5135634831,False
向島,京都府,伏見区,向島二ノ丸向島二ノ丸町,34.918249,135.774427,233465.95001170627,5235360122,False
豊田南,東京都,日野市,豊田１丁目,35.657693,139.384677,234305.74618686645,5339338044,False
浦安Ⅰ期,千葉県,浦安市,弁天２丁目,35.641638,139.899817,235069.61435978126,5339376144,False
検見川稲毛,千葉県,花見川区,検見川町５丁目,35.646155,140.076499,236084.52451433893,5340307631,False
さつき平,埼玉県,三郷市,さつき平１丁目,35.851005,139.867415,236298.34703528052,5339662912,False
西菅田,神奈川県,緑区,鴨居町,35.4977738,139.574191,236784.5080355781,5339149542,False
洛西第二,京都府,西京区,桂川桂上野南町,34.9947213,135.700403,237412.88978962594,5235359613,False
砂第二工区,埼玉県,見沼区,島町,35.944659,139.651294,238669.43982965618,5339753213,False
戸塚（第３工区）,埼玉県,川口市,北原台３丁目,35.8707667,139.732442,238927.0155930848,5339654823,False
つくばエクスプレスタウン,埼玉県,八潮市,大瀬,35.8068704,139.845711,239005.8888628261,5339566743,False
八潮第一,埼玉県,八潮市,大瀬,35.806381,139.84482,239005.8888628261,5339566743,False
多摩ニュータウン,東京都,町田市,小山ヶ丘４丁目,35.602759,139.365306,239025.20683874263,5339322913,False
鷺高,埼玉県,越谷市,東大澤２丁目,35.9116352,139.791776,239706.7983690188,5339669314,False
洛西第一,京都府,西京区,川岡東下津林東大般若町,34.9764049,135.71469,239708.55144815147,5235357711,False
高津,千葉県,八千代市,高津団地,35.719497,140.078055,240317.70314168735,5340406613,False
早稲田,埼玉県,三郷市,早稲田３丁目,35.8533541,139.884815,240430.3670438818,5339672024,False
鶴が台,神奈川県,茅ヶ崎市,鶴が台,35.3483988,139.407053,240683.80551756272,5339031243,False
望月寒,北海道,白石区,中央一条５丁目,43.053524,141.398849,241131.41223487683,6441436124,False
野村港南台,神奈川県,港南区,日野南六丁目,35.3761527,139.563321,241310.26757539628,5339045511,False
黒川はるひ野,神奈川県,麻生区,はるひ野５丁目,35.6188804,139.463546,241455.0679778224,5339334713,False
京急ニュータウン金沢能見台,神奈川県,金沢区,能見台三丁目,35.3568787,139.616393,241908.451137733,5339042934,False
白石駅前,北海道,白石区,平和通３丁目北,43.053069,141.410458,242372.2599541092,6441436224,False
富士見町,東京都,立川市,富士見町３丁目,35.696009,139.396554,242629.52684213803,5339433141,False
野村本郷台,神奈川県,栄区,本郷台三丁目,35.3742159,139.546622,243399.2495186771,5339044343,False
深井,大阪府,中区,深井水池町,34.532157,135.499942,243545.8768105274,5135633944,False
芦屋浜ｼｰｻｲﾄﾞﾀｳﾝ,兵庫県,芦屋市,高浜町,34.721209,135.317121,243555.74795135547,5235026532,False
野村,広島県,中区,国泰寺町２丁目,34.385253,132.455361,243594.04672437807,5132436612,False
花見川,千葉県,花見川区,花見川,35.689169,140.095371,243916.10172077428,5340402741,False
南部第二,神奈川県,大和市,福田８丁目,35.4503209,139.462469,244284.15480012732,5339134622,False
八千代緑が丘,千葉県,八千代市,緑が丘３丁目,35.728912,140.07533,244924.57155494302,5340407613,False
千葉幸町,千葉県,美浜区,幸町２丁目,35.621146,140.092056,245147.0929296757,5340304732,False
多摩田園都市,東京都,町田市,鶴間３丁目,35.509553,139.470068,245484.1227153107,5339231721,False
多摩ニュータウン,東京都,多摩市,愛宕３丁目,35.632326,139.436882,245855.68963796087,5339335444,False
香里,大阪府,枚方市,香里ケ丘４丁目,34.7886566,135.651374,246771.03813443577,5235154231,False
多摩ニュータウン,東京都,多摩市,落合４丁目,35.616384,139.4286,246924.15227136863,5339333434,False
姪浜地区,福岡県,西区,姪の浜３丁目,33.587668,130.326341,247035.13495896856,5030320631,False
多摩ニュータウン,東京都,八王子市,松木,35.625262,139.395636,247198.70278816618,5339335121,False
稲荷町,埼玉県,草加市,稲荷４丁目,35.8338588,139.824294,247817.31960184206,5339660522,False
北光,北海道,東区,北二十四条東８丁目,43.091801,141.361942,248007.76325847468,6441521822,False
大井・苗間第一,埼玉県,ふじみ野市,大井２丁目,35.8532211,139.521717,248194.02809730638,5339642123,False
東所沢,埼玉県,所沢市,東所沢２丁目,35.7993759,139.513769,248585.5117188541,5339545133,False
植田南部,愛知県,天白区,植田３丁目,35.12742,136.989806,248652.27866864495,5236575913,False
多摩田園都市,東京都,町田市,つくし野２丁目,35.525582,139.483028,249373.5471309156,5339233821,False
多摩平,東京都,日野市,多摩平４丁目,35.666693,139.379468,249945.349764574,5339430012,False
昭島つつじが丘ハイツ,東京都,昭島市,つつじが丘２丁目,35.714645,139.369265,250545.12359499442,5339425943,False
宮の森山の手北,北海道,西区,山の手一条４丁目,43.068167,141.302161,250581.40145891102,6441428411,False
山手台ウエスト地区,神奈川県,泉区,桂坂,35.422927,139.51409,251628.59240535696,5339140133,False
甲南,兵庫県,芦屋市,岩園町,34.743349,135.314782,251934.78682199912,5235029511,False
百舌鳥陵南,大阪府,北区,百舌鳥陵南町３丁,34.544229,135.493398,252280.95632750617,5135635914,False
多摩田園都市,神奈川県,青葉区,あかね台一丁目,35.541725,139.488037,252404.024303229,5339235911,False
第一（藤沢）,神奈川県,藤沢市,弥勒寺４丁目,35.3447916,139.496883,252911.15246168367,5339031924,False
新郷,埼玉県,川口市,江戸３丁目,35.8206314,139.754072,253462.80548186536,5339568014,False
多摩ニュータウン,東京都,八王子市,南大沢５丁目,35.613383,139.365943,253866.05741434736,5339323932,False
白石本郷,北海道,白石区,本郷通９丁目北,43.040916,141.416187,254193.04704609883,6441434334,False
鴨志田,神奈川県,青葉区,鴨志田町,35.562255,139.504695,254503.7906835989,5339247014,False
七左第一,埼玉県,越谷市,七左町２丁目,35.87407,139.781743,254771.17006296822,5339664243,False
八潮南部西,埼玉県,八潮市,茜町,35.8027635,139.840626,254781.67260199378,5339566714,False
平尾,東京都,稲城市,平尾１丁目,35.61227974696685,139.49268019394128,254952.45818758418,5339333914,False
南まきが原,神奈川県,旭区,柏町,35.4519154,139.5253,255095.1598845531,5339144211,False
多摩田園都市,神奈川県,青葉区,すみよし台,35.553073,139.493752,255103.21179568736,5339236923,False
霧が丘,神奈川県,緑区,霧が丘五丁目,35.512911,139.50285,255301.16274007823,5339241031,False
北八王子,東京都,八王子市,明神町１丁目,35.65673,139.348375,255466.64150409662,5339328744,False
東大東,北海道,豊平区,月寒東四条７丁目,43.03378,141.407347,255820.43357881584,6441434221,False
千間台,埼玉県,越谷市,千間台西３丁目,35.933504,139.76731,256153.43557692203,5339762112,False
金程向原,神奈川県,麻生区,金程３丁目,35.6128448,139.499804,256219.2241734633,5339333942,False
万願寺,東京都,日野市,万願寺４丁目,35.672507,139.415206,256446.04194694178,5339430331,False
千里ニュータウン,大阪府,吹田市,津雲台７丁目,34.806615,135.506058,256455.9611822173,,False
北小金,千葉県,松戸市,小金原６丁目,35.819275,139.945194,256838.40151698585,5339578523,False
八幡木,埼玉県,川口市,八幡木３丁目,35.813846,139.750385,256838.8479369845,5339567031,False
白石中央,北海道,白石区,南郷通４丁目北,43.045401,141.403334,257180.5100803935,6441435214,False
下長尾,福岡県,城南区,長尾４丁目,33.555701,130.382738,257411.1135087578,5030236041,False
あおば山の手台,神奈川県,青葉区,奈良一丁目,35.5550106,139.48463,257557.65576516555,5339236842,False
藤の台,東京都,町田市,本町田,35.569935,139.450042,258016.70828812808,5339238613,False
多摩ニュータウン,東京都,稲城市,若葉台２丁目,35.624721,139.473324,258177.34799583335,5339334744,False
猪高西山,愛知県,名東区,西山本通２丁目,35.156723,136.994877,258240.09658735647,5236578943,False
村山住宅,東京都,武蔵村山市,緑が丘,35.743804,139.408016,258392.67146239115,5339439223,False
村山,東京都,武蔵村山市,緑が丘,35.744004,139.408157,258392.67146239115,5339439223,False
武里,埼玉県,春日部市,大枝,35.9428541,139.769649,258516.62140824733,5339763121,False
鶴川,東京都,町田市,鶴川５丁目,35.59154,139.4687,258521.18139018342,5339330734,False
六実高柳,千葉県,松戸市,六高台３丁目,35.799333,139.988276,258583.62998454127,5339575933,False
豊四季台,千葉県,柏市,豊四季台１丁目,35.864648,139.957849,258625.44339834424,5339673643,False
新田西部,埼玉県,草加市,長栄３丁目,35.8572666,139.773595,259737.6268807088,5339662144,False
柿生第一,神奈川県,麻生区,五力田２丁目,35.599262,139.49346,260248.71143845964,5339331934,False
多摩田園都市,東京都,町田市,鶴間,35.5121772,139.46926555,260490.2252500144,5339231723,False
白鷺,大阪府,東区,白鷺町２丁,34.5467388,135.51834,260955.09763038703,5135645132,False
新座,埼玉県,新座市,新座３丁目,35.8212473,139.555847,261698.04763256843,5339548432,False
多摩田園都市,神奈川県,緑区,小山町,35.519382,139.526977,261804.03713199805,5339242213,False
多摩田園都市,神奈川県,青葉区,黒須田,35.567806,139.531045,262218.40546928515,5339248212,False
八ケ崎中央,千葉県,松戸市,八ケ崎５丁目,35.808495,139.932222,262700.6016389197,5339577421,False
高根台,千葉県,船橋市,高根台４丁目,35.731825,140.03655,262940.20666577324,5340407244,False
横須賀,千葉県,松戸市,横須賀１丁目,35.833589,139.914536,263024.46819811,5339670311,False
荻野,兵庫県,伊丹市,荻野５丁目,34.805875,135.391792,263188.6899866835,5235136132,False
針ヶ谷,埼玉県,富士見市,針ケ谷１丁目,35.831923,139.553554,263423.2061704358,5339549434,False
山手台サウス地区,神奈川県,泉区,領家二丁目,35.419814,139.522759,264162.566576344,5339140124,False
幕張台,千葉県,花見川区,幕張本郷５丁目,35.670894,140.044677,264464.0430645617,5340400341,False
戸塚鋏下境,埼玉県,川口市,戸塚鋏町,35.8654281,139.758169,264673.1254376765,5339663043,False
緑園都市,神奈川県,泉区,緑園四丁目,35.4416258,139.523345,265040.1401742008,5339142144,False
戸塚鳥ケ谷,神奈川県,戸塚区,鳥が丘,35.412592,139.524197,265451.4950971607,5339049142,False
安行出羽,埼玉県,川口市,安行出羽４丁目,35.8523845,139.765802,266889.2483464782,5339662114,False
南流山,千葉県,流山市,南流山３丁目,35.839751,139.900106,267095.72697332525,5339670233,False
若葉台,神奈川県,旭区,若葉台三丁目,35.5053587,139.498225,267361.7138004673,5339230942,False
今川,千葉県,浦安市,今川１丁目,35.642166,139.907662,267704.9306045341,5339377221,False
戸塚,埼玉県,川口市,戸塚２丁目,35.8746613,139.749521,268269.95656915783,5339654944,False
稲荷伊草第一,埼玉県,八潮市,八潮３丁目,35.814542,139.835744,268972.266505779,5339567642,False
八潮第二,埼玉県,八潮市,八潮３丁目,35.813898,139.836602,268972.266505779,5339567642,False
東京街道,東京都,東大和市,清原２丁目,35.742576,139.446062,269052.4236341335,5339439521,False
多摩田園都市,東京都,町田市,南つくし野１丁目,35.519495,139.477524,269488.9250194741,5339232813,False
八柱駅周辺,千葉県,松戸市,日暮５丁目,35.78882,139.939084,269826.1763513274,5339574531,False
湘南台,神奈川県,藤沢市,湘南台１丁目,35.3965688,139.468723,269896.26695941406,5339037732,False
常盤平南部,千葉県,松戸市,牧の原１丁目,35.790439,139.948783,270358.6513450061,5339574544,False
門真東,大阪府,門真市,東江端町,34.7234697,135.620776,270973.42847888626,5235046943,False
足立北部舎人町付近,東京都,足立区,入谷４丁目,35.807795,139.762391,272109.100606887,5339566044,False
北東,北海道,東区,北二十一条東１６丁目,43.089827,141.373272,272158.1090659757,6441520944,False
東浦和第一,埼玉県,緑区,東浦和４丁目,35.868465,139.701591,272174.2959989958,5339654611,False
相武台団地,神奈川県,中央区,中央２丁目,35.571424,139.37318,272585.9888077988,5339228942,False
上溝団地,神奈川県,中央区,中央２丁目,35.571424,139.37318,272585.9888077988,5339228942,False
二十四軒北,北海道,西区,二十四軒三条３丁目,43.074531,141.311581,273225.27727296227,6441428444,False
東戸塚名瀬下,神奈川県,戸塚区,名瀬町,35.430078,139.542969,273299.23785998777,5339141332,False
境川,東京都,町田市,木曽東３丁目,35.560649,139.42277,273409.8867007283,5339237324,False
光星,北海道,東区,北十四条東１０丁目,43.079985,141.368337,274214.1291030507,6441429932,False
成瀬,東京都,町田市,成瀬台３丁目,35.554208,139.478031,275089.26005080173,5339236831,False
多摩田園都市,神奈川県,青葉区,田奈町,35.539979,139.502335,275385.2574815798,5339244033,False
上本郷第二,千葉県,松戸市,上本郷,35.797492,139.923087,275389.27257539553,5339575342,False
多摩田園都市,神奈川県,麻生区,虹ケ丘２丁目,35.5800781,139.522949,275474.48190116556,5339249142,False
多摩田園都市,神奈川県,大和市,つきみ野４丁目,35.5098109,139.45716,275544.0005968748,5339231621,False
姪浜,福岡県,西区,姪浜駅南３丁目,33.5807442,130.32685,276799.61222247215,5030229631,False
二十世紀が丘,千葉県,松戸市,二十世紀が丘萩町,35.770446,139.906377,277127.4758004177,5339572223,False
平岸南,北海道,豊平区,平岸三条１２丁目,43.028737,141.369056,277362.08983492653,6441423923,False
東大和東部,東京都,東大和市,向原１丁目,35.7414632,139.441065,277539.85386931145,5339438534,False
新百合ヶ丘住宅,神奈川県,麻生区,白山１丁目,35.587597,139.513772,278221.2564033382,5339340131,False
金ヶ作第二次,千葉県,松戸市,常盤平柳町,35.795423,139.944794,278617.35759356135,5339575523,False
木曽山崎,東京都,町田市,山崎町,35.568757,139.434507,278986.8080126212,5339238424,False
大野,千葉県,市川市,南大野２丁目,35.744986,139.952466,279301.0497572346,5339479613,False
東久保,埼玉県,ふじみ野市,ふじみ野２丁目,35.8609957,139.515043,279377.7942788156,5339643113,False
長曽根,大阪府,北区,長曽根町,34.561708,135.50889,280093.9916849223,5135647023,False
第二上新井,埼玉県,所沢市,上新井４丁目,35.79794,139.444892,280150.6698940849,5339535543,False
左近山,神奈川県,旭区,左近山,35.4592938,139.55107,280150.7220758847,5339145411,False
多摩田園都市,神奈川県,青葉区,美しが丘西二丁目,35.589743,139.533362,280329.73114112776,5339340243,False
大和市北部第一団地,神奈川県,大和市,下鶴間１丁目,35.487544,139.458016,280592.7690664671,5339138641,False
草加松原,埼玉県,草加市,松原３丁目,35.8433021,139.792619,281764.0552911376,5339661312,False
多摩田園都市,神奈川県,青葉区,桂台二丁目,35.550734,139.502206,281785.37811969215,5339246011,False
袖ヶ浦,千葉県,習志野市,袖ケ浦３丁目,35.675731,140.018826,281879.0008758443,5340401121,False
勝瀬原,埼玉県,富士見市,ふじみ野西２丁目,35.861502,139.521774,283449.95264743874,5339643123,False
多摩田園都市,神奈川県,青葉区,たちばな台二丁目,35.557996,139.507399,283973.3899801208,5339246043,False
洋光台,神奈川県,磯子区,洋光台三丁目,35.3779355,139.596837,284407.60675479367,5339045723,False
十日市場,神奈川県,緑区,十日市場町,35.5235087,139.513953,284881.0216983723,5339242133,False
新横浜駅北部,神奈川県,港北区,新横浜二丁目,35.5085952,139.614551,285609.80029013584,5339241911,False
長津田みなみ台,神奈川県,緑区,長津田みなみ台一丁目,35.5217561,139.497799,285722.21677400445,5339232942,False
新ゆりグリーンタウン,神奈川県,麻生区,白山４丁目,35.5898994,139.510354,286208.1509283641,5339340044,False
長吉瓜破,大阪府,平野区,長吉長原４丁目,34.6015174,135.57002,286878.85703553236,5135742521,False
みずほ台,埼玉県,富士見市,東みずほ台２丁目,35.840534,139.551578,287895.92409573984,5339640433,False
国立富士見台,東京都,国立市,富士見台３丁目,35.686111,139.440086,288160.3389162011,5339432513,False
台村寺山,神奈川県,緑区,台村町,35.5095472,139.533634,288369.3550681998,5339241221,False
常盤平,千葉県,松戸市,常盤平３丁目,35.799228,139.955435,288450.94050252624,5339575634,False
久留米西,東京都,東久留米市,下里４丁目,35.753191,139.497142,288903.3008156876,5339530924,False
多摩田園都市,神奈川県,青葉区,荏子田二丁目,35.580267,139.534822,289528.4647972275,5339249242,False
多摩田園都市,神奈川県,青葉区,大場町,35.561121,139.536345,289918.03035406163,5339247224,False
習志野台,千葉県,船橋市,習志野台３丁目,35.722267,140.048411,290003.04942830227,5340406342,False
宮本台,千葉県,船橋市,東船橋４丁目,35.697634,140.004586,290402.5188708806,5340403032,False
多摩田園都市,神奈川県,緑区,いぶき野,35.529153,139.505339,290505.98239657976,5339243014,False
港南丸山,神奈川県,港南区,丸山台三丁目,35.3982696,139.567657,290921.05508950626,5339047534,False
富田,大阪府,高槻市,牧田町,34.8202693,135.603608,291118.4286730648,5235148814,False
多摩田園都市,神奈川県,青葉区,すすき野一丁目,35.574054,139.533062,291266.7351407358,5339248243,False
多摩田園都市,神奈川県,青葉区,みたけ台,35.555378,139.519029,292832.4269018434,5339246141,False
多摩田園都市,神奈川県,青葉区,たちばな台二丁目,35.556914,139.510746,292854.3728874087,5339246044,False
新松戸中央,千葉県,松戸市,新松戸５丁目,35.827591,139.909837,293913.6888502762,5339579224,False
鴨居,神奈川県,緑区,竹山一丁目,35.498788,139.561429,293975.165598029,5339149444,False
新百合丘駅周辺,神奈川県,麻生区,上麻生３丁目,35.601597,139.505401,294357.6068935453,5339342012,False
芝東第１,埼玉県,川口市,北園町,35.8555085,139.703501,294404.66950751294,5339652632,False
山口台,神奈川県,麻生区,上麻生４丁目,35.597174,139.504939,294504.5229350147,5339341032,False
西菅,神奈川県,多摩区,菅北浦４丁目,35.6241766,139.53033,295845.97507499054,5339344234,False
多摩田園都市,神奈川県,青葉区,荏田町,35.556599,139.556665,296638.0966760635,5339246443,False
小川蜂谷戸,東京都,町田市,小川１丁目,35.529109,139.474107,296836.8747405988,5339233724,False
多摩田園都市,神奈川県,青葉区,柿の木台,35.55227,139.527397,297402.6274965078,5339246213,False
稲毛海浜ニュータウン,千葉県,美浜区,高洲３丁目,35.623082,140.072572,298360.3206001032,5340304544,False
多摩田園都市,神奈川県,青葉区,荏田西五丁目,35.544449,139.544263,298548.5768113793,5339245323,False
多摩田園都市,神奈川県,青葉区,大場町,35.566654,139.535809,298813.16440253775,5339247244,False
多摩田園都市,神奈川県,青葉区,みすずが丘,35.563547,139.539671,299070.53116257326,5339247331,False
多摩田園都市,神奈川県,青葉区,梅が丘,35.534007,139.524436,299077.46122288343,5339244122,False
平岸,北海道,豊平区,平岸四条４丁目,43.038046,141.371899,299662.36900903145,6441424942,False
久留米,東京都,東久留米市,上の原１丁目,35.770472,139.541817,300253.3198201536,5339542314,False
多摩田園都市,神奈川県,青葉区,荏田北二丁目,35.55646,139.539971,300491.94518589455,5339246333,False
多摩田園都市,神奈川県,青葉区,すすき野三丁目,35.578243,139.528384,301255.6664682598,5339249214,False
成瀬南,東京都,町田市,南成瀬４丁目,35.537796,139.474289,301611.75744402525,5339234742,False
八尾駅前,大阪府,八尾市,桜ヶ丘３丁目,34.6315298,135.606319,301837.9059511374,5135745843,False
京浜団地,東京都,町田市,成瀬が丘２丁目,35.533614,139.471886,303999.0484656931,5339234722,False
野庭,神奈川県,港南区,野庭町,35.389347,139.570438,304028.8831201049,5339046541,False
南戸塚住宅地,神奈川県,中区,常盤町１丁目,35.444137,139.638022,305459.39475996955,5339153113,False
港北ニュータウン,神奈川県,都筑区,中川中央二丁目,35.5506001,139.575617,306156.5285917376,5339246611,False
検見川海浜ニュータウン,千葉県,美浜区,磯辺５丁目,35.635709,140.060749,307347.83588195266,5340306424,False
多摩田園都市,神奈川県,青葉区,荏田西五丁目,35.545217,139.548211,307973.1556548467,5339245324,False
多摩田園都市,神奈川県,青葉区,あざみ野南三丁目,35.56236,139.547224,309226.43119552155,5339247324,False
うらわイーストシティ,埼玉県,緑区,東浦和２丁目,35.862152,139.696054,309558.62743191037,5339653523,False
武庫川,兵庫県,西宮市,高須町２丁目,34.7055289,135.370569,309641.0627670952,5235024941,False
多摩田園都市,神奈川県,青葉区,市ケ尾町,35.549896,139.542203,309738.6165021059,5339245334,False
多摩田園都市,神奈川県,青葉区,荏田北一丁目,35.557926,139.545078,310694.69939080504,5339246343,False
野間,兵庫県,伊丹市,南野６丁目,34.766708,135.3971,311544.5237156028,5235132122,False
港北ニュータウン,神奈川県,都筑区,荏田東三丁目,35.5447298,139.562588,312901.99080983165,5339245513,False
万福寺,神奈川県,麻生区,万福寺３丁目,35.6074757,139.506376,313727.40858520864,5339342043,False
多摩田園都市,神奈川県,青葉区,荏田西二丁目,35.554749,139.551859,313944.9116243559,5339246431,False
多摩田園都市,神奈川県,青葉区,荏田西二丁目,35.555989,139.555099,315052.2030150309,5339246432,False
多摩田園都市,神奈川県,青葉区,千草台,35.541184,139.532204,316937.556814846,5339244243,False
汐見台,神奈川県,磯子区,汐見台２丁目,35.4008682,139.606642,317671.8116358074,5339048821,False
新松戸南部,千葉県,松戸市,新松戸南２丁目,35.821258,139.911141,318027.76646675484,5339578242,False
菅,神奈川県,多摩区,寺尾台１丁目,35.6197828,139.535823,318180.70028803335,5339344224,False
東戸塚前田秋葉,神奈川県,戸塚区,前田町,35.425602,139.548247,318890.8047648045,5339141322,False
多摩田園都市,神奈川県,青葉区,しらとり台,35.536033,139.513621,321543.46696003026,5339244113,False
南生田,神奈川県,多摩区,南生田１丁目,35.606462,139.530181,322378.30714455043,5339342234,False
品川八潮,東京都,品川区,八潮５丁目,35.601276,139.752059,326038.9074225953,5339362011,False
多摩田園都市,神奈川県,青葉区,あざみ野一丁目,35.569935,139.546108,327314.0533907882,5339248323,False
花畑,東京都,足立区,花畑３丁目,35.804484,139.813857,327468.3829900987,5339566531,False
多摩田園都市,神奈川県,青葉区,美しが丘四丁目,35.580023,139.549928,327498.8686518433,5339249342,False
志木ニュータウン,埼玉県,志木市,館１丁目,35.8262277,139.562264,328237.44514746725,5339549422,False
寺内,大阪府,豊中市,寺内１丁目,34.773503,135.49333,329699.41834028513,5235132934,False
多摩田園都市,神奈川県,青葉区,もえぎ野,35.547452,139.523106,330665.5884498248,5339245142,False
車返,東京都,府中市,押立町１丁目,35.661377,139.511244,332589.89464445505,5339349024,False
新曽第一,埼玉県,戸田市,大字新曽稲荷,35.8213722,139.6628,332641.26209321857,5339558331,False
金岡東,大阪府,北区,新金岡町４丁,34.569906,135.518024,332914.1556955443,5135648114,False
東戸塚品濃中央,神奈川県,戸塚区,平戸四丁目,35.429659,139.559749,332930.64983403106,5339141442,False
多摩田園都市,神奈川県,青葉区,つつじが丘,35.539735,139.519458,336253.345837323,5339244143,False
多摩田園都市,神奈川県,青葉区,荏田北二丁目,35.553108,139.540873,336784.23697560723,5339246314,False
東生田,神奈川県,多摩区,三田３丁目,35.6107724,139.543863,338527.2330340854,5339343323,False
多摩田園都市,神奈川県,青葉区,藤が丘二丁目,35.542284,139.527183,345819.6994350903,5339245211,False
多摩田園都市,神奈川県,青葉区,青葉台二丁目,35.546299,139.515338,347501.8850641275,5339245131,False
佐井寺東,大阪府,吹田市,五月が丘西,34.7859922,135.524975,348478.7879573859,5235144124,False
錦町,埼玉県,蕨市,錦町４丁目,35.8269683,139.671641,348634.4765551061,5339559321,False
港北ニュータウン,神奈川県,都筑区,牛久保一丁目,35.5595556,139.582504,348761.87107044435,5339247621,False
百合ヶ丘,神奈川県,麻生区,百合丘１丁目,35.604835,139.516561,350316.97049450007,5339342132,False
佐井寺南,大阪府,吹田市,竹谷町,34.7798134,135.519177,353001.3272125759,5235143141,False
多摩田園都市,神奈川県,青葉区,新石川二丁目,35.571332,139.561386,355766.43395566056,5339248442,False
JR津田沼駅南口,千葉県,習志野市,奏の杜１丁目,35.689736,140.014057,356927.8590109104,5340402133,False
行徳中部,千葉県,市川市,塩焼４丁目,35.686433,139.928387,361742.2081371096,5339472414,False
多摩田園都市,神奈川県,都筑区,すみれが丘,35.56634,139.581385,361966.82453286793,5339247643,False
行徳南部,千葉県,市川市,幸２丁目,35.679928,139.925407,363321.3390457054,5339471431,False
丸山台,埼玉県,和光市,丸山台２丁目,35.784975,139.616183,363519.9998430478,5339544912,False
ひばりが丘,東京都,西東京市,ひばりが丘３丁目,35.744806,139.534993,364929.6606217817,5339449224,False
多摩田園都市,神奈川県,都筑区,あゆみが丘,35.569351,139.567253,366289.42395963037,5339248514,False
多摩田園都市,神奈川県,宮前区,野川,35.5739817,139.603254,366689.2791504633,5339248834,False
相模大野駅周辺,神奈川県,南区,相模大野３丁目,35.531825,139.438044,369668.92887611984,5339233533,False
多摩田園都市,神奈川県,宮前区,けやき平,35.5941307,139.576736,373660.16311953467,5339341613,False
多摩田園都市,神奈川県,宮前区,犬蔵２丁目,35.5863957,139.561722,381935.59963410377,5339340424,False
行徳,千葉県,市川市,富浜２丁目,35.689984,139.92231,391988.94784789154,5339472344,False
多摩田園都市,神奈川県,青葉区,美しが丘二丁目,35.582955,139.556365,392955.77223617857,5339249443,False
多摩川,東京都,狛江市,西和泉１丁目,35.639807,139.562523,397778.5819354714,5339346533,False
多摩田園都市,神奈川県,宮前区,鷺沼３丁目,35.5786537,139.569482,399593.10910255945,5339249523,False
竹の塚,東京都,足立区,竹の塚５丁目,35.79405,139.795876,400214.23134179495,5339565323,False
神代,東京都,調布市,西つつじケ丘４丁目,35.653461,139.575709,402283.3399162247,5339348613,False
多摩田園都市,神奈川県,宮前区,土橋６丁目,35.5875976,139.572971,408593.40067502484,5339340542,False
多摩田園都市,神奈川県,宮前区,有馬５丁目,35.5736912,139.579475,411426.99447362474,5339248634,False
南行徳第三,千葉県,市川市,行徳駅前１丁目,35.681945,139.915652,415796.8692122784,5339471334,False
南田中,東京都,練馬区,南田中５丁目,35.738949,139.610712,431258.84680385597,5339448842,False
多摩田園都市,神奈川県,高津区,梶ケ谷３丁目,35.5876318,139.603508,433548.6515260897,5339340832,False
多摩田園都市,神奈川県,宮前区,小台２丁目,35.5821528,139.583462,434361.2253966721,5339249643,False
南行徳第一,千葉県,市川市,相之川３丁目,35.675653,139.899044,440521.3846020263,5339471122,False
赤羽台,東京都,北区,赤羽台３丁目,35.779594,139.715238,449310.1379001626,5339553731,False
南行徳第二,千葉県,市川市,香取２丁目,35.677775,139.909199,451490.9773969539,5339471223,False
多摩田園都市,神奈川県,宮前区,宮前平３丁目,35.5871018,139.584965,456174.00119388034,5339340624,False
板橋,東京都,板橋区,坂下１丁目,35.7791729,139.688672,480526.99297261867,5339553531,False
光が丘,東京都,練馬区,光が丘５丁目,35.759242,139.627433,517399.40896978474,5339551011,False
戸山ハイツ,東京都,新宿区,戸山３丁目,35.704487,139.714165,524698.5661442234,5339454731,False
